Model Marker Errors from IK
version=1
nRows=651
nColumns=4
inDegrees=no
endheader
time	total_squared_error	marker_error_RMS	marker_error_max
      0.00000000	      0.81787888	      0.13791461	      0.31556386
      0.01666670	      0.84029666	      0.13979193	      0.32385382
      0.03333330	      0.85487164	      0.14099906	      0.32787834
      0.05000000	      0.84459425	      0.14014894	      0.32553383
      0.06666670	      0.83945093	      0.13972156	      0.32412703
      0.08333330	      0.83327520	      0.13920666	      0.32227245
      0.10000000	      0.82931544	      0.13887550	      0.32144687
      0.11666670	      0.82653064	      0.13864214	      0.32057548
      0.13333330	      0.82391083	      0.13842224	      0.32002466
      0.15000000	      0.82156395	      0.13822496	      0.31948404
      0.16666670	      0.82009373	      0.13810122	      0.31902147
      0.18333330	      0.81723243	      0.13786009	      0.31840782
      0.20000000	      0.81439833	      0.13762084	      0.31779871
      0.21666670	      0.81319875	      0.13751945	      0.31749343
      0.23333330	      0.81132328	      0.13736078	      0.31714393
      0.25000000	      0.81160118	      0.13738430	      0.31718931
      0.26666670	      0.81104729	      0.13733741	      0.31711467
      0.28333330	      0.81106722	      0.13733910	      0.31709035
      0.30000000	      0.81243808	      0.13745512	      0.31719898
      0.31666670	      0.81015259	      0.13726164	      0.31680122
      0.33333330	      0.80807436	      0.13708547	      0.31641283
      0.35000000	      0.80918020	      0.13717924	      0.31655258
      0.36666670	      0.81001360	      0.13724987	      0.31662216
      0.38333330	      0.81011334	      0.13725831	      0.31660125
      0.40000000	      0.81177884	      0.13739934	      0.31679700
      0.41666670	      0.81214949	      0.13743070	      0.31677510
      0.43333330	      0.81233735	      0.13744659	      0.31681455
      0.45000000	      0.81217142	      0.13743256	      0.31675205
      0.46666670	      0.81156819	      0.13738151	      0.31668685
      0.48333330	      0.81106011	      0.13733850	      0.31672202
      0.50000000	      0.81148710	      0.13737464	      0.31673276
      0.51666670	      0.81241096	      0.13745282	      0.31674131
      0.53333330	      0.81286747	      0.13749143	      0.31665999
      0.55000000	      0.81329861	      0.13752789	      0.31655803
      0.56666670	      0.81421420	      0.13760528	      0.31659322
      0.58333330	      0.81481194	      0.13765578	      0.31658482
      0.60000000	      0.81488294	      0.13766178	      0.31651331
      0.61666670	      0.81390072	      0.13757879	      0.31621724
      0.63333330	      0.81355994	      0.13754999	      0.31625275
      0.65000000	      0.81290450	      0.13749457	      0.31618956
      0.66666670	      0.81313801	      0.13751431	      0.31629839
      0.68333330	      0.81087143	      0.13732252	      0.31603718
      0.70000000	      0.80981980	      0.13723345	      0.31596629
      0.71666670	      0.80980266	      0.13723199	      0.31607549
      0.73333330	      0.80916170	      0.13717767	      0.31605322
      0.75000000	      0.80915942	      0.13717748	      0.31614960
      0.76666670	      0.81021348	      0.13726680	      0.31629626
      0.78333330	      0.81085558	      0.13732118	      0.31633711
      0.80000000	      0.81061525	      0.13730083	      0.31617877
      0.81666670	      0.81195643	      0.13741436	      0.31638206
      0.83333330	      0.81122038	      0.13735207	      0.31622963
      0.85000000	      0.81037295	      0.13728031	      0.31611659
      0.86666670	      0.81125538	      0.13735503	      0.31630651
      0.88333330	      0.81220261	      0.13743520	      0.31641464
      0.90000000	      0.81089952	      0.13732490	      0.31636113
      0.91666670	      0.81073644	      0.13731109	      0.31644071
      0.93333330	      0.81022848	      0.13726807	      0.31649689
      0.95000000	      0.81052903	      0.13729353	      0.31654247
      0.96666670	      0.81080935	      0.13731727	      0.31660758
      0.98333330	      0.81035102	      0.13727845	      0.31649366
      1.00000000	      0.81183985	      0.13740450	      0.31673962
      1.01666670	      0.81270092	      0.13747735	      0.31684318
      1.03333330	      0.81224743	      0.13743899	      0.31669429
      1.05000000	      0.81295265	      0.13749864	      0.31678347
      1.06666670	      0.81360664	      0.13755393	      0.31676508
      1.08333330	      0.81431032	      0.13761341	      0.31674416
      1.10000000	      0.81495772	      0.13766810	      0.31673176
      1.11666670	      0.81382054	      0.13757201	      0.31647601
      1.13333330	      0.81461816	      0.13763941	      0.31658184
      1.15000000	      0.81480720	      0.13765538	      0.31661564
      1.16666670	      0.81432872	      0.13761496	      0.31659723
      1.18333330	      0.81361142	      0.13755434	      0.31650578
      1.20000000	      0.81250538	      0.13746081	      0.31637730
      1.21666670	      0.81216883	      0.13743234	      0.31630145
      1.23333330	      0.81251343	      0.13746149	      0.31631514
      1.25000000	      0.81196707	      0.13741526	      0.31626476
      1.26666670	      0.81209987	      0.13742650	      0.31630603
      1.28333330	      0.81237412	      0.13744971	      0.31636157
      1.30000000	      0.81185781	      0.13740602	      0.31629498
      1.31666670	      0.81189442	      0.13740912	      0.31635400
      1.33333330	      0.81222698	      0.13743726	      0.31635240
      1.35000000	      0.81179880	      0.13740103	      0.31624765
      1.36666670	      0.81064183	      0.13730308	      0.31608068
      1.38333330	      0.81035318	      0.13727863	      0.31610290
      1.40000000	      0.81130472	      0.13735921	      0.31628566
      1.41666670	      0.81208696	      0.13742541	      0.31630065
      1.43333330	      0.81173144	      0.13739532	      0.31623778
      1.45000000	      0.81202120	      0.13741985	      0.31629794
      1.46666670	      0.81299176	      0.13750195	      0.31631908
      1.48333330	      0.81380401	      0.13757062	      0.31640613
      1.50000000	      0.81365288	      0.13755784	      0.31632128
      1.51666670	      0.81317913	      0.13751779	      0.31629040
      1.53333330	      0.81224735	      0.13743898	      0.31615498
      1.55000000	      0.81275936	      0.13748229	      0.31636727
      1.56666670	      0.81264240	      0.13747240	      0.31631369
      1.58333330	      0.81311471	      0.13751234	      0.31632686
      1.60000000	      0.81348533	      0.13754368	      0.31635032
      1.61666670	      0.81299608	      0.13750231	      0.31625135
      1.63333330	      0.81180807	      0.13740181	      0.31597219
      1.65000000	      0.81096151	      0.13733015	      0.31600475
      1.66666670	      0.81028793	      0.13727311	      0.31602584
      1.68333330	      0.80964852	      0.13721893	      0.31606896
      1.70000000	      0.80899714	      0.13716372	      0.31607006
      1.71666670	      0.80842619	      0.13711531	      0.31606482
      1.73333330	      0.80865642	      0.13713484	      0.31620169
      1.75000000	      0.80881685	      0.13714844	      0.31627440
      1.76666670	      0.80836916	      0.13711048	      0.31630893
      1.78333330	      0.80800665	      0.13707973	      0.31640810
      1.80000000	      0.80992058	      0.13724198	      0.31680284
      1.81666670	      0.81127845	      0.13735698	      0.31686225
      1.83333330	      0.81266402	      0.13747423	      0.31687236
      1.85000000	      0.81375751	      0.13756669	      0.31689280
      1.86666670	      0.81349817	      0.13754476	      0.31661061
      1.88333330	      0.81261718	      0.13747027	      0.31645317
      1.90000000	      0.80942596	      0.13720007	      0.31594400
      1.91666670	      0.80894356	      0.13715918	      0.31611144
      1.93333330	      0.80838506	      0.13711182	      0.31605160
      1.95000000	      0.80552518	      0.13686908	      0.31603954
      1.96666670	      0.80238934	      0.13660241	      0.31583264
      1.98333330	      0.80016645	      0.13641306	      0.31609350
      2.00000000	      0.79929879	      0.13633908	      0.31617001
      2.01666670	      0.80175319	      0.13654824	      0.31687759
      2.03333330	      0.80206640	      0.13657491	      0.31700487
      2.05000000	      0.80314928	      0.13666708	      0.31698992
      2.06666670	      0.80243850	      0.13660659	      0.31661126
      2.08333330	      0.79539300	      0.13600556	      0.31520963
      2.10000000	      0.78585525	      0.13518766	      0.31346626
      2.11666670	      0.77199873	      0.13399052	      0.31125599
      2.13333330	      0.76067109	      0.13300385	      0.30935126
      2.15000000	      0.74685542	      0.13179048	      0.30704720
      2.16666670	      0.73202476	      0.13047541	      0.30438777
      2.18333330	      0.71687772	      0.12911845	      0.30132649
      2.20000000	      0.70400013	      0.12795349	      0.29864537
      2.21666670	      0.68924860	      0.12660583	      0.29506503
      2.23333330	      0.67563700	      0.12534946	      0.29128608
      2.25000000	      0.65873408	      0.12377155	      0.28642614
      2.26666670	      0.63908299	      0.12191142	      0.28085823
      2.28333330	      0.61721188	      0.11980720	      0.27448187
      2.30000000	      0.60131559	      0.11825432	      0.26906736
      2.31666670	      0.58658068	      0.11679645	      0.26306422
      2.33333330	      0.57245594	      0.11538167	      0.25624949
      2.35000000	      0.55337541	      0.11344248	      0.24813075
      2.36666670	      0.53348697	      0.11138525	      0.23879125
      2.38333330	      0.51898666	      0.10986108	      0.22991247
      2.40000000	      0.48116779	      0.10578255	      0.22153439
      2.41666670	      0.47012012	      0.10456111	      0.21181900
      2.43333330	      0.45695046	      0.10308615	      0.20084995
      2.45000000	      0.44574639	      0.10181451	      0.18960739
      2.46666670	      0.43578584	      0.10067052	      0.18514288
      2.48333330	      0.41495892	      0.09823547	      0.18873488
      2.50000000	      0.40031296	      0.09648629	      0.19220442
      2.51666670	      0.39156797	      0.09542658	      0.19603973
      2.53333330	      0.38356130	      0.09444591	      0.19964683
      2.55000000	      0.38232224	      0.09429324	      0.20460686
      2.56666670	      0.38442950	      0.09455274	      0.20840771
      2.58333330	      0.38632243	      0.09478524	      0.21218421
      2.60000000	      0.39261528	      0.09555411	      0.21651620
      2.61666670	      0.40089240	      0.09655609	      0.21986734
      2.63333330	      0.40888088	      0.09751337	      0.22317534
      2.65000000	      0.41662614	      0.09843262	      0.22574230
      2.66666670	      0.42280279	      0.09915958	      0.22760814
      2.68333330	      0.42776188	      0.09973941	      0.22938725
      2.70000000	      0.43226703	      0.10026326	      0.23090424
      2.71666670	      0.43611163	      0.10070815	      0.23230264
      2.73333330	      0.43880419	      0.10101856	      0.23359284
      2.75000000	      0.44129355	      0.10130469	      0.23412149
      2.76666670	      0.44227884	      0.10141772	      0.23399817
      2.78333330	      0.44223675	      0.10141290	      0.23284853
      2.80000000	      0.44181335	      0.10136434	      0.23115918
      2.81666670	      0.44135994	      0.10131231	      0.22950303
      2.83333330	      0.44007241	      0.10116443	      0.22718166
      2.85000000	      0.43772836	      0.10089464	      0.22467605
      2.86666670	      0.43642144	      0.10074391	      0.22201788
      2.88333330	      0.43534351	      0.10061942	      0.21859916
      2.90000000	      0.43662450	      0.10076735	      0.21573104
      2.91666670	      0.43378497	      0.10043915	      0.21142534
      2.93333330	      0.43146805	      0.10017056	      0.20713567
      2.95000000	      0.43160049	      0.10018593	      0.20329351
      2.96666670	      0.43238862	      0.10027736	      0.19888833
      2.98333330	      0.43263829	      0.10030631	      0.19472027
      3.00000000	      0.43647284	      0.10074984	      0.18969998
      3.01666670	      0.44375569	      0.10158691	      0.18364011
      3.03333330	      0.45304654	      0.10264485	      0.18307685
      3.05000000	      0.46742740	      0.10426123	      0.19637246
      3.06666670	      0.48341756	      0.10602957	      0.20833505
      3.08333330	      0.49372696	      0.10715420	      0.21886938
      3.10000000	      0.50770589	      0.10866054	      0.22464010
      3.11666670	      0.52447521	      0.11044047	      0.23651180
      3.13333330	      0.54138822	      0.11220706	      0.24722968
      3.15000000	      0.56288890	      0.11441346	      0.25851170
      3.16666670	      0.58682227	      0.11682050	      0.26906489
      3.18333330	      0.60956480	      0.11906270	      0.27863192
      3.20000000	      0.63154031	      0.12118987	      0.28721469
      3.21666670	      0.65209473	      0.12314623	      0.29453466
      3.23333330	      0.67584308	      0.12536858	      0.30149327
      3.25000000	      0.69304460	      0.12695399	      0.30663331
      3.26666670	      0.70890635	      0.12839858	      0.31108406
      3.28333330	      0.72399887	      0.12975817	      0.31459228
      3.30000000	      0.73784330	      0.13099293	      0.31746087
      3.31666670	      0.74640694	      0.13175090	      0.31924131
      3.33333330	      0.75479670	      0.13248929	      0.32079489
      3.35000000	      0.76045803	      0.13298523	      0.32171745
      3.36666670	      0.76048847	      0.13298789	      0.32144968
      3.38333330	      0.75786182	      0.13275803	      0.32079020
      3.40000000	      0.75228827	      0.13226895	      0.31984374
      3.41666670	      0.74578848	      0.13169631	      0.31889940
      3.43333330	      0.73752293	      0.13096448	      0.31766583
      3.45000000	      0.72681547	      0.13001033	      0.31606183
      3.46666670	      0.71314056	      0.12878146	      0.31414004
      3.48333330	      0.69742668	      0.12735472	      0.31164059
      3.50000000	      0.67956895	      0.12571368	      0.30843195
      3.51666670	      0.66276881	      0.12415002	      0.30527156
      3.53333330	      0.64642006	      0.12260924	      0.30134094
      3.55000000	      0.63049458	      0.12108949	      0.29681726
      3.56666670	      0.61576993	      0.11966717	      0.29154240
      3.58333330	      0.59520139	      0.11765157	      0.28414896
      3.60000000	      0.57344949	      0.11548175	      0.27580946
      3.61666670	      0.55215065	      0.11331687	      0.26680115
      3.63333330	      0.52891267	      0.11090669	      0.25634768
      3.65000000	      0.50318666	      0.10817585	      0.24494404
      3.66666670	      0.48431265	      0.10612768	      0.23414563
      3.68333330	      0.47145616	      0.10470958	      0.22362801
      3.70000000	      0.45853065	      0.10326424	      0.21187220
      3.71666670	      0.43554344	      0.10064252	      0.20599464
      3.73333330	      0.42436967	      0.09934315	      0.19384653
      3.75000000	      0.41463282	      0.09819686	      0.18944889
      3.76666670	      0.40693255	      0.09728077	      0.19552504
      3.78333330	      0.39919190	      0.09635109	      0.20100008
      3.80000000	      0.39607518	      0.09597422	      0.20655299
      3.81666670	      0.39597171	      0.09596168	      0.21296988
      3.83333330	      0.39975640	      0.09641919	      0.21905134
      3.85000000	      0.40764398	      0.09736577	      0.22395762
      3.86666670	      0.41553015	      0.09830306	      0.22719529
      3.88333330	      0.42479644	      0.09939309	      0.22990024
      3.90000000	      0.43492677	      0.10057125	      0.23281533
      3.91666670	      0.44376087	      0.10158750	      0.23521664
      3.93333330	      0.45112881	      0.10242738	      0.23696232
      3.95000000	      0.45598829	      0.10297756	      0.23839720
      3.96666670	      0.45904950	      0.10332265	      0.23939691
      3.98333330	      0.46082385	      0.10352214	      0.23975609
      4.00000000	      0.46236326	      0.10369491	      0.23969522
      4.01666670	      0.46352461	      0.10382506	      0.23949220
      4.03333330	      0.46472623	      0.10395954	      0.23931163
      4.05000000	      0.46479809	      0.10396758	      0.23838822
      4.06666670	      0.46446830	      0.10393069	      0.23801465
      4.08333330	      0.46384538	      0.10386097	      0.23782705
      4.10000000	      0.46179219	      0.10363085	      0.23666767
      4.11666670	      0.46081631	      0.10352129	      0.23616989
      4.13333330	      0.45871536	      0.10328504	      0.23490556
      4.15000000	      0.45587686	      0.10296498	      0.23344048
      4.16666670	      0.45100989	      0.10241388	      0.23057015
      4.18333330	      0.44704602	      0.10196283	      0.22780130
      4.20000000	      0.44158478	      0.10133811	      0.22366039
      4.21666670	      0.43921209	      0.10106550	      0.21982410
      4.23333330	      0.43833689	      0.10096475	      0.21502652
      4.25000000	      0.43791856	      0.10091656	      0.20935733
      4.26666670	      0.43641718	      0.10074342	      0.20395893
      4.28333330	      0.43878512	      0.10101636	      0.19848526
      4.30000000	      0.43936365	      0.10108293	      0.19287767
      4.31666670	      0.44424750	      0.10164319	      0.18706489
      4.33333330	      0.44593148	      0.10183565	      0.18003971
      4.35000000	      0.45053110	      0.10235950	      0.18957863
      4.36666670	      0.46242102	      0.10370138	      0.20312199
      4.38333330	      0.47737703	      0.10536504	      0.21536438
      4.40000000	      0.49681418	      0.10748869	      0.22790956
      4.41666670	      0.52009124	      0.10997793	      0.23523882
      4.43333330	      0.54212133	      0.11228300	      0.24710967
      4.45000000	      0.56287632	      0.11441218	      0.25787537
      4.46666670	      0.58430313	      0.11656948	      0.26824802
      4.48333330	      0.60148785	      0.11827125	      0.27711978
      4.50000000	      0.61974071	      0.12005238	      0.28547858
      4.51666670	      0.63923310	      0.12192574	      0.29334684
      4.53333330	      0.66253809	      0.12412841	      0.30095530
      4.55000000	      0.68335433	      0.12606332	      0.30698227
      4.56666670	      0.70483647	      0.12802947	      0.31235741
      4.58333330	      0.72269439	      0.12964122	      0.31632542
      4.60000000	      0.73888897	      0.13108571	      0.31945325
      4.61666670	      0.75031048	      0.13209497	      0.32118145
      4.63333330	      0.75696723	      0.13267965	      0.32184981
      4.65000000	      0.75880792	      0.13284087	      0.32144561
      4.66666670	      0.75817893	      0.13278580	      0.32089951
      4.68333330	      0.75563887	      0.13256318	      0.31993943
      4.70000000	      0.75166961	      0.13221456	      0.31886351
      4.71666670	      0.74688035	      0.13179268	      0.31799324
      4.73333330	      0.73962149	      0.13115068	      0.31654829
      4.75000000	      0.73206781	      0.13047924	      0.31545435
      4.76666670	      0.72030685	      0.12942690	      0.31350340
      4.78333330	      0.70707340	      0.12823247	      0.31138065
      4.80000000	      0.69306049	      0.12695545	      0.30895831
      4.81666670	      0.67631790	      0.12541261	      0.30584577
      4.83333330	      0.65598914	      0.12351341	      0.30172732
      4.85000000	      0.63465345	      0.12148820	      0.29707539
      4.86666670	      0.61485727	      0.11957845	      0.29205172
      4.88333330	      0.59103563	      0.11723913	      0.28520619
      4.90000000	      0.56939981	      0.11507326	      0.27806190
      4.91666670	      0.55327498	      0.11343218	      0.27099804
      4.93333330	      0.53931492	      0.11199200	      0.26306912
      4.95000000	      0.52386642	      0.11037636	      0.25435140
      4.96666670	      0.50334886	      0.10819329	      0.24383652
      4.98333330	      0.48711592	      0.10643438	      0.23384744
      5.00000000	      0.46168019	      0.10361828	      0.22972104
      5.01666670	      0.44720535	      0.10198100	      0.21913866
      5.03333330	      0.43660658	      0.10076528	      0.20822157
      5.05000000	      0.42872580	      0.09985173	      0.19700359
      5.06666670	      0.41890666	      0.09870165	      0.19163480
      5.08333330	      0.41121377	      0.09779116	      0.19764224
      5.10000000	      0.40578143	      0.09714308	      0.20370729
      5.11666670	      0.40176033	      0.09666056	      0.20958315
      5.13333330	      0.39947416	      0.09638515	      0.21528837
      5.15000000	      0.40238450	      0.09673561	      0.22020407
      5.16666670	      0.40866323	      0.09748741	      0.22539806
      5.18333330	      0.41729576	      0.09851169	      0.22950977
      5.20000000	      0.42555668	      0.09948199	      0.23276075
      5.21666670	      0.43547047	      0.10063409	      0.23634891
      5.23333330	      0.44431901	      0.10165137	      0.23913522
      5.25000000	      0.45258210	      0.10259223	      0.24191089
      5.26666670	      0.45680374	      0.10306960	      0.24319315
      5.28333330	      0.46030614	      0.10346397	      0.24384137
      5.30000000	      0.46146006	      0.10359358	      0.24348799
      5.31666670	      0.46163382	      0.10361308	      0.24329507
      5.33333330	      0.46148716	      0.10359662	      0.24289059
      5.35000000	      0.46049839	      0.10348558	      0.24196636
      5.36666670	      0.45858710	      0.10327060	      0.24110922
      5.38333330	      0.45795184	      0.10319904	      0.24050885
      5.40000000	      0.45611207	      0.10299154	      0.23925428
      5.41666670	      0.45409697	      0.10276378	      0.23837040
      5.43333330	      0.45049144	      0.10235500	      0.23546503
      5.45000000	      0.44747932	      0.10201223	      0.23192325
      5.46666670	      0.44489276	      0.10171698	      0.22814377
      5.48333330	      0.44287861	      0.10148647	      0.22484209
      5.50000000	      0.43901184	      0.10104245	      0.22104660
      5.51666670	      0.43649632	      0.10075255	      0.21607809
      5.53333330	      0.43750296	      0.10086866	      0.21123973
      5.55000000	      0.43854258	      0.10098844	      0.20693533
      5.56666670	      0.43754296	      0.10087328	      0.20129222
      5.58333330	      0.43731013	      0.10084643	      0.19598227
      5.60000000	      0.43666279	      0.10077176	      0.18938269
      5.61666670	      0.43923804	      0.10106848	      0.18207683
      5.63333330	      0.44916707	      0.10220443	      0.19077237
      5.65000000	      0.46286664	      0.10375134	      0.20497560
      5.66666670	      0.48111604	      0.10577687	      0.21800856
      5.68333330	      0.50017670	      0.10785183	      0.23013452
      5.70000000	      0.52230517	      0.11021176	      0.23753211
      5.71666670	      0.54177065	      0.11224668	      0.24898123
      5.73333330	      0.56664837	      0.11479490	      0.26065687
      5.75000000	      0.59226275	      0.11736078	      0.27136139
      5.76666670	      0.61410314	      0.11950510	      0.28091716
      5.78333330	      0.63490997	      0.12151275	      0.28930707
      5.80000000	      0.65522614	      0.12344155	      0.29665748
      5.81666670	      0.67473877	      0.12526611	      0.30297339
      5.83333330	      0.69362806	      0.12700742	      0.30847686
      5.85000000	      0.70799091	      0.12831565	      0.31277894
      5.86666670	      0.72053664	      0.12944754	      0.31618912
      5.88333330	      0.73105853	      0.13038927	      0.31850325
      5.90000000	      0.73760576	      0.13097184	      0.31998358
      5.91666670	      0.73989930	      0.13117530	      0.32053514
      5.93333330	      0.73788099	      0.13099627	      0.32024730
      5.95000000	      0.73375920	      0.13062989	      0.31977503
      5.96666670	      0.72972560	      0.13027035	      0.31924217
      5.98333330	      0.72412239	      0.12976924	      0.31850862
      6.00000000	      0.71708974	      0.12913755	      0.31763260
      6.01666670	      0.70757660	      0.12827810	      0.31574099
      6.03333330	      0.69536689	      0.12716652	      0.31393918
      6.05000000	      0.68144080	      0.12588670	      0.31158047
      6.06666670	      0.66837322	      0.12467383	      0.30910446
      6.08333330	      0.65310655	      0.12324173	      0.30580494
      6.10000000	      0.63436956	      0.12146102	      0.30136155
      6.11666670	      0.61340065	      0.11943673	      0.29596826
      6.13333330	      0.59006496	      0.11714282	      0.28940979
      6.15000000	      0.56911965	      0.11504495	      0.28243017
      6.16666670	      0.54768147	      0.11285734	      0.27434862
      6.18333330	      0.52706021	      0.11071230	      0.26531636
      6.20000000	      0.51102966	      0.10901564	      0.25641775
      6.21666670	      0.49586630	      0.10738610	      0.24673818
      6.23333330	      0.47921142	      0.10556728	      0.23567021
      6.25000000	      0.46651681	      0.10415963	      0.22563936
      6.26666670	      0.45438724	      0.10279662	      0.21447189
      6.28333330	      0.44202113	      0.10138817	      0.20260534
      6.30000000	      0.43372172	      0.10043183	      0.19078644
      6.31666670	      0.41377567	      0.09809531	      0.18776455
      6.33333330	      0.40565771	      0.09712827	      0.19488351
      6.35000000	      0.39770212	      0.09617113	      0.20053958
      6.36666670	      0.39511393	      0.09585769	      0.20546176
      6.38333330	      0.39585495	      0.09594753	      0.21106537
      6.40000000	      0.40077295	      0.09654171	      0.21742315
      6.41666670	      0.40588892	      0.09715594	      0.22294122
      6.43333330	      0.41355711	      0.09806940	      0.22770264
      6.45000000	      0.42445955	      0.09935367	      0.23267228
      6.46666670	      0.43627513	      0.10072702	      0.23717544
      6.48333330	      0.44786777	      0.10205650	      0.24159882
      6.50000000	      0.45700706	      0.10309254	      0.24495948
      6.51666670	      0.46446231	      0.10393002	      0.24717495
      6.53333330	      0.46870937	      0.10440411	      0.24901590
      6.55000000	      0.47013942	      0.10456326	      0.24957298
      6.56666670	      0.47030848	      0.10458206	      0.24963783
      6.58333330	      0.47039648	      0.10459184	      0.25020221
      6.60000000	      0.47074682	      0.10463078	      0.25013760
      6.61666670	      0.47025137	      0.10457571	      0.24902559
      6.63333330	      0.47021598	      0.10457177	      0.24791230
      6.65000000	      0.46894551	      0.10443041	      0.24667687
      6.66666670	      0.46825337	      0.10435331	      0.24563012
      6.68333330	      0.46700803	      0.10421445	      0.24381909
      6.70000000	      0.46710753	      0.10422555	      0.24211515
      6.71666670	      0.46527362	      0.10402075	      0.24003011
      6.73333330	      0.46305012	      0.10377190	      0.23782882
      6.75000000	      0.45906081	      0.10332392	      0.23473878
      6.76666670	      0.45606172	      0.10298586	      0.23162202
      6.78333330	      0.45177001	      0.10250014	      0.22772170
      6.80000000	      0.44852195	      0.10213101	      0.22376083
      6.81666670	      0.44500120	      0.10172937	      0.21924205
      6.83333330	      0.44226426	      0.10141605	      0.21443100
      6.85000000	      0.43960113	      0.10111025	      0.21063901
      6.86666670	      0.43704744	      0.10081614	      0.20412320
      6.88333330	      0.43609934	      0.10070673	      0.19776963
      6.90000000	      0.43791227	      0.10091584	      0.19129329
      6.91666670	      0.44292349	      0.10149161	      0.18446537
      6.93333330	      0.44982810	      0.10227961	      0.18407163
      6.95000000	      0.46405377	      0.10388430	      0.19821598
      6.96666670	      0.47800835	      0.10543469	      0.21049210
      6.98333330	      0.49157890	      0.10692085	      0.22161958
      7.00000000	      0.51006264	      0.10891245	      0.22823678
      7.01666670	      0.52949398	      0.11096762	      0.23997749
      7.03333330	      0.55319550	      0.11342403	      0.25210565
      7.05000000	      0.57906755	      0.11604606	      0.26340861
      7.06666670	      0.60246517	      0.11836730	      0.27334015
      7.08333330	      0.62815715	      0.12086482	      0.28297024
      7.10000000	      0.64674378	      0.12263993	      0.29028579
      7.11666670	      0.66602195	      0.12445434	      0.29703581
      7.13333330	      0.67797370	      0.12556604	      0.30174783
      7.15000000	      0.69143898	      0.12680685	      0.30655389
      7.16666670	      0.70257414	      0.12782384	      0.31034919
      7.18333330	      0.71431483	      0.12888744	      0.31358103
      7.20000000	      0.72139870	      0.12952495	      0.31564172
      7.21666670	      0.72426727	      0.12978222	      0.31658735
      7.23333330	      0.72794392	      0.13011122	      0.31784981
      7.25000000	      0.72577212	      0.12991698	      0.31772686
      7.26666670	      0.72038221	      0.12943367	      0.31715986
      7.28333330	      0.71484244	      0.12893503	      0.31662910
      7.30000000	      0.70952979	      0.12845502	      0.31620297
      7.31666670	      0.70120418	      0.12769915	      0.31487477
      7.33333330	      0.69114320	      0.12677972	      0.31300847
      7.35000000	      0.67748036	      0.12552035	      0.31036005
      7.36666670	      0.66325058	      0.12419514	      0.30730140
      7.38333330	      0.64450731	      0.12242770	      0.30298154
      7.40000000	      0.62299552	      0.12036722	      0.29782760
      7.41666670	      0.60238724	      0.11835965	      0.29205327
      7.43333330	      0.58044585	      0.11618408	      0.28504792
      7.45000000	      0.55759807	      0.11387448	      0.27683946
      7.46666670	      0.53664499	      0.11171444	      0.26811248
      7.48333330	      0.51660655	      0.10960888	      0.25847689
      7.50000000	      0.49975695	      0.10780656	      0.24880193
      7.51666670	      0.48248626	      0.10592738	      0.23810125
      7.53333330	      0.46973112	      0.10451784	      0.22799701
      7.55000000	      0.46035306	      0.10346925	      0.21711586
      7.56666670	      0.45270546	      0.10260621	      0.20574056
      7.58333330	      0.43085400	      0.10009925	      0.19954071
      7.60000000	      0.42352052	      0.09924371	      0.19084929
      7.61666670	      0.41311064	      0.09801645	      0.19800965
      7.63333330	      0.40630833	      0.09720613	      0.20431234
      7.65000000	      0.40220897	      0.09671451	      0.20971945
      7.66666670	      0.39983708	      0.09642892	      0.21484844
      7.68333330	      0.40286454	      0.09679330	      0.22003456
      7.70000000	      0.40984746	      0.09762856	      0.22555668
      7.71666670	      0.41777278	      0.09856798	      0.23030804
      7.73333330	      0.42780366	      0.09974428	      0.23480631
      7.75000000	      0.43757345	      0.10087679	      0.23839110
      7.76666670	      0.44602659	      0.10184651	      0.24082618
      7.78333330	      0.45532675	      0.10290284	      0.24384847
      7.80000000	      0.46427454	      0.10390901	      0.24711248
      7.81666670	      0.46836511	      0.10436576	      0.24874502
      7.83333330	      0.47128865	      0.10469098	      0.24979140
      7.85000000	      0.47376509	      0.10496567	      0.25042507
      7.86666670	      0.47542801	      0.10514973	      0.25072522
      7.88333330	      0.47388324	      0.10497876	      0.24966189
      7.90000000	      0.47207335	      0.10477810	      0.24868946
      7.91666670	      0.46842569	      0.10437251	      0.24602412
      7.93333330	      0.46669630	      0.10417966	      0.24470175
      7.95000000	      0.46519693	      0.10401218	      0.24376702
      7.96666670	      0.46347043	      0.10381899	      0.24152208
      7.98333330	      0.46073953	      0.10351267	      0.23856225
      8.00000000	      0.45864229	      0.10327681	      0.23601211
      8.01666670	      0.45511643	      0.10287907	      0.23344788
      8.03333330	      0.45268558	      0.10260396	      0.23009667
      8.05000000	      0.44867478	      0.10214841	      0.22538315
      8.06666670	      0.44409105	      0.10162529	      0.22078681
      8.08333330	      0.43915232	      0.10105862	      0.21591002
      8.10000000	      0.43588259	      0.10068170	      0.21147215
      8.11666670	      0.43490749	      0.10056902	      0.20652939
      8.13333330	      0.43347896	      0.10040372	      0.20011871
      8.15000000	      0.43660376	      0.10076495	      0.19399060
      8.16666670	      0.43936213	      0.10108276	      0.18683864
      8.18333330	      0.44752957	      0.10201796	      0.18443465
      8.20000000	      0.46183032	      0.10363513	      0.19847267
      8.21666670	      0.47531263	      0.10513697	      0.21065643
      8.23333330	      0.49133756	      0.10689460	      0.22218222
      8.25000000	      0.50931018	      0.10883209	      0.23291296
      8.26666670	      0.53136087	      0.11116308	      0.23978835
      8.28333330	      0.55015802	      0.11311221	      0.25103305
      8.30000000	      0.56953119	      0.11508654	      0.26164339
      8.31666670	      0.59162172	      0.11729725	      0.27203031
      8.33333330	      0.61311983	      0.11940938	      0.28111062
      8.35000000	      0.63146018	      0.12118218	      0.28904726
      8.36666670	      0.64898666	      0.12285240	      0.29585198
      8.38333330	      0.66328099	      0.12419798	      0.30147182
      8.40000000	      0.67867271	      0.12563075	      0.30683526
      8.41666670	      0.69210621	      0.12686802	      0.31108154
      8.43333330	      0.70583741	      0.12812035	      0.31496681
      8.45000000	      0.71637750	      0.12907340	      0.31751823
      8.46666670	      0.72400244	      0.12975849	      0.31932872
      8.48333330	      0.72595122	      0.12993301	      0.31992278
      8.50000000	      0.72487488	      0.12983665	      0.31985507
      8.51666670	      0.72363356	      0.12972543	      0.31989386
      8.53333330	      0.72131283	      0.12951725	      0.31959902
      8.55000000	      0.71678683	      0.12911027	      0.31887827
      8.56666670	      0.71141952	      0.12862597	      0.31764892
      8.58333330	      0.70097091	      0.12767791	      0.31558624
      8.60000000	      0.68831472	      0.12652003	      0.31322656
      8.61666670	      0.67537751	      0.12532539	      0.31088927
      8.63333330	      0.65699770	      0.12360832	      0.30702201
      8.65000000	      0.63895666	      0.12189937	      0.30287303
      8.66666670	      0.62257955	      0.12032703	      0.29846937
      8.68333330	      0.60709729	      0.11882147	      0.29347040
      8.70000000	      0.58908096	      0.11704511	      0.28723696
      8.71666670	      0.57023587	      0.11515771	      0.27976067
      8.73333330	      0.54939827	      0.11303408	      0.27096525
      8.75000000	      0.52468292	      0.11046234	      0.26006889
      8.76666670	      0.50309210	      0.10816569	      0.24907079
      8.78333330	      0.48344752	      0.10603285	      0.23807424
      8.80000000	      0.46812918	      0.10433947	      0.22745487
      8.81666670	      0.45684220	      0.10307394	      0.21683363
      8.83333330	      0.44746205	      0.10201027	      0.20505101
      8.85000000	      0.43777631	      0.10090017	      0.19231086
      8.86666670	      0.42852852	      0.09982875	      0.18681587
      8.88333330	      0.40720119	      0.09731287	      0.19285553
      8.90000000	      0.40002120	      0.09645112	      0.19809456
      8.91666670	      0.39479217	      0.09581865	      0.20423735
      8.93333330	      0.39484454	      0.09582500	      0.21112670
      8.95000000	      0.40080709	      0.09654582	      0.21718745
      8.96666670	      0.40797611	      0.09740542	      0.22180120
      8.98333330	      0.41731534	      0.09851400	      0.22646536
      9.00000000	      0.42683475	      0.09963127	      0.23144524
      9.01666670	      0.43657867	      0.10076206	      0.23562965
      9.03333330	      0.44549035	      0.10178527	      0.23956035
      9.05000000	      0.45420831	      0.10277638	      0.24334166
      9.06666670	      0.46133885	      0.10357997	      0.24604023
      9.08333330	      0.46711261	      0.10422612	      0.24823226
      9.10000000	      0.47120377	      0.10468155	      0.24945880
      9.11666670	      0.47352247	      0.10493879	      0.25034467
      9.13333330	      0.47577191	      0.10518775	      0.25109096
      9.15000000	      0.47821967	      0.10545799	      0.25234511
      9.16666670	      0.47697115	      0.10532024	      0.25149758
      9.18333330	      0.47605475	      0.10521901	      0.25106933
      9.20000000	      0.47458959	      0.10505697	      0.24974318
      9.21666670	      0.47368222	      0.10495649	      0.24757643
      9.23333330	      0.47164701	      0.10473077	      0.24662020
      9.25000000	      0.47050560	      0.10460397	      0.24501364
      9.26666670	      0.46924850	      0.10446414	      0.24269611
      9.28333330	      0.46686932	      0.10419897	      0.23972534
      9.30000000	      0.46541329	      0.10403636	      0.23691546
      9.31666670	      0.46019488	      0.10345147	      0.23271592
      9.33333330	      0.45482745	      0.10284640	      0.22824114
      9.35000000	      0.44917051	      0.10220482	      0.22360568
      9.36666670	      0.44424777	      0.10164322	      0.21733179
      9.38333330	      0.44038700	      0.10120058	      0.21176427
      9.40000000	      0.43910317	      0.10105296	      0.20591586
      9.41666670	      0.43726410	      0.10084113	      0.19903255
      9.43333330	      0.43758605	      0.10087824	      0.19241322
      9.45000000	      0.44271877	      0.10146815	      0.18545271
      9.46666670	      0.44878461	      0.10216091	      0.18475226
      9.48333330	      0.45787623	      0.10319052	      0.19777561
      9.50000000	      0.47348540	      0.10493469	      0.21079930
      9.51666670	      0.49203186	      0.10697010	      0.22363646
      9.53333330	      0.50854642	      0.10875045	      0.23467980
      9.55000000	      0.53386954	      0.11142518	      0.24322006
      9.56666670	      0.56084599	      0.11420565	      0.25591744
      9.58333330	      0.59058497	      0.11719443	      0.26762502
      9.60000000	      0.61848026	      0.11993024	      0.27805864
      9.61666670	      0.63951550	      0.12195267	      0.28657538
      9.63333330	      0.65762265	      0.12366709	      0.29405999
      9.65000000	      0.67196023	      0.12500793	      0.30026577
      9.66666670	      0.68684672	      0.12638504	      0.30585004
      9.68333330	      0.70229110	      0.12779809	      0.31083206
      9.70000000	      0.71616595	      0.12905434	      0.31482296
      9.71666670	      0.72788254	      0.13010573	      0.31807709
      9.73333330	      0.73458659	      0.13070352	      0.31975976
      9.75000000	      0.73740000	      0.13095357	      0.32063801
      9.76666670	      0.73719230	      0.13093512	      0.32074275
      9.78333330	      0.73565527	      0.13079856	      0.32082075
      9.80000000	      0.73015921	      0.13030904	      0.32011727
      9.81666670	      0.72622109	      0.12995716	      0.31977122
      9.83333330	      0.72073657	      0.12946550	      0.31926699
      9.85000000	      0.71556905	      0.12900055	      0.31864558
      9.86666670	      0.71478522	      0.12892987	      0.31893409
      9.88333330	      0.71506860	      0.12895543	      0.31920229
      9.90000000	      0.71594956	      0.12903484	      0.31940930
      9.91666670	      0.71596266	      0.12903602	      0.31959465
      9.93333330	      0.71672628	      0.12910481	      0.31973155
      9.95000000	      0.71663833	      0.12909689	      0.31990819
      9.96666670	      0.71792475	      0.12921271	      0.32029102
      9.98333330	      0.71761402	      0.12918474	      0.32035636
     10.00000000	      0.72004017	      0.12940294	      0.32084414
     10.01666670	      0.72178935	      0.12956002	      0.32134893
     10.03333330	      0.72160103	      0.12954312	      0.32127749
     10.05000000	      0.72168222	      0.12955041	      0.32125308
     10.06666670	      0.72232056	      0.12960769	      0.32134405
     10.08333330	      0.72216963	      0.12959415	      0.32118200
     10.10000000	      0.72165976	      0.12954839	      0.32104319
     10.11666670	      0.72154935	      0.12953848	      0.32102357
     10.13333330	      0.72096846	      0.12948633	      0.32059739
     10.15000000	      0.72131793	      0.12951770	      0.32055719
     10.16666670	      0.72266452	      0.12963854	      0.32064843
     10.18333330	      0.72354872	      0.12971783	      0.32063917
     10.20000000	      0.72448496	      0.12980172	      0.32059731
     10.21666670	      0.72758953	      0.13007954	      0.32096459
     10.23333330	      0.72957448	      0.13025686	      0.32101734
     10.25000000	      0.73126435	      0.13040762	      0.32105825
     10.26666670	      0.73333081	      0.13059175	      0.32107772
     10.28333330	      0.73527676	      0.13076490	      0.32120388
     10.30000000	      0.73633908	      0.13085933	      0.32128064
     10.31666670	      0.73765460	      0.13097617	      0.32129662
     10.33333330	      0.73811326	      0.13101689	      0.32107758
     10.35000000	      0.73726469	      0.13094155	      0.32090210
     10.36666670	      0.73642984	      0.13086740	      0.32076616
     10.38333330	      0.73633111	      0.13085862	      0.32063793
     10.40000000	      0.73591576	      0.13082171	      0.32064169
     10.41666670	      0.73560908	      0.13079445	      0.32062724
     10.43333330	      0.73600873	      0.13082997	      0.32076483
     10.45000000	      0.73728464	      0.13094333	      0.32104616
     10.46666670	      0.73857493	      0.13105785	      0.32127483
     10.48333330	      0.73879979	      0.13107780	      0.32130867
     10.50000000	      0.73967264	      0.13115521	      0.32167840
     10.51666670	      0.74041696	      0.13122118	      0.32174532
     10.53333330	      0.74199491	      0.13136094	      0.32207102
     10.55000000	      0.74214318	      0.13137406	      0.32189225
     10.56666670	      0.74420859	      0.13155674	      0.32215306
     10.58333330	      0.74581962	      0.13169906	      0.32250233
     10.60000000	      0.74666791	      0.13177394	      0.32253196
     10.61666670	      0.74718532	      0.13181958	      0.32240040
     10.63333330	      0.74789977	      0.13188259	      0.32240862
     10.65000000	      0.74867828	      0.13195121	      0.32241797
     10.66666670	      0.74959744	      0.13203219	      0.32226931
     10.68333330	      0.75143351	      0.13219379	      0.32233905
     10.70000000	      0.75181447	      0.13222729	      0.32204573
     10.71666670	      0.75225116	      0.13226569	      0.32183091
     10.73333330	      0.75304064	      0.13233508	      0.32163329
     10.75000000	      0.75352344	      0.13237749	      0.32135278
     10.76666670	      0.75446015	      0.13245975	      0.32130973
     10.78333330	      0.75518606	      0.13252346	      0.32116169
     10.80000000	      0.75613705	      0.13260687	      0.32127273
     10.81666670	      0.75671786	      0.13265779	      0.32124039
     10.83333330	      0.75762599	      0.13273737	      0.32125111
