Model Marker Errors from IK
version=1
nRows=651
nColumns=4
inDegrees=no
endheader
time	total_squared_error	marker_error_RMS	marker_error_max
      0.00000000	      0.03824274	      0.02982224	      0.07359837
      0.01666670	      0.03046833	      0.02661890	      0.05616454
      0.03333330	      0.02523936	      0.02422730	      0.05253427
      0.05000000	      0.02234685	      0.02279680	      0.05309282
      0.06666670	      0.01995786	      0.02154382	      0.05253239
      0.08333330	      0.01780819	      0.02035053	      0.05218218
      0.10000000	      0.01683439	      0.01978629	      0.05215177
      0.11666670	      0.01603349	      0.01930989	      0.05239012
      0.13333330	      0.01591023	      0.01923553	      0.05300533
      0.15000000	      0.01545831	      0.01896037	      0.05262307
      0.16666670	      0.01537762	      0.01891082	      0.05262613
      0.18333330	      0.01503717	      0.01870031	      0.05228079
      0.20000000	      0.01505946	      0.01871417	      0.05183445
      0.21666670	      0.01497390	      0.01866093	      0.05158163
      0.23333330	      0.01515281	      0.01877208	      0.05153896
      0.25000000	      0.01510401	      0.01874183	      0.05143791
      0.26666670	      0.01516304	      0.01877842	      0.05196579
      0.28333330	      0.01491849	      0.01862637	      0.05156760
      0.30000000	      0.01471457	      0.01849863	      0.05158470
      0.31666670	      0.01458004	      0.01841387	      0.05150201
      0.33333330	      0.01463900	      0.01845107	      0.05121041
      0.35000000	      0.01460051	      0.01842680	      0.05117341
      0.36666670	      0.01497598	      0.01866223	      0.05170758
      0.38333330	      0.01509029	      0.01873331	      0.05168163
      0.40000000	      0.01546066	      0.01896181	      0.05210199
      0.41666670	      0.01577591	      0.01915416	      0.05239232
      0.43333330	      0.01609325	      0.01934584	      0.05290293
      0.45000000	      0.01639677	      0.01952742	      0.05347478
      0.46666670	      0.01636992	      0.01951143	      0.05331055
      0.48333330	      0.01657369	      0.01963249	      0.05349904
      0.50000000	      0.01669640	      0.01970503	      0.05386636
      0.51666670	      0.01676894	      0.01974779	      0.05424478
      0.53333330	      0.01697125	      0.01986656	      0.05435530
      0.55000000	      0.01717651	      0.01998634	      0.05447054
      0.56666670	      0.01732916	      0.02007495	      0.05445757
      0.58333330	      0.01744302	      0.02014080	      0.05457691
      0.60000000	      0.01759817	      0.02023017	      0.05464851
      0.61666670	      0.01751052	      0.02017973	      0.05496870
      0.63333330	      0.01755512	      0.02020541	      0.05481793
      0.65000000	      0.01757290	      0.02021564	      0.05502020
      0.66666670	      0.01767306	      0.02027317	      0.05494432
      0.68333330	      0.01772426	      0.02030251	      0.05510148
      0.70000000	      0.01774859	      0.02031645	      0.05488950
      0.71666670	      0.01777640	      0.02033236	      0.05468509
      0.73333330	      0.01775589	      0.02032062	      0.05407203
      0.75000000	      0.01786535	      0.02038316	      0.05388539
      0.76666670	      0.01793330	      0.02042189	      0.05381677
      0.78333330	      0.01787587	      0.02038916	      0.05360725
      0.80000000	      0.01795911	      0.02043658	      0.05352405
      0.81666670	      0.01807919	      0.02050479	      0.05355698
      0.83333330	      0.01824374	      0.02059789	      0.05361420
      0.85000000	      0.01839029	      0.02068045	      0.05356445
      0.86666670	      0.01874668	      0.02087988	      0.05376404
      0.88333330	      0.01887554	      0.02095152	      0.05385837
      0.90000000	      0.01920958	      0.02113609	      0.05403526
      0.91666670	      0.01949772	      0.02129402	      0.05408585
      0.93333330	      0.01967736	      0.02139189	      0.05456783
      0.95000000	      0.01975344	      0.02143321	      0.05426022
      0.96666670	      0.01962762	      0.02136484	      0.05412290
      0.98333330	      0.01957272	      0.02133494	      0.05393478
      1.00000000	      0.01969200	      0.02139985	      0.05451787
      1.01666670	      0.01969297	      0.02140038	      0.05451766
      1.03333330	      0.01961216	      0.02135642	      0.05453614
      1.05000000	      0.01949873	      0.02129457	      0.05466813
      1.06666670	      0.01945305	      0.02126961	      0.05481150
      1.08333330	      0.01947359	      0.02128084	      0.05499364
      1.10000000	      0.01948234	      0.02128562	      0.05508104
      1.11666670	      0.01951438	      0.02130312	      0.05523734
      1.13333330	      0.01946312	      0.02127512	      0.05524469
      1.15000000	      0.01942100	      0.02125209	      0.05524742
      1.16666670	      0.01936297	      0.02122031	      0.05549332
      1.18333330	      0.01933570	      0.02120536	      0.05551082
      1.20000000	      0.01937306	      0.02122584	      0.05543964
      1.21666670	      0.01941197	      0.02124714	      0.05563753
      1.23333330	      0.01947241	      0.02128020	      0.05594969
      1.25000000	      0.01938202	      0.02123075	      0.05654764
      1.26666670	      0.01930093	      0.02118629	      0.05670644
      1.28333330	      0.01932211	      0.02119791	      0.05642445
      1.30000000	      0.01935074	      0.02121361	      0.05580702
      1.31666670	      0.01937844	      0.02122879	      0.05567332
      1.33333330	      0.01930706	      0.02118965	      0.05563077
      1.35000000	      0.01924058	      0.02115314	      0.05499274
      1.36666670	      0.01930144	      0.02118657	      0.05488913
      1.38333330	      0.01913983	      0.02109768	      0.05462990
      1.40000000	      0.01927449	      0.02117177	      0.05485998
      1.41666670	      0.01897336	      0.02100573	      0.05432340
      1.43333330	      0.01899353	      0.02101690	      0.05449943
      1.45000000	      0.01888499	      0.02095676	      0.05410626
      1.46666670	      0.01889278	      0.02096108	      0.05429911
      1.48333330	      0.01879944	      0.02090924	      0.05471449
      1.50000000	      0.01854936	      0.02076970	      0.05384235
      1.51666670	      0.01825877	      0.02060637	      0.05410244
      1.53333330	      0.01797212	      0.02044398	      0.05382338
      1.55000000	      0.01786055	      0.02038042	      0.05424459
      1.56666670	      0.01769095	      0.02028343	      0.05460996
      1.58333330	      0.01755968	      0.02020803	      0.05437762
      1.60000000	      0.01754658	      0.02020050	      0.05437965
      1.61666670	      0.01758667	      0.02022356	      0.05415264
      1.63333330	      0.01746576	      0.02015392	      0.05410630
      1.65000000	      0.01739394	      0.02011244	      0.05420791
      1.66666670	      0.01733489	      0.02007827	      0.05432278
      1.68333330	      0.01749882	      0.02017299	      0.05458374
      1.70000000	      0.01774352	      0.02031354	      0.05495534
      1.71666670	      0.01804649	      0.02048623	      0.05537459
      1.73333330	      0.01839296	      0.02068195	      0.05569871
      1.75000000	      0.01875551	      0.02088479	      0.05547885
      1.76666670	      0.01912360	      0.02108874	      0.05622889
      1.78333330	      0.01938469	      0.02123221	      0.05628949
      1.80000000	      0.01953261	      0.02131306	      0.05678189
      1.81666670	      0.01966815	      0.02138688	      0.05684772
      1.83333330	      0.01985115	      0.02148615	      0.05682600
      1.85000000	      0.02000658	      0.02157010	      0.05643119
      1.86666670	      0.02019471	      0.02167128	      0.05654789
      1.88333330	      0.02018849	      0.02166794	      0.05671483
      1.90000000	      0.02010095	      0.02162092	      0.05680391
      1.91666670	      0.02000775	      0.02157073	      0.05645794
      1.93333330	      0.01957299	      0.02133508	      0.05646737
      1.95000000	      0.01920500	      0.02113357	      0.05634061
      1.96666670	      0.01876700	      0.02089119	      0.05589930
      1.98333330	      0.01839884	      0.02068526	      0.05596345
      2.00000000	      0.01824463	      0.02059839	      0.05592902
      2.01666670	      0.01822116	      0.02058514	      0.05648328
      2.03333330	      0.01820298	      0.02057486	      0.05730989
      2.05000000	      0.01849492	      0.02073920	      0.05844311
      2.06666670	      0.01847412	      0.02072754	      0.05848124
      2.08333330	      0.01870194	      0.02085495	      0.05885336
      2.10000000	      0.01917175	      0.02111527	      0.05959587
      2.11666670	      0.02007192	      0.02160530	      0.06024979
      2.13333330	      0.02084915	      0.02201962	      0.06041525
      2.15000000	      0.02165514	      0.02244121	      0.06031356
      2.16666670	      0.02222550	      0.02273482	      0.05963256
      2.18333330	      0.02303197	      0.02314362	      0.05944199
      2.20000000	      0.02358807	      0.02342135	      0.05900332
      2.21666670	      0.02560654	      0.02440289	      0.06082733
      2.23333330	      0.02619288	      0.02468069	      0.06107585
      2.25000000	      0.02716905	      0.02513640	      0.06220928
      2.26666670	      0.02760044	      0.02533517	      0.06260909
      2.28333330	      0.02846594	      0.02572933	      0.06381107
      2.30000000	      0.02945463	      0.02617234	      0.06457277
      2.31666670	      0.03124840	      0.02695750	      0.06620446
      2.33333330	      0.03180002	      0.02719440	      0.06589768
      2.35000000	      0.03244086	      0.02746705	      0.06558896
      2.36666670	      0.03208240	      0.02731487	      0.06542894
      2.38333330	      0.03148412	      0.02705899	      0.06484729
      2.40000000	      0.03027311	      0.02653349	      0.06406098
      2.41666670	      0.03149915	      0.02706545	      0.06397334
      2.43333330	      0.03344075	      0.02788713	      0.06542252
      2.45000000	      0.03530136	      0.02865243	      0.06533129
      2.46666670	      0.03624589	      0.02903322	      0.06521490
      2.48333330	      0.03702757	      0.02934461	      0.06513252
      2.50000000	      0.03918036	      0.03018561	      0.06709660
      2.51666670	      0.03856547	      0.02994781	      0.06675033
      2.53333330	      0.03744423	      0.02950925	      0.06451812
      2.55000000	      0.03840305	      0.02988468	      0.06517737
      2.56666670	      0.04177254	      0.03116816	      0.06764301
      2.58333330	      0.04654620	      0.03290091	      0.07020500
      2.60000000	      0.05079104	      0.03436840	      0.07217577
      2.61666670	      0.05031656	      0.03420749	      0.07130786
      2.63333330	      0.05432571	      0.03554418	      0.07340411
      2.65000000	      0.05744854	      0.03655151	      0.07590203
      2.66666670	      0.06054164	      0.03752260	      0.07686461
      2.68333330	      0.06297022	      0.03826779	      0.07823209
      2.70000000	      0.06528125	      0.03896368	      0.07840980
      2.71666670	      0.06715166	      0.03951793	      0.07891407
      2.73333330	      0.06789452	      0.03973591	      0.07957437
      2.75000000	      0.06542755	      0.03900732	      0.07744972
      2.76666670	      0.06588656	      0.03914391	      0.07730874
      2.78333330	      0.06784218	      0.03972059	      0.07913325
      2.80000000	      0.06835671	      0.03987093	      0.08056553
      2.81666670	      0.06892891	      0.04003746	      0.08225205
      2.83333330	      0.06849359	      0.03991083	      0.08357954
      2.85000000	      0.06547816	      0.03902240	      0.08293608
      2.86666670	      0.06239979	      0.03809407	      0.08249240
      2.88333330	      0.06263568	      0.03816600	      0.08436321
      2.90000000	      0.06093574	      0.03764452	      0.08539752
      2.91666670	      0.05948636	      0.03719414	      0.08642636
      2.93333330	      0.06177506	      0.03790289	      0.08897694
      2.95000000	      0.06347555	      0.03842103	      0.09180997
      2.96666670	      0.06131493	      0.03776147	      0.09159456
      2.98333330	      0.06188069	      0.03793529	      0.09362217
      3.00000000	      0.06253645	      0.03813576	      0.09581895
      3.01666670	      0.06091040	      0.03763670	      0.09648019
      3.03333330	      0.06173477	      0.03789053	      0.09889749
      3.05000000	      0.06156275	      0.03783770	      0.09992160
      3.06666670	      0.06146242	      0.03780686	      0.10068390
      3.08333330	      0.05996575	      0.03734371	      0.10003443
      3.10000000	      0.06121613	      0.03773103	      0.10168411
      3.11666670	      0.06200309	      0.03797278	      0.10277876
      3.13333330	      0.06141022	      0.03779080	      0.10264287
      3.15000000	      0.05958765	      0.03722579	      0.10229797
      3.16666670	      0.05652485	      0.03625647	      0.10075179
      3.18333330	      0.05385078	      0.03538847	      0.09850450
      3.20000000	      0.04997336	      0.03409063	      0.09500167
      3.21666670	      0.04680884	      0.03299360	      0.09257477
      3.23333330	      0.04367239	      0.03186906	      0.08990916
      3.25000000	      0.04162723	      0.03111390	      0.08862082
      3.26666670	      0.03874802	      0.03001861	      0.08655225
      3.28333330	      0.03619337	      0.02901218	      0.08403114
      3.30000000	      0.03275408	      0.02759932	      0.08036387
      3.31666670	      0.03009500	      0.02645532	      0.07761594
      3.33333330	      0.02768256	      0.02537283	      0.07409965
      3.35000000	      0.02617392	      0.02467176	      0.07178190
      3.36666670	      0.02512950	      0.02417451	      0.06966553
      3.38333330	      0.02447927	      0.02385970	      0.06840054
      3.40000000	      0.02429068	      0.02376762	      0.06777382
      3.41666670	      0.02420211	      0.02372424	      0.06751852
      3.43333330	      0.02442784	      0.02383462	      0.06861112
      3.45000000	      0.02512515	      0.02417242	      0.07068546
      3.46666670	      0.02637577	      0.02476671	      0.07357381
      3.48333330	      0.02759348	      0.02533197	      0.07523754
      3.50000000	      0.02909573	      0.02601240	      0.07645745
      3.51666670	      0.03082893	      0.02677596	      0.07727788
      3.53333330	      0.03244437	      0.02746853	      0.07738928
      3.55000000	      0.03362761	      0.02796493	      0.07746227
      3.56666670	      0.03430626	      0.02824571	      0.07677390
      3.58333330	      0.03544395	      0.02871024	      0.07688401
      3.60000000	      0.03653197	      0.02914757	      0.07717427
      3.61666670	      0.03737807	      0.02948317	      0.07627726
      3.63333330	      0.03849296	      0.02991964	      0.07568140
      3.65000000	      0.03729379	      0.02944991	      0.07298214
      3.66666670	      0.03712813	      0.02938443	      0.07230804
      3.68333330	      0.03855651	      0.02994433	      0.07287777
      3.70000000	      0.04065613	      0.03074884	      0.07313222
      3.71666670	      0.03925140	      0.03021296	      0.07110992
      3.73333330	      0.03929205	      0.03022861	      0.07044134
      3.75000000	      0.03970808	      0.03038822	      0.07092821
      3.76666670	      0.04002204	      0.03050812	      0.07172709
      3.78333330	      0.04145408	      0.03104913	      0.07205289
      3.80000000	      0.04210760	      0.03129291	      0.07239941
      3.81666670	      0.04415910	      0.03204615	      0.07254319
      3.83333330	      0.04710411	      0.03309750	      0.07283835
      3.85000000	      0.04966576	      0.03398555	      0.07423925
      3.86666670	      0.05329294	      0.03520470	      0.07526708
      3.88333330	      0.05672197	      0.03631963	      0.07593641
      3.90000000	      0.06032811	      0.03745637	      0.07724397
      3.91666670	      0.06353709	      0.03843965	      0.07758722
      3.93333330	      0.06625631	      0.03925359	      0.07797263
      3.95000000	      0.06400353	      0.03858049	      0.07504373
      3.96666670	      0.06253416	      0.03813506	      0.07487650
      3.98333330	      0.06164364	      0.03786256	      0.07324875
      4.00000000	      0.06151322	      0.03782248	      0.07200993
      4.01666670	      0.06171396	      0.03788414	      0.07063618
      4.03333330	      0.06253475	      0.03813524	      0.07055212
      4.05000000	      0.06733232	      0.03957105	      0.07450629
      4.06666670	      0.06811157	      0.03979937	      0.07539401
      4.08333330	      0.07124883	      0.04070564	      0.07840691
      4.10000000	      0.07498246	      0.04175857	      0.08071317
      4.11666670	      0.07636890	      0.04214286	      0.08236258
      4.13333330	      0.07732239	      0.04240513	      0.08373722
      4.15000000	      0.07306829	      0.04122211	      0.08276979
      4.16666670	      0.06927526	      0.04013792	      0.08182512
      4.18333330	      0.06689485	      0.03944229	      0.08121788
      4.20000000	      0.06440826	      0.03870228	      0.08110489
      4.21666670	      0.06301357	      0.03828096	      0.08148060
      4.23333330	      0.05867426	      0.03693938	      0.08077352
      4.25000000	      0.05797212	      0.03671769	      0.08234312
      4.26666670	      0.05714337	      0.03645429	      0.08412328
      4.28333330	      0.05629957	      0.03618414	      0.08545525
      4.30000000	      0.05519146	      0.03582628	      0.08652009
      4.31666670	      0.05716060	      0.03645979	      0.08930798
      4.33333330	      0.05852360	      0.03689192	      0.09212465
      4.35000000	      0.06027325	      0.03743933	      0.09378008
      4.36666670	      0.05856378	      0.03690459	      0.09383922
      4.38333330	      0.05589444	      0.03605372	      0.09305368
      4.40000000	      0.05691893	      0.03638263	      0.09525279
      4.41666670	      0.05830376	      0.03682256	      0.09721737
      4.43333330	      0.05993110	      0.03733292	      0.09952898
      4.45000000	      0.05924344	      0.03711811	      0.10047919
      4.46666670	      0.05734780	      0.03651944	      0.10005194
      4.48333330	      0.05535674	      0.03587988	      0.09934117
      4.50000000	      0.05345320	      0.03525759	      0.09818200
      4.51666670	      0.05070954	      0.03434082	      0.09651129
      4.53333330	      0.04784641	      0.03335727	      0.09501204
      4.55000000	      0.04500635	      0.03235212	      0.09353737
      4.56666670	      0.04228074	      0.03135718	      0.09175467
      4.58333330	      0.03822646	      0.02981589	      0.08814594
      4.60000000	      0.03460958	      0.02837030	      0.08473218
      4.61666670	      0.03266925	      0.02756356	      0.08258322
      4.63333330	      0.03059056	      0.02667224	      0.07990143
      4.65000000	      0.02936814	      0.02613389	      0.07789889
      4.66666670	      0.02813055	      0.02557731	      0.07614825
      4.68333330	      0.02733483	      0.02521297	      0.07520579
      4.70000000	      0.02717824	      0.02514064	      0.07517988
      4.71666670	      0.02662648	      0.02488414	      0.07453186
      4.73333330	      0.02674012	      0.02493719	      0.07481190
      4.75000000	      0.02658873	      0.02486650	      0.07516541
      4.76666670	      0.02657364	      0.02485944	      0.07516013
      4.78333330	      0.02687264	      0.02499890	      0.07586270
      4.80000000	      0.02861686	      0.02579745	      0.07730355
      4.81666670	      0.03013622	      0.02647343	      0.07782421
      4.83333330	      0.03156298	      0.02709286	      0.07811524
      4.85000000	      0.03355168	      0.02793334	      0.07908290
      4.86666670	      0.03450354	      0.02832680	      0.07837898
      4.88333330	      0.03524025	      0.02862762	      0.07729472
      4.90000000	      0.03523779	      0.02862662	      0.07569131
      4.91666670	      0.03547269	      0.02872188	      0.07437901
      4.93333330	      0.03511566	      0.02857697	      0.07215659
      4.95000000	      0.03478982	      0.02844408	      0.06996111
      4.96666670	      0.03594408	      0.02891209	      0.06937699
      4.98333330	      0.03687455	      0.02928392	      0.06976217
      5.00000000	      0.03862994	      0.02997283	      0.07132230
      5.01666670	      0.04003969	      0.03051484	      0.07132579
      5.03333330	      0.04287913	      0.03157830	      0.07294608
      5.05000000	      0.04499250	      0.03234713	      0.07388805
      5.06666670	      0.04557898	      0.03255728	      0.07418196
      5.08333330	      0.04681376	      0.03299534	      0.07467493
      5.10000000	      0.05116537	      0.03449482	      0.07660578
      5.11666670	      0.05291095	      0.03507830	      0.07724919
      5.13333330	      0.05427891	      0.03552886	      0.07750392
      5.15000000	      0.05350383	      0.03527428	      0.07565211
      5.16666670	      0.05366937	      0.03532881	      0.07557462
      5.18333330	      0.06121945	      0.03773206	      0.07916510
      5.20000000	      0.06204789	      0.03798650	      0.07878070
      5.21666670	      0.06155528	      0.03783541	      0.07764558
      5.23333330	      0.06534386	      0.03898236	      0.07821504
      5.25000000	      0.06625775	      0.03925402	      0.07788888
      5.26666670	      0.06623856	      0.03924833	      0.07668343
      5.28333330	      0.06604821	      0.03919190	      0.07576982
      5.30000000	      0.06509041	      0.03890669	      0.07351068
      5.31666670	      0.06418328	      0.03863463	      0.07275757
      5.33333330	      0.06508959	      0.03890644	      0.07243130
      5.35000000	      0.06620906	      0.03923959	      0.07257367
      5.36666670	      0.06721727	      0.03953723	      0.07349973
      5.38333330	      0.06717900	      0.03952597	      0.07350630
      5.40000000	      0.06650388	      0.03932686	      0.07475704
      5.41666670	      0.06906549	      0.04007710	      0.07586136
      5.43333330	      0.06800598	      0.03976851	      0.07603729
      5.45000000	      0.07115191	      0.04067795	      0.07806780
      5.46666670	      0.07519333	      0.04181725	      0.08138199
      5.48333330	      0.07650237	      0.04217967	      0.08262858
      5.50000000	      0.07741850	      0.04243148	      0.08598941
      5.51666670	      0.07687914	      0.04228341	      0.08702449
      5.53333330	      0.07517701	      0.04181271	      0.08841524
      5.55000000	      0.07270813	      0.04112039	      0.09033111
      5.56666670	      0.06687583	      0.03943668	      0.08877777
      5.58333330	      0.06580442	      0.03911950	      0.09049424
      5.60000000	      0.06495599	      0.03886649	      0.09149910
      5.61666670	      0.06722705	      0.03954010	      0.09356119
      5.63333330	      0.06909673	      0.04008616	      0.09585608
      5.65000000	      0.06786051	      0.03972595	      0.09737759
      5.66666670	      0.06673763	      0.03939591	      0.09707617
      5.68333330	      0.06312008	      0.03831330	      0.09571619
      5.70000000	      0.06174679	      0.03789422	      0.09549085
      5.71666670	      0.06075683	      0.03758922	      0.09617580
      5.73333330	      0.05747600	      0.03656024	      0.09450132
      5.75000000	      0.05586565	      0.03604443	      0.09387484
      5.76666670	      0.05287788	      0.03506734	      0.09269716
      5.78333330	      0.05078444	      0.03436617	      0.09209778
      5.80000000	      0.04827894	      0.03350770	      0.09155779
      5.81666670	      0.04583563	      0.03264881	      0.09103417
      5.83333330	      0.04187306	      0.03120564	      0.08889602
      5.85000000	      0.03862967	      0.02997273	      0.08691376
      5.86666670	      0.03572052	      0.02882204	      0.08454532
      5.88333330	      0.03337821	      0.02786104	      0.08201922
      5.90000000	      0.03220377	      0.02736649	      0.08020971
      5.91666670	      0.03175149	      0.02717364	      0.07921384
      5.93333330	      0.03102013	      0.02685886	      0.07794935
      5.95000000	      0.02954664	      0.02621319	      0.07658669
      5.96666670	      0.02886099	      0.02590725	      0.07624210
      5.98333330	      0.02787851	      0.02546247	      0.07599093
      6.00000000	      0.02792711	      0.02548465	      0.07653615
      6.01666670	      0.02799059	      0.02551360	      0.07715274
      6.03333330	      0.02830424	      0.02565615	      0.07808944
      6.05000000	      0.02918438	      0.02605200	      0.07888433
      6.06666670	      0.02994960	      0.02639133	      0.07949400
      6.08333330	      0.03088690	      0.02680112	      0.07915681
      6.10000000	      0.03208006	      0.02731388	      0.07908240
      6.11666670	      0.03319386	      0.02778399	      0.07876414
      6.13333330	      0.03448702	      0.02832002	      0.07871321
      6.15000000	      0.03424325	      0.02821976	      0.07763630
      6.16666670	      0.03478379	      0.02844161	      0.07694585
      6.18333330	      0.03531363	      0.02865741	      0.07630083
      6.20000000	      0.03565233	      0.02879451	      0.07428381
      6.21666670	      0.03718755	      0.02940794	      0.07342943
      6.23333330	      0.03824420	      0.02982281	      0.07351890
      6.25000000	      0.03900261	      0.03011706	      0.07359219
      6.26666670	      0.03985086	      0.03044280	      0.07423302
      6.28333330	      0.04231487	      0.03136984	      0.07605472
      6.30000000	      0.04464218	      0.03222096	      0.07747235
      6.31666670	      0.04677355	      0.03298116	      0.07883508
      6.33333330	      0.04631889	      0.03282047	      0.07786861
      6.35000000	      0.04582035	      0.03264337	      0.07580815
      6.36666670	      0.04597190	      0.03269731	      0.07460995
      6.38333330	      0.04716314	      0.03311823	      0.07434171
      6.40000000	      0.04977591	      0.03402322	      0.07479379
      6.41666670	      0.05310228	      0.03514167	      0.07575910
      6.43333330	      0.05722666	      0.03648085	      0.07735140
      6.45000000	      0.06050301	      0.03751062	      0.07851584
      6.46666670	      0.06404766	      0.03859379	      0.08005790
      6.48333330	      0.06698128	      0.03946776	      0.07964212
      6.50000000	      0.06935428	      0.04016081	      0.07890861
      6.51666670	      0.06652157	      0.03933209	      0.07511950
      6.53333330	      0.06714244	      0.03951521	      0.07573383
      6.55000000	      0.06462973	      0.03876876	      0.07321403
      6.56666670	      0.06535826	      0.03898666	      0.07390517
      6.58333330	      0.06828618	      0.03985035	      0.07633640
      6.60000000	      0.07043220	      0.04047170	      0.07768666
      6.61666670	      0.07326196	      0.04127671	      0.07926370
      6.63333330	      0.07092495	      0.04061302	      0.07736201
      6.65000000	      0.06693733	      0.03945481	      0.07631440
      6.66666670	      0.06869460	      0.03996935	      0.07658005
      6.68333330	      0.07018293	      0.04040001	      0.07703582
      6.70000000	      0.07060295	      0.04052072	      0.07694406
      6.71666670	      0.07296020	      0.04119161	      0.07884399
      6.73333330	      0.07404560	      0.04149688	      0.08019669
      6.75000000	      0.07368490	      0.04139568	      0.07997274
      6.76666670	      0.07782757	      0.04254343	      0.08193262
      6.78333330	      0.08034205	      0.04322522	      0.08253323
      6.80000000	      0.08116888	      0.04344708	      0.08416878
      6.81666670	      0.07703935	      0.04232745	      0.08400854
      6.83333330	      0.07210332	      0.04094901	      0.08446236
      6.85000000	      0.06879720	      0.03999919	      0.08600420
      6.86666670	      0.06576038	      0.03910641	      0.08627735
      6.88333330	      0.06627455	      0.03925899	      0.08787542
      6.90000000	      0.06308139	      0.03830155	      0.08747326
      6.91666670	      0.06152948	      0.03782748	      0.08878574
      6.93333330	      0.06195809	      0.03795900	      0.08994636
      6.95000000	      0.06041626	      0.03748372	      0.09032098
      6.96666670	      0.05563380	      0.03596956	      0.08822150
      6.98333330	      0.05490401	      0.03573286	      0.08756329
      7.00000000	      0.05331989	      0.03521360	      0.08652207
      7.01666670	      0.05246041	      0.03492864	      0.08660137
      7.03333330	      0.05107299	      0.03446366	      0.08701433
      7.05000000	      0.04840338	      0.03355086	      0.08645245
      7.06666670	      0.04640477	      0.03285089	      0.08618034
      7.08333330	      0.04432702	      0.03210702	      0.08556006
      7.10000000	      0.04499162	      0.03234682	      0.08692426
      7.11666670	      0.04296233	      0.03160892	      0.08687033
      7.13333330	      0.03996529	      0.03048648	      0.08614400
      7.15000000	      0.03730737	      0.02945527	      0.08486981
      7.16666670	      0.03428420	      0.02823663	      0.08338383
      7.18333330	      0.03171362	      0.02715743	      0.08069362
      7.20000000	      0.02951577	      0.02619949	      0.07847018
      7.21666670	      0.02860135	      0.02579046	      0.07673214
      7.23333330	      0.02891148	      0.02592991	      0.07646126
      7.25000000	      0.02824720	      0.02563029	      0.07577600
      7.26666670	      0.02818204	      0.02560071	      0.07579197
      7.28333330	      0.02797724	      0.02550752	      0.07637789
      7.30000000	      0.02760727	      0.02533830	      0.07676084
      7.31666670	      0.02802497	      0.02552927	      0.07810838
      7.33333330	      0.02824744	      0.02563040	      0.07842042
      7.35000000	      0.02874737	      0.02585621	      0.07875427
      7.36666670	      0.03045931	      0.02661496	      0.08020684
      7.38333330	      0.03064410	      0.02669557	      0.07978587
      7.40000000	      0.03217788	      0.02735549	      0.07967226
      7.41666670	      0.03226655	      0.02739315	      0.07835943
      7.43333330	      0.03269715	      0.02757533	      0.07716022
      7.45000000	      0.03525465	      0.02863347	      0.07773955
      7.46666670	      0.03523639	      0.02862605	      0.07580504
      7.48333330	      0.03690971	      0.02929787	      0.07365045
      7.50000000	      0.03847260	      0.02991173	      0.07286585
      7.51666670	      0.04020839	      0.03057906	      0.07259157
      7.53333330	      0.04058804	      0.03072309	      0.07173764
      7.55000000	      0.04332199	      0.03174095	      0.07260260
      7.56666670	      0.04384769	      0.03193296	      0.07142497
      7.58333330	      0.04435936	      0.03211873	      0.07094527
      7.60000000	      0.04507294	      0.03237604	      0.07076597
      7.61666670	      0.04662784	      0.03292975	      0.07141598
      7.63333330	      0.04848256	      0.03357829	      0.07137095
      7.65000000	      0.05233848	      0.03488802	      0.07375816
      7.66666670	      0.05336450	      0.03522833	      0.07521341
      7.68333330	      0.05526124	      0.03584892	      0.07639387
      7.70000000	      0.06088024	      0.03762738	      0.07886505
      7.71666670	      0.06592684	      0.03915587	      0.08027158
      7.73333330	      0.06989904	      0.04031822	      0.08136945
      7.75000000	      0.07395320	      0.04147098	      0.08271726
      7.76666670	      0.07336710	      0.04130632	      0.08106721
      7.78333330	      0.07106284	      0.04065248	      0.07789486
      7.80000000	      0.07008632	      0.04037220	      0.07689267
      7.81666670	      0.06937698	      0.04016738	      0.07686033
      7.83333330	      0.06862099	      0.03994793	      0.07517572
      7.85000000	      0.07335163	      0.04130196	      0.07616315
      7.86666670	      0.07812283	      0.04262405	      0.07747757
      7.88333330	      0.08215713	      0.04371076	      0.07910852
      7.90000000	      0.08012410	      0.04316655	      0.07774247
      7.91666670	      0.07387541	      0.04144916	      0.07503898
      7.93333330	      0.06806913	      0.03978697	      0.07359399
      7.95000000	      0.06480097	      0.03882009	      0.07242783
      7.96666670	      0.06094428	      0.03764716	      0.07234003
      7.98333330	      0.06004528	      0.03736846	      0.07317016
      8.00000000	      0.06396495	      0.03856886	      0.07612144
      8.01666670	      0.06764452	      0.03966268	      0.07856876
      8.03333330	      0.06990096	      0.04031878	      0.08048830
      8.05000000	      0.07066573	      0.04053874	      0.08203102
      8.06666670	      0.07035127	      0.04044844	      0.08298797
      8.08333330	      0.06606764	      0.03919766	      0.08186233
      8.10000000	      0.06540699	      0.03900119	      0.08318815
      8.11666670	      0.06460313	      0.03876078	      0.08494327
      8.13333330	      0.06293600	      0.03825739	      0.08583242
      8.15000000	      0.06039071	      0.03747580	      0.08470827
      8.16666670	      0.05757545	      0.03659186	      0.08470442
      8.18333330	      0.05660265	      0.03628141	      0.08573084
      8.20000000	      0.05539746	      0.03589308	      0.08680834
      8.21666670	      0.05337271	      0.03523103	      0.08671404
      8.23333330	      0.05109708	      0.03447179	      0.08579302
      8.25000000	      0.05039004	      0.03423246	      0.08636501
      8.26666670	      0.04868487	      0.03364827	      0.08694901
      8.28333330	      0.04722014	      0.03313824	      0.08742285
      8.30000000	      0.04658637	      0.03291510	      0.08818928
      8.31666670	      0.04560003	      0.03256480	      0.08798522
      8.33333330	      0.04482845	      0.03228811	      0.08829221
      8.35000000	      0.04350089	      0.03180643	      0.08843669
      8.36666670	      0.04088575	      0.03083556	      0.08688856
      8.38333330	      0.03859670	      0.02995993	      0.08588846
      8.40000000	      0.03597068	      0.02892278	      0.08369502
      8.41666670	      0.03433806	      0.02825879	      0.08219032
      8.43333330	      0.03189667	      0.02723570	      0.07923106
      8.45000000	      0.03077180	      0.02675113	      0.07744152
      8.46666670	      0.02940850	      0.02615184	      0.07558660
      8.48333330	      0.02836873	      0.02568536	      0.07456125
      8.50000000	      0.02756845	      0.02532048	      0.07375139
      8.51666670	      0.02751857	      0.02529757	      0.07368856
      8.53333330	      0.02723748	      0.02516803	      0.07428092
      8.55000000	      0.02734352	      0.02521697	      0.07449414
      8.56666670	      0.02733859	      0.02521470	      0.07527626
      8.58333330	      0.02807429	      0.02555172	      0.07631398
      8.60000000	      0.02794096	      0.02549098	      0.07634499
      8.61666670	      0.02924676	      0.02607982	      0.07759870
      8.63333330	      0.03016398	      0.02648562	      0.07774007
      8.65000000	      0.03158654	      0.02710297	      0.07809292
      8.66666670	      0.03428876	      0.02823850	      0.08007136
      8.68333330	      0.03530950	      0.02865574	      0.08027751
      8.70000000	      0.03742165	      0.02950036	      0.08104446
      8.71666670	      0.03663306	      0.02918787	      0.07928456
      8.73333330	      0.03811499	      0.02977239	      0.07921690
      8.75000000	      0.03814660	      0.02978473	      0.07755862
      8.76666670	      0.03900690	      0.03011872	      0.07576926
      8.78333330	      0.04037996	      0.03064423	      0.07543583
      8.80000000	      0.04104950	      0.03089724	      0.07462490
      8.81666670	      0.04045382	      0.03067224	      0.07428417
      8.83333330	      0.04241263	      0.03140605	      0.07485194
      8.85000000	      0.04178019	      0.03117102	      0.07380166
      8.86666670	      0.04088468	      0.03083515	      0.07218026
      8.88333330	      0.04176823	      0.03116655	      0.07220608
      8.90000000	      0.04303854	      0.03163695	      0.07195791
      8.91666670	      0.04654838	      0.03290168	      0.07379713
      8.93333330	      0.05228016	      0.03486858	      0.07737741
      8.95000000	      0.05460111	      0.03563416	      0.07831983
      8.96666670	      0.05845268	      0.03686956	      0.07923392
      8.98333330	      0.06093347	      0.03764382	      0.07783474
      9.00000000	      0.06143642	      0.03779886	      0.07479265
      9.01666670	      0.05842072	      0.03685948	      0.07264120
      9.03333330	      0.05591413	      0.03606007	      0.07112174
      9.05000000	      0.05878630	      0.03697463	      0.07095076
      9.06666670	      0.06298125	      0.03827114	      0.07210864
      9.08333330	      0.06749446	      0.03961866	      0.07254668
      9.10000000	      0.07094293	      0.04061817	      0.07383265
      9.11666670	      0.07451906	      0.04162933	      0.07518790
      9.13333330	      0.07618327	      0.04209161	      0.07629228
      9.15000000	      0.07573246	      0.04196689	      0.07537341
      9.16666670	      0.07490474	      0.04173692	      0.07479710
      9.18333330	      0.07591962	      0.04201872	      0.07592310
      9.20000000	      0.07533004	      0.04185524	      0.07482723
      9.21666670	      0.07473021	      0.04168827	      0.07416097
      9.23333330	      0.07315568	      0.04124676	      0.07364012
      9.25000000	      0.06928877	      0.04014183	      0.07339296
      9.26666670	      0.06626063	      0.03925487	      0.07324804
      9.28333330	      0.06386633	      0.03853912	      0.07276173
      9.30000000	      0.06571999	      0.03909440	      0.07626043
      9.31666670	      0.06785550	      0.03972449	      0.07815195
      9.33333330	      0.06821167	      0.03982861	      0.08029865
      9.35000000	      0.06896301	      0.04004736	      0.08292309
      9.36666670	      0.06403322	      0.03858944	      0.08117454
      9.38333330	      0.06036156	      0.03746675	      0.08056283
      9.40000000	      0.05672669	      0.03632114	      0.07994463
      9.41666670	      0.05592347	      0.03606308	      0.07978845
      9.43333330	      0.05870900	      0.03695031	      0.08203039
      9.45000000	      0.05595152	      0.03607212	      0.08181032
      9.46666670	      0.05592469	      0.03606347	      0.08325209
      9.48333330	      0.05578868	      0.03601959	      0.08612521
      9.50000000	      0.05346156	      0.03526035	      0.08667261
      9.51666670	      0.05375726	      0.03535773	      0.08930057
      9.53333330	      0.05222397	      0.03484983	      0.09059567
      9.55000000	      0.05337391	      0.03523143	      0.09221124
      9.56666670	      0.05343284	      0.03525087	      0.09285131
      9.58333330	      0.05138282	      0.03456804	      0.09244754
      9.60000000	      0.04966652	      0.03398581	      0.09163175
      9.61666670	      0.04741167	      0.03320537	      0.09072201
      9.63333330	      0.04395162	      0.03197078	      0.08849038
      9.65000000	      0.04059843	      0.03072702	      0.08664604
      9.66666670	      0.03701566	      0.02933989	      0.08404994
      9.68333330	      0.03357923	      0.02794481	      0.08093747
      9.70000000	      0.03088428	      0.02679998	      0.07877845
      9.71666670	      0.02985164	      0.02634814	      0.07761663
      9.73333330	      0.02924290	      0.02607810	      0.07682895
      9.75000000	      0.02867969	      0.02582576	      0.07520168
      9.76666670	      0.02832843	      0.02566711	      0.07406875
      9.78333330	      0.02748478	      0.02528203	      0.07234245
      9.80000000	      0.02696005	      0.02503953	      0.07177771
      9.81666670	      0.02658463	      0.02486458	      0.07114643
      9.83333330	      0.02672341	      0.02492939	      0.07153267
      9.85000000	      0.02655040	      0.02484856	      0.07096112
      9.86666670	      0.02671624	      0.02492605	      0.07087009
      9.88333330	      0.02652050	      0.02483457	      0.07027066
      9.90000000	      0.02641925	      0.02478712	      0.07069703
      9.91666670	      0.02609186	      0.02463305	      0.06992653
      9.93333330	      0.02508290	      0.02415208	      0.06877666
      9.95000000	      0.02449359	      0.02386668	      0.06826209
      9.96666670	      0.02299220	      0.02312363	      0.06675222
      9.98333330	      0.02193867	      0.02258764	      0.06566145
     10.00000000	      0.02186160	      0.02254793	      0.06574077
     10.01666670	      0.02170894	      0.02246907	      0.06548000
     10.03333330	      0.02201254	      0.02262564	      0.06553021
     10.05000000	      0.02212732	      0.02268455	      0.06531228
     10.06666670	      0.02237702	      0.02281219	      0.06534862
     10.08333330	      0.02259219	      0.02292160	      0.06597539
     10.10000000	      0.02264263	      0.02294718	      0.06587263
     10.11666670	      0.02269771	      0.02297507	      0.06538127
     10.13333330	      0.02269413	      0.02297325	      0.06518445
     10.15000000	      0.02281442	      0.02303406	      0.06500623
     10.16666670	      0.02276918	      0.02301121	      0.06441559
     10.18333330	      0.02275213	      0.02300260	      0.06417219
     10.20000000	      0.02260498	      0.02292809	      0.06407315
     10.21666670	      0.02256456	      0.02290758	      0.06364033
     10.23333330	      0.02231586	      0.02278099	      0.06351086
     10.25000000	      0.02201751	      0.02262819	      0.06339286
     10.26666670	      0.02163359	      0.02243004	      0.06310991
     10.28333330	      0.02137965	      0.02229801	      0.06353450
     10.30000000	      0.02108067	      0.02214155	      0.06345367
     10.31666670	      0.02081206	      0.02200003	      0.06368929
     10.33333330	      0.02052774	      0.02184924	      0.06373141
     10.35000000	      0.02029440	      0.02172471	      0.06351342
     10.36666670	      0.02016857	      0.02165725	      0.06365677
     10.38333330	      0.02001499	      0.02157463	      0.06351576
     10.40000000	      0.01965653	      0.02138056	      0.06317562
     10.41666670	      0.01953516	      0.02131446	      0.06329982
     10.43333330	      0.01930738	      0.02118983	      0.06314788
     10.45000000	      0.01937756	      0.02122830	      0.06354678
     10.46666670	      0.01998397	      0.02155791	      0.06465862
     10.48333330	      0.02030598	      0.02173090	      0.06551880
     10.50000000	      0.02071317	      0.02194770	      0.06634819
     10.51666670	      0.02079490	      0.02199096	      0.06622117
     10.53333330	      0.02116809	      0.02218741	      0.06741946
     10.55000000	      0.02110991	      0.02215690	      0.06713010
     10.56666670	      0.02092551	      0.02205991	      0.06633681
     10.58333330	      0.02066149	      0.02192030	      0.06531378
     10.60000000	      0.02049859	      0.02183372	      0.06457953
     10.61666670	      0.02031423	      0.02173532	      0.06379307
     10.63333330	      0.02033837	      0.02174822	      0.06344965
     10.65000000	      0.02020458	      0.02167658	      0.06336677
     10.66666670	      0.02031484	      0.02173564	      0.06354237
     10.68333330	      0.02036883	      0.02176451	      0.06427173
     10.70000000	      0.02049271	      0.02183059	      0.06505317
     10.71666670	      0.02033897	      0.02174855	      0.06556329
     10.73333330	      0.02019506	      0.02167147	      0.06527763
     10.75000000	      0.02005488	      0.02159612	      0.06493557
     10.76666670	      0.02001657	      0.02157548	      0.06456554
     10.78333330	      0.01998392	      0.02155788	      0.06434202
     10.80000000	      0.02010268	      0.02162185	      0.06423161
     10.81666670	      0.02027175	      0.02171258	      0.06425151
     10.83333330	      0.02043962	      0.02180230	      0.06429838
