PathFileType  4	(X/Y/Z) /Users/callumsherry/opencap-sandboxes/opencap-core-sandbox/diagnostics/openpose_swapped
DataRate	CameraRate	NumFrames	NumMarkers	Units	OrigDataRate	OrigDataStartFrame	OrigNumFrames
30.0	30.0	45	63	m	30.0	1	45
Frame#	Time	Neck			RShoulder			RElbow			RWrist			LShoulder			LElbow			LWrist			midHip			RHip			RKnee			RAnkle			LHip			LKnee			LAnkle			LBigToe			LSmallToe			LHeel			RBigToe			RSmallToe			RHeel			r.ASIS_study			L.ASIS_study			r.PSIS_study			L.PSIS_study			r_knee_study			r_mknee_study			r_ankle_study			r_mankle_study			r_toe_study			r_5meta_study			r_calc_study			L_knee_study			L_mknee_study			L_ankle_study			L_mankle_study			L_toe_study			L_calc_study			L_5meta_study			r_shoulder_study			L_shoulder_study			C7_study			r_thigh1_study			r_thigh2_study			r_thigh3_study			L_thigh1_study			L_thigh2_study			L_thigh3_study			r_sh1_study			r_sh2_study			r_sh3_study			L_sh1_study			L_sh2_study			L_sh3_study			RHJC_study			LHJC_study			r_lelbow_study			r_melbow_study			r_lwrist_study			r_mwrist_study			L_lelbow_study			L_melbow_study			L_lwrist_study			L_mwrist_study			
		X1	Y1	Z1	X2	Y2	Z2	X3	Y3	Z3	X4	Y4	Z4	X5	Y5	Z5	X6	Y6	Z6	X7	Y7	Z7	X8	Y8	Z8	X9	Y9	Z9	X10	Y10	Z10	X11	Y11	Z11	X12	Y12	Z12	X13	Y13	Z13	X14	Y14	Z14	X15	Y15	Z15	X16	Y16	Z16	X17	Y17	Z17	X18	Y18	Z18	X19	Y19	Z19	X20	Y20	Z20	X21	Y21	Z21	X22	Y22	Z22	X23	Y23	Z23	X24	Y24	Z24	X25	Y25	Z25	X26	Y26	Z26	X27	Y27	Z27	X28	Y28	Z28	X29	Y29	Z29	X30	Y30	Z30	X31	Y31	Z31	X32	Y32	Z32	X33	Y33	Z33	X34	Y34	Z34	X35	Y35	Z35	X36	Y36	Z36	X37	Y37	Z37	X38	Y38	Z38	X39	Y39	Z39	X40	Y40	Z40	X41	Y41	Z41	X42	Y42	Z42	X43	Y43	Z43	X44	Y44	Z44	X45	Y45	Z45	X46	Y46	Z46	X47	Y47	Z47	X48	Y48	Z48	X49	Y49	Z49	X50	Y50	Z50	X51	Y51	Z51	X52	Y52	Z52	X53	Y53	Z53	X54	Y54	Z54	X55	Y55	Z55	X56	Y56	Z56	X57	Y57	Z57	X58	Y58	Z58	X59	Y59	Z59	X60	Y60	Z60	X61	Y61	Z61	X62	Y62	Z62	X63	Y63	Z63	

1	0.0000000	-0.5563900	1.4385099	-0.2662500	-0.5422000	1.4408199	-0.0895200	-0.5140900	1.2043199	0.0505800	-0.4293500	1.0183199	0.2211800	-0.5599600	1.4480399	-0.4402100	-0.5338400	1.2069899	-0.5850200	-0.4521600	0.9986099	-0.7084700	-0.4684200	0.8598799	-0.2694900	-0.4951500	0.8627399	-0.1475500	-0.5213500	0.4359499	-0.1461600	-0.5498600	0.0703899	-0.1446000	-0.4632600	0.8533399	-0.3826100	-0.4695900	0.4556399	-0.3811100	-0.5403100	0.0713699	-0.3943200	-0.3613400	0.0197999	-0.4109500	-0.4211700	0.0142499	-0.4700100	-0.5961600	0.0263299	-0.3600200	-0.4040300	0.0106899	-0.1323500	-0.4254800	0.0202699	-0.0779500	-0.5961000	0.0163599	-0.1573800	-0.4094391	0.9291652	-0.1101294	-0.3964796	0.9209000	-0.4298258	-0.6365231	0.9592171	-0.2061692	-0.6316030	0.9556092	-0.3312766	-0.5164958	0.4598582	-0.0790632	-0.4927649	0.4575199	-0.2020821	-0.5856218	0.0709007	-0.0956212	-0.5475496	0.0676141	-0.1863842	-0.4375093	0.0159277	-0.1129945	-0.4886022	0.0171262	-0.0603685	-0.6416225	0.0465352	-0.1637675	-0.4858193	0.4573118	-0.4490155	-0.4622828	0.4600439	-0.3208130	-0.5773944	0.0582143	-0.4353240	-0.5367953	0.0610768	-0.3439217	-0.4083182	0.0233088	-0.4261136	-0.6422994	0.0274262	-0.3638255	-0.4686042	0.0176932	-0.4838924	-0.5368553	1.4838544	-0.0938462	-0.5352050	1.4796510	-0.4477538	-0.6462932	1.4896812	-0.2664247	-0.4356992	0.7092839	-0.0658611	-0.4736418	0.6122402	-0.0487818	-0.5512271	0.7085429	-0.0542237	-0.4078930	0.7043832	-0.4728270	-0.4452574	0.6067539	-0.4873378	-0.5384480	0.7003936	-0.4846639	-0.5337963	0.3393725	-0.0740282	-0.5243940	0.2173936	-0.0620239	-0.5965202	0.2449444	-0.0695474	-0.5119591	0.3348816	-0.4570632	-0.5074281	0.2097292	-0.4718024	-0.5812570	0.2359729	-0.4601092	-0.5108512	0.8377454	-0.1731466	-0.5032097	0.8332889	-0.3657388	-0.5516653	1.1672861	0.0827499	-0.5240042	1.1273488	-0.0036010	-0.3869381	1.0098116	0.1941448	-0.4479910	0.9705002	0.2106044	-0.5656186	1.1811920	-0.6145643	-0.5507556	1.1468150	-0.5437702	-0.4262325	1.0022288	-0.6844647	-0.4872564	0.9708641	-0.6966779
2	0.0333333	-0.5563900	1.4385099	-0.2662700	-0.5423200	1.4411499	-0.0895600	-0.5149200	1.2043099	0.0505800	-0.4293400	1.0181299	0.2211900	-0.5602400	1.4480699	-0.4401700	-0.5339300	1.2070099	-0.5850300	-0.4519100	0.9986499	-0.7085200	-0.4684300	0.8600099	-0.2694800	-0.4951400	0.8627599	-0.1475400	-0.5213300	0.4358999	-0.1461600	-0.5498300	0.0704499	-0.1446100	-0.4640100	0.8533299	-0.3824800	-0.4697200	0.4556099	-0.3810700	-0.5400000	0.0714699	-0.3943800	-0.3612400	0.0197199	-0.4109600	-0.4212100	0.0143799	-0.4699800	-0.5961100	0.0261999	-0.3600300	-0.4040700	0.0106799	-0.1323500	-0.4255000	0.0203799	-0.0779500	-0.5959700	0.0164699	-0.1574000	-0.4051961	0.9278231	-0.1066470	-0.3879969	0.9221300	-0.4306142	-0.6373718	0.9632720	-0.2109585	-0.6298679	0.9609587	-0.3382073	-0.5132998	0.4569161	-0.0804600	-0.4907803	0.4546204	-0.2023788	-0.5831701	0.0641841	-0.1002256	-0.5463985	0.0627215	-0.1867286	-0.4330472	0.0187732	-0.1174119	-0.4861182	0.0133220	-0.0664170	-0.6405657	0.0373543	-0.1652597	-0.4753201	0.4578648	-0.4532722	-0.4516162	0.4596363	-0.3219321	-0.5665382	0.0579818	-0.4294096	-0.5262075	0.0604916	-0.3391262	-0.3977850	0.0214020	-0.4237283	-0.6332608	0.0277823	-0.3582907	-0.4593180	0.0178974	-0.4796160	-0.5392319	1.4919856	-0.0924767	-0.5403110	1.4970966	-0.4406933	-0.6529619	1.4998398	-0.2618395	-0.4339939	0.7053364	-0.0649833	-0.4723007	0.6080662	-0.0486492	-0.5526398	0.7083807	-0.0552129	-0.4079159	0.7055726	-0.4745611	-0.4410815	0.6079854	-0.4908760	-0.5350504	0.7009469	-0.4889575	-0.5336210	0.3377439	-0.0756958	-0.5237960	0.2160990	-0.0652332	-0.5944427	0.2388096	-0.0745714	-0.5012458	0.3334298	-0.4567007	-0.4976293	0.2072837	-0.4697777	-0.5692807	0.2361769	-0.4575046	-0.5149123	0.8374712	-0.1724418	-0.5046431	0.8344331	-0.3682380	-0.5465713	1.1771681	0.0920800	-0.5085044	1.1410909	0.0082666	-0.3921491	1.0179575	0.2056356	-0.4574666	0.9860423	0.2160450	-0.5585681	1.1833469	-0.6048392	-0.5245431	1.1516090	-0.5442119	-0.4165925	1.0022014	-0.6980376	-0.4725072	0.9712893	-0.7039490
3	0.0666667	-0.5565200	1.4385299	-0.2662700	-0.5423500	1.4408299	-0.0895300	-0.5140800	1.2042999	0.0505800	-0.4294200	1.0183299	0.2212200	-0.5600500	1.4480599	-0.4402300	-0.5340300	1.2069699	-0.5850700	-0.4524200	1.0033699	-0.7083100	-0.4684300	0.8598999	-0.2695000	-0.4951400	0.8627499	-0.1475600	-0.5213900	0.4359399	-0.1461500	-0.5498500	0.0703499	-0.1445900	-0.4633100	0.8533399	-0.3826200	-0.4695700	0.4556399	-0.3810900	-0.5385500	0.0667799	-0.3935800	-0.3612500	0.0197599	-0.4109100	-0.4197000	0.0096399	-0.4692300	-0.5961200	0.0263299	-0.3600400	-0.4039600	0.0106799	-0.1323700	-0.4254000	0.0202599	-0.0779700	-0.5961300	0.0163199	-0.1573600	-0.4034439	0.9276619	-0.1009598	-0.3800527	0.9251506	-0.4311742	-0.6407143	0.9655209	-0.2134901	-0.6308374	0.9644061	-0.3430080	-0.5178648	0.4536987	-0.0762690	-0.4923947	0.4511564	-0.2026238	-0.5850690	0.0607658	-0.0988420	-0.5459476	0.0601587	-0.1855204	-0.4328015	0.0174839	-0.1166547	-0.4865845	0.0100000	-0.0648095	-0.6421568	0.0330500	-0.1649018	-0.4734103	0.4575578	-0.4574846	-0.4478811	0.4580612	-0.3211374	-0.5657768	0.0600867	-0.4303109	-0.5224288	0.0605278	-0.3386881	-0.3963890	0.0206131	-0.4254072	-0.6313837	0.0304414	-0.3575810	-0.4601302	0.0177730	-0.4809135	-0.5415876	1.4958815	-0.0885446	-0.5440720	1.5057256	-0.4394881	-0.6580595	1.5049793	-0.2619622	-0.4361450	0.7025780	-0.0599417	-0.4759058	0.6050889	-0.0430292	-0.5597516	0.7061706	-0.0505136	-0.4053577	0.7069306	-0.4807826	-0.4391782	0.6089277	-0.4972435	-0.5366793	0.7020984	-0.4960228	-0.5378173	0.3346726	-0.0731269	-0.5264480	0.2138179	-0.0616492	-0.5989694	0.2348041	-0.0737321	-0.5006119	0.3342902	-0.4593234	-0.4961407	0.2081902	-0.4720512	-0.5704418	0.2382324	-0.4591443	-0.5190979	0.8358791	-0.1719478	-0.5050609	0.8347153	-0.3714492	-0.5439309	1.1831378	0.0967502	-0.5120013	1.1492742	0.0161645	-0.3956349	1.0217794	0.2103201	-0.4627709	0.9895159	0.2164166	-0.5533596	1.1881126	-0.6103922	-0.5270498	1.1537210	-0.5499722	-0.4108441	1.0020185	-0.7052014	-0.4702921	0.9694213	-0.7097049
4	0.1000000	-0.5565200	1.4385399	-0.2662900	-0.5424500	1.4411699	-0.0895700	-0.5148700	1.2043399	0.0505800	-0.4298800	1.0230399	0.2211000	-0.5603700	1.4481099	-0.4402000	-0.5339900	1.2070099	-0.5850300	-0.4520900	1.0034299	-0.7083300	-0.4685200	0.8600499	-0.2695100	-0.4951800	0.8627799	-0.1475600	-0.5213800	0.4358899	-0.1461400	-0.5493100	0.0653199	-0.1440200	-0.4641500	0.8533399	-0.3825200	-0.4697900	0.4555899	-0.3810900	-0.5381400	0.0668799	-0.3935800	-0.3611400	0.0197099	-0.4109500	-0.4196700	0.0098299	-0.4691800	-0.5959200	0.0262199	-0.3599500	-0.4038500	0.0106899	-0.1324000	-0.4253600	0.0203299	-0.0780000	-0.5959200	0.0162899	-0.1573600	-0.4030267	0.9286162	-0.0964252	-0.3763772	0.9266606	-0.4315699	-0.6421056	0.9651794	-0.2152107	-0.6309550	0.9641346	-0.3466874	-0.5205818	0.4523012	-0.0736363	-0.4929618	0.4488792	-0.2039249	-0.5849979	0.0624093	-0.0979787	-0.5444025	0.0615265	-0.1852575	-0.4321162	0.0208305	-0.1172161	-0.4859438	0.0116941	-0.0646881	-0.6420192	0.0334840	-0.1641041	-0.4749096	0.4590074	-0.4586797	-0.4487966	0.4586467	-0.3188844	-0.5669756	0.0639869	-0.4307478	-0.5217093	0.0631072	-0.3381473	-0.3995555	0.0224531	-0.4255238	-0.6309815	0.0346511	-0.3570907	-0.4637704	0.0198609	-0.4810776	-0.5425141	1.4957111	-0.0866138	-0.5482638	1.5085211	-0.4393685	-0.6608502	1.5047744	-0.2629802	-0.4368489	0.7019740	-0.0560330	-0.4777678	0.6043640	-0.0390488	-0.5641761	0.7057705	-0.0470136	-0.4038470	0.7078942	-0.4852937	-0.4389074	0.6102093	-0.5010671	-0.5382016	0.7031955	-0.5006080	-0.5397751	0.3343029	-0.0720126	-0.5271953	0.2149099	-0.0601025	-0.6008076	0.2349622	-0.0727984	-0.5026277	0.3369222	-0.4600142	-0.4969490	0.2113612	-0.4732671	-0.5735634	0.2416782	-0.4593239	-0.5211747	0.8353714	-0.1715796	-0.5051876	0.8345067	-0.3739936	-0.5464881	1.1832196	0.0966462	-0.5138035	1.1519163	0.0160789	-0.3966248	1.0259511	0.2143098	-0.4614218	0.9897210	0.2165824	-0.5527684	1.1903335	-0.6120785	-0.5316351	1.1545665	-0.5494914	-0.4099451	1.0028490	-0.7077250	-0.4710359	0.9678073	-0.7112478
5	0.1333333	-0.5565100	1.4385299	-0.2662900	-0.5423400	1.4408499	-0.0895700	-0.5142300	1.2043299	0.0506200	-0.4299700	1.0232299	0.2211000	-0.5600500	1.4480599	-0.4402200	-0.5340400	1.2069699	-0.5851000	-0.4524300	1.0033799	-0.7083100	-0.4684800	0.8599199	-0.2695200	-0.4951400	0.8627699	-0.1475700	-0.5213100	0.4359499	-0.1461500	-0.5497400	0.0703799	-0.1445900	-0.4633900	0.8533399	-0.3826500	-0.4696200	0.4556099	-0.3811200	-0.5384700	0.0667899	-0.3935300	-0.3614100	0.0196699	-0.4109900	-0.4196900	0.0096099	-0.4692500	-0.5960100	0.0263899	-0.3599400	-0.4039000	0.0106499	-0.1323800	-0.4253700	0.0202299	-0.0780000	-0.5960000	0.0163099	-0.1573400	-0.4029123	0.9295281	-0.0925463	-0.3737992	0.9278062	-0.4321998	-0.6432376	0.9644341	-0.2166011	-0.6310975	0.9633422	-0.3499277	-0.5226373	0.4504256	-0.0712374	-0.4936420	0.4466409	-0.2057681	-0.5842636	0.0637725	-0.0979529	-0.5427822	0.0628717	-0.1865237	-0.4314697	0.0232580	-0.1188958	-0.4850197	0.0128769	-0.0652875	-0.6416266	0.0345257	-0.1645845	-0.4751740	0.4589321	-0.4597802	-0.4488396	0.4584108	-0.3160938	-0.5664209	0.0655104	-0.4317094	-0.5197581	0.0640661	-0.3375062	-0.4001995	0.0232081	-0.4249598	-0.6297153	0.0365575	-0.3571965	-0.4651117	0.0202613	-0.4815085	-0.5425957	1.4946209	-0.0838861	-0.5505053	1.5101731	-0.4388855	-0.6621516	1.5037730	-0.2630540	-0.4363581	0.7006041	-0.0520034	-0.4785599	0.6029374	-0.0350007	-0.5674782	0.7048328	-0.0431498	-0.4009381	0.7077999	-0.4893240	-0.4373352	0.6101619	-0.5046458	-0.5390238	0.7029235	-0.5053020	-0.5412063	0.3337006	-0.0711877	-0.5274222	0.2156658	-0.0592932	-0.6019786	0.2347906	-0.0719198	-0.5032376	0.3377970	-0.4608360	-0.4963048	0.2126940	-0.4747722	-0.5749969	0.2426621	-0.4600853	-0.5224977	0.8346455	-0.1711099	-0.5050466	0.8338696	-0.3762044	-0.5498588	1.1824224	0.0957704	-0.5145689	1.1532098	0.0142952	-0.3962299	1.0283857	0.2168329	-0.4571358	0.9879693	0.2162895	-0.5531645	1.1907782	-0.6131600	-0.5339435	1.1545790	-0.5493497	-0.4089608	1.0043508	-0.7092426	-0.4699100	0.9674007	-0.7123475
6	0.1666667	-0.5565000	1.4385199	-0.2662800	-0.5425500	1.4411699	-0.0895400	-0.5152400	1.2043399	0.0506500	-0.4299100	1.0230699	0.2210700	-0.5602700	1.4480899	-0.4401900	-0.5340500	1.2070399	-0.5850700	-0.4521300	1.0034799	-0.7082800	-0.4683400	0.8600299	-0.2695400	-0.4950900	0.8627899	-0.1475800	-0.5213300	0.4359399	-0.1461500	-0.5497600	0.0704499	-0.1446100	-0.4639400	0.8533699	-0.3825400	-0.4698200	0.4556099	-0.3811100	-0.5398100	0.0715699	-0.3943200	-0.3615400	0.0195499	-0.4109400	-0.4212500	0.0143699	-0.4699200	-0.5764100	0.0341199	-0.3631800	-0.4037900	0.0106899	-0.1324100	-0.4253300	0.0203399	-0.0780100	-0.5960000	0.0164999	-0.1573800	-0.4032907	0.9305470	-0.0899069	-0.3722948	0.9292133	-0.4328856	-0.6440591	0.9637578	-0.2172327	-0.6311555	0.9627181	-0.3519547	-0.5237075	0.4489707	-0.0695466	-0.4937713	0.4453399	-0.2077426	-0.5831405	0.0655284	-0.0981939	-0.5411887	0.0649561	-0.1881534	-0.4308045	0.0257665	-0.1206651	-0.4841793	0.0143504	-0.0659427	-0.6408207	0.0365862	-0.1652999	-0.4746910	0.4590883	-0.4606201	-0.4479422	0.4583818	-0.3142890	-0.5634785	0.0682302	-0.4325296	-0.5155760	0.0663834	-0.3373944	-0.3991267	0.0252068	-0.4250185	-0.6255433	0.0399330	-0.3572990	-0.4645234	0.0223245	-0.4820819	-0.5427353	1.4933737	-0.0819781	-0.5527051	1.5105148	-0.4386732	-0.6628867	1.5023855	-0.2629756	-0.4354029	0.6994505	-0.0482936	-0.4786389	0.6016860	-0.0314883	-0.5695401	0.7038451	-0.0399296	-0.3982598	0.7081584	-0.4922413	-0.4356363	0.6104940	-0.5072197	-0.5393809	0.7028834	-0.5085135	-0.5418754	0.3335781	-0.0707753	-0.5272275	0.2167816	-0.0589788	-0.6022603	0.2349670	-0.0713211	-0.5026770	0.3392075	-0.4614984	-0.4944213	0.2150321	-0.4760450	-0.5743017	0.2442207	-0.4605924	-0.5231353	0.8341234	-0.1706522	-0.5045680	0.8335388	-0.3777370	-0.5528752	1.1809577	0.0940856	-0.5132224	1.1535034	0.0114197	-0.3954400	1.0299119	0.2185005	-0.4529145	0.9860904	0.2149726	-0.5546961	1.1900135	-0.6134669	-0.5343867	1.1535421	-0.5481189	-0.4076800	1.0047675	-0.7113431	-0.4683605	0.9661666	-0.7127747
7	0.2000000	-0.5565500	1.4385299	-0.2662700	-0.5424900	1.4407999	-0.0894900	-0.5142900	1.2042599	0.0506800	-0.4296700	1.0232499	0.2211000	-0.5600000	1.4480799	-0.4402400	-0.5513500	1.2069499	-0.5933800	-0.4524500	1.0034299	-0.7082400	-0.4682900	0.8598699	-0.2695300	-0.4950600	0.8627499	-0.1475500	-0.5213600	0.4359899	-0.1461500	-0.5497300	0.0703799	-0.1445900	-0.4463400	0.8554699	-0.3855200	-0.4696100	0.4556099	-0.3811100	-0.5401400	0.0714899	-0.3942900	-0.3615600	0.0196499	-0.4109100	-0.4211300	0.0142199	-0.4699600	-0.5959200	0.0264799	-0.3599800	-0.4038000	0.0106899	-0.1324000	-0.4253300	0.0202399	-0.0780000	-0.5960300	0.0163999	-0.1573500	-0.4042517	0.9311448	-0.0872687	-0.3701853	0.9299459	-0.4333492	-0.6454149	0.9628866	-0.2183964	-0.6312644	0.9618017	-0.3544170	-0.5246959	0.4474101	-0.0678319	-0.4937865	0.4440119	-0.2090043	-0.5823916	0.0662194	-0.0978772	-0.5400704	0.0660471	-0.1889330	-0.4304449	0.0269079	-0.1212150	-0.4838549	0.0147466	-0.0658330	-0.6403582	0.0375831	-0.1654265	-0.4742037	0.4582176	-0.4615149	-0.4474500	0.4576614	-0.3123533	-0.5632092	0.0695320	-0.4331558	-0.5144599	0.0675216	-0.3367752	-0.3991476	0.0258743	-0.4243608	-0.6251544	0.0416806	-0.3572990	-0.4653113	0.0231119	-0.4823953	-0.5432433	1.4923751	-0.0803631	-0.5538781	1.5109839	-0.4388986	-0.6637110	1.5014863	-0.2633548	-0.4351822	0.6984919	-0.0450483	-0.4791705	0.6004608	-0.0283260	-0.5718438	0.7026772	-0.0371471	-0.3950106	0.7071179	-0.4949109	-0.4335612	0.6095384	-0.5097152	-0.5393602	0.7022259	-0.5118921	-0.5426033	0.3329877	-0.0700610	-0.5274246	0.2171174	-0.0584444	-0.6026490	0.2344752	-0.0703736	-0.5027934	0.3393879	-0.4623332	-0.4940174	0.2158745	-0.4773906	-0.5750251	0.2445052	-0.4612129	-0.5242692	0.8335491	-0.1702872	-0.5038777	0.8329889	-0.3792473	-0.5557485	1.1793733	0.0924369	-0.5123412	1.1530293	0.0087924	-0.3946648	1.0299414	0.2195294	-0.4497000	0.9833668	0.2137223	-0.5598561	1.1884203	-0.6150708	-0.5379091	1.1514488	-0.5479291	-0.4075914	1.0044496	-0.7132265	-0.4682436	0.9641208	-0.7132782
8	0.2333333	-0.5563800	1.4385199	-0.2662500	-0.5423600	1.4411399	-0.0894800	-0.5149900	1.2042899	0.0506900	-0.4296100	1.0230999	0.2211000	-0.5602900	1.4481199	-0.4401900	-0.5340500	1.2070999	-0.5850600	-0.4522200	1.0034999	-0.7083300	-0.4682300	0.8599999	-0.2695000	-0.4949300	0.8627599	-0.1475200	-0.5215300	0.4357899	-0.1461900	-0.5497200	0.0704299	-0.1446000	-0.4638400	0.8533699	-0.3825000	-0.4698300	0.4555399	-0.3811000	-0.5396900	0.0715599	-0.3942700	-0.3608600	0.0254099	-0.4101300	-0.4212400	0.0143999	-0.4699300	-0.5957200	0.0262999	-0.3598800	-0.4039200	0.0106299	-0.1324500	-0.4253900	0.0203099	-0.0780300	-0.5948800	0.0107999	-0.1578700	-0.4046447	0.9320136	-0.0860019	-0.3695078	0.9308161	-0.4337899	-0.6462071	0.9622292	-0.2185819	-0.6315858	0.9610771	-0.3553449	-0.5252051	0.4463082	-0.0666904	-0.4940454	0.4434260	-0.2105195	-0.5814648	0.0665667	-0.0976397	-0.5391708	0.0669922	-0.1899160	-0.4297650	0.0281760	-0.1220320	-0.4831468	0.0151853	-0.0657250	-0.6399586	0.0382060	-0.1655237	-0.4742641	0.4575087	-0.4618470	-0.4472919	0.4570418	-0.3105230	-0.5631166	0.0709392	-0.4333227	-0.5135786	0.0687587	-0.3360533	-0.3991116	0.0273837	-0.4239217	-0.6249660	0.0432950	-0.3568442	-0.4660294	0.0248104	-0.4825511	-0.5430025	1.4916629	-0.0795951	-0.5551767	1.5109740	-0.4389579	-0.6639129	1.5009575	-0.2633161	-0.4340233	0.6976533	-0.0424388	-0.4788137	0.5994221	-0.0257859	-0.5728609	0.7017514	-0.0346874	-0.3927765	0.7064763	-0.4967568	-0.4323578	0.6089029	-0.5113610	-0.5398232	0.7018260	-0.5139686	-0.5429957	0.3326363	-0.0696252	-0.5272716	0.2173303	-0.0581656	-0.6026835	0.2340038	-0.0695000	-0.5032770	0.3396887	-0.4625448	-0.4940451	0.2168842	-0.4780606	-0.5758473	0.2448721	-0.4612474	-0.5245808	0.8333353	-0.1699324	-0.5035619	0.8327233	-0.3799387	-0.5579658	1.1783526	0.0912577	-0.5109123	1.1531599	0.0069980	-0.3937920	1.0304585	0.2208087	-0.4469533	0.9813573	0.2128667	-0.5615102	1.1870405	-0.6145679	-0.5376693	1.1501707	-0.5466209	-0.4064735	1.0037498	-0.7145925	-0.4672452	0.9623107	-0.7131139
9	0.2666667	-0.5564600	1.4385299	-0.2662200	-0.5422700	1.4407899	-0.0894400	-0.5141500	1.2042899	0.0507000	-0.4296400	1.0233099	0.2210900	-0.5600700	1.4480899	-0.4402200	-0.5340300	1.2070599	-0.5851100	-0.4527800	1.0079899	-0.7081900	-0.4681900	0.8598899	-0.2694900	-0.4948900	0.8627399	-0.1475100	-0.5215200	0.4358799	-0.1461900	-0.5497500	0.0703899	-0.1446000	-0.4630100	0.8533999	-0.3826100	-0.4696700	0.4555699	-0.3811400	-0.5400300	0.0715099	-0.3942500	-0.3609800	0.0254699	-0.4101300	-0.4211900	0.0142199	-0.4699800	-0.5957800	0.0265299	-0.3599300	-0.4039600	0.0106299	-0.1324600	-0.4254200	0.0202099	-0.0780400	-0.5959200	0.0163999	-0.1573300	-0.4049385	0.9326096	-0.0851018	-0.3690727	0.9312648	-0.4342760	-0.6469224	0.9613740	-0.2186689	-0.6319676	0.9601081	-0.3560383	-0.5254206	0.4452444	-0.0656233	-0.4941092	0.4428545	-0.2115490	-0.5807416	0.0668328	-0.0972637	-0.5385318	0.0678123	-0.1904724	-0.4295263	0.0289024	-0.1224497	-0.4828936	0.0155035	-0.0654810	-0.6396520	0.0389376	-0.1653314	-0.4743445	0.4567286	-0.4624806	-0.4469673	0.4564049	-0.3091583	-0.5633361	0.0717138	-0.4336315	-0.5129946	0.0694220	-0.3355277	-0.3989499	0.0280490	-0.4234646	-0.6252092	0.0442879	-0.3565490	-0.4667272	0.0256216	-0.4827701	-0.5427450	1.4910879	-0.0789320	-0.5559067	1.5108680	-0.4389913	-0.6638852	1.5005263	-0.2632469	-0.4329748	0.6967264	-0.0403139	-0.4783855	0.5983405	-0.0236598	-0.5735339	0.7007484	-0.0326224	-0.3908973	0.7055506	-0.4985904	-0.4314161	0.6080517	-0.5130844	-0.5404447	0.7012205	-0.5159041	-0.5432177	0.3322125	-0.0691376	-0.5271815	0.2174019	-0.0578618	-0.6026110	0.2335508	-0.0685896	-0.5037916	0.3397477	-0.4630734	-0.4942697	0.2174831	-0.4789981	-0.5767772	0.2448226	-0.4614721	-0.5247838	0.8329776	-0.1695987	-0.5033444	0.8322257	-0.3804576	-0.5596534	1.1769343	0.0902706	-0.5097108	1.1527607	0.0056936	-0.3934541	1.0303850	0.2217206	-0.4450124	0.9792309	0.2120675	-0.5629319	1.1856850	-0.6133937	-0.5371110	1.1491670	-0.5448565	-0.4055077	1.0037111	-0.7156755	-0.4665265	0.9610788	-0.7127702
10	0.3000000	-0.5732400	1.4398599	-0.2627800	-0.5424100	1.4411299	-0.0894500	-0.5150600	1.2042899	0.0507100	-0.4296600	1.0231399	0.2211100	-0.5602700	1.4481199	-0.4401900	-0.5338700	1.2071199	-0.5850400	-0.4523100	1.0080699	-0.7081700	-0.4681900	0.8600499	-0.2694700	-0.4949300	0.8627899	-0.1475000	-0.5214600	0.4358199	-0.1461900	-0.5493900	0.0653099	-0.1440200	-0.4469200	0.8555199	-0.3853200	-0.4698600	0.4555299	-0.3811000	-0.5397500	0.0715399	-0.3942800	-0.3609600	0.0253499	-0.4101500	-0.4212400	0.0143599	-0.4699500	-0.5957900	0.0263099	-0.3598900	-0.4038100	0.0106599	-0.1324700	-0.4234600	0.0164699	-0.0774800	-0.5959800	0.0162999	-0.1573100	-0.4060135	0.9332619	-0.0840640	-0.3681378	0.9320701	-0.4343549	-0.6478320	0.9605778	-0.2191093	-0.6320441	0.9593046	-0.3569661	-0.5261374	0.4446553	-0.0649355	-0.4941592	0.4427072	-0.2125454	-0.5805204	0.0669548	-0.0968898	-0.5380672	0.0684398	-0.1907424	-0.4295395	0.0291144	-0.1225405	-0.4830348	0.0153510	-0.0650971	-0.6396106	0.0396529	-0.1651508	-0.4744515	0.4560959	-0.4628500	-0.4469318	0.4559795	-0.3078114	-0.5636654	0.0724397	-0.4337776	-0.5126835	0.0700868	-0.3349552	-0.3988006	0.0286034	-0.4228297	-0.6256179	0.0452651	-0.3562567	-0.4673176	0.0263883	-0.4827757	-0.5442612	1.4908452	-0.0785380	-0.5574635	1.5106767	-0.4390273	-0.6650288	1.5000264	-0.2635064	-0.4327593	0.6961943	-0.0383012	-0.4787362	0.5976707	-0.0218338	-0.5749447	0.7000493	-0.0312108	-0.3889068	0.7047366	-0.4999542	-0.4303421	0.6073242	-0.5143648	-0.5405694	0.7009107	-0.5176331	-0.5438979	0.3320373	-0.0689026	-0.5276306	0.2175255	-0.0575981	-0.6030661	0.2332048	-0.0680624	-0.5043386	0.3398596	-0.4634027	-0.4945740	0.2180260	-0.4796687	-0.5776725	0.2448489	-0.4615430	-0.5253622	0.8328170	-0.1694756	-0.5027318	0.8321104	-0.3810223	-0.5614219	1.1756321	0.0894411	-0.5091371	1.1523580	0.0047095	-0.3934675	1.0303469	0.2221987	-0.4436929	0.9773841	0.2110607	-0.5639136	1.1844836	-0.6116834	-0.5363187	1.1486070	-0.5427925	-0.4043251	1.0037325	-0.7160041	-0.4656239	0.9599701	-0.7118052
11	0.3333333	-0.5563800	1.4385099	-0.2662000	-0.5421800	1.4407699	-0.0894000	-0.5141700	1.2043099	0.0507200	-0.4291300	1.0183999	0.2212500	-0.5600100	1.4480799	-0.4402600	-0.5340700	1.2070699	-0.5851600	-0.4526700	1.0080299	-0.7081300	-0.4681700	0.8599599	-0.2694600	-0.4754200	0.8652999	-0.1415300	-0.5215900	0.4358399	-0.1462000	-0.5497600	0.0703299	-0.1445600	-0.4461000	0.8555799	-0.3854200	-0.4695400	0.4555499	-0.3810800	-0.5402900	0.0714599	-0.3943300	-0.3798100	0.0113699	-0.4187900	-0.4214700	0.0140699	-0.4701200	-0.5961500	0.0264399	-0.3600400	-0.4038400	0.0106399	-0.1324300	-0.4253000	0.0201699	-0.0780100	-0.5949900	0.0106399	-0.1578000	-0.4059249	0.9336032	-0.0833587	-0.3681478	0.9323607	-0.4349818	-0.6485022	0.9598014	-0.2186735	-0.6327098	0.9584618	-0.3570988	-0.5263351	0.4437826	-0.0642851	-0.4944178	0.4424851	-0.2134943	-0.5798687	0.0667606	-0.0966833	-0.5375304	0.0688158	-0.1913431	-0.4292809	0.0293450	-0.1228714	-0.4828762	0.0154111	-0.0648458	-0.6393104	0.0400019	-0.1651106	-0.4751216	0.4556393	-0.4631817	-0.4471996	0.4553613	-0.3068100	-0.5651122	0.0730379	-0.4342513	-0.5134416	0.0703981	-0.3350117	-0.4007580	0.0275182	-0.4235406	-0.6268594	0.0468402	-0.3561033	-0.4697577	0.0262456	-0.4835804	-0.5439344	1.4904030	-0.0782527	-0.5582948	1.5100543	-0.4389178	-0.6649154	1.4996005	-0.2632203	-0.4316747	0.6952609	-0.0368079	-0.4782101	0.5966107	-0.0203321	-0.5752132	0.6990987	-0.0295301	-0.3878300	0.7038971	-0.5015244	-0.4300669	0.6067257	-0.5156896	-0.5415026	0.7007996	-0.5188494	-0.5441898	0.3316501	-0.0686661	-0.5276119	0.2173201	-0.0575151	-0.6030199	0.2325960	-0.0674536	-0.5055307	0.3400815	-0.4636602	-0.4957474	0.2186067	-0.4804554	-0.5793389	0.2450364	-0.4616478	-0.5253385	0.8325375	-0.1690582	-0.5027872	0.8317694	-0.3814253	-0.5624789	1.1739806	0.0885876	-0.5085754	1.1513739	0.0039027	-0.3934753	1.0289241	0.2220737	-0.4428558	0.9746843	0.2097965	-0.5643002	1.1831885	-0.6099933	-0.5351742	1.1480514	-0.5409055	-0.4031770	1.0034172	-0.7160153	-0.4648063	0.9586620	-0.7107501
12	0.3666667	-0.5563400	1.4384999	-0.2662200	-0.5413000	1.4363099	-0.0890600	-0.4945100	1.2042899	0.0552400	-0.4290900	1.0182099	0.2212600	-0.5603300	1.4481099	-0.4402300	-0.5511400	1.2070899	-0.5933200	-0.4523900	1.0080899	-0.7081900	-0.4681500	0.8600799	-0.2694600	-0.4753800	0.8653199	-0.1415400	-0.5214700	0.4358299	-0.1461800	-0.5498100	0.0704399	-0.1445700	-0.4468600	0.8555499	-0.3852800	-0.4698200	0.4554799	-0.3810800	-0.5399300	0.0715199	-0.3943400	-0.3790000	0.0171899	-0.4179400	-0.4215500	0.0142299	-0.4700700	-0.5960600	0.0262399	-0.3599800	-0.4037500	0.0106899	-0.1324000	-0.4234300	0.0164699	-0.0774300	-0.5959000	0.0164299	-0.1573100	-0.4058988	0.9342163	-0.0827402	-0.3682654	0.9328917	-0.4356865	-0.6489386	0.9590937	-0.2181654	-0.6331560	0.9576804	-0.3571497	-0.5266298	0.4434339	-0.0637556	-0.4945958	0.4426143	-0.2143311	-0.5796940	0.0668317	-0.0961816	-0.5373360	0.0693750	-0.1914062	-0.4293405	0.0293936	-0.1228004	-0.4830679	0.0154303	-0.0643369	-0.6394645	0.0407295	-0.1647349	-0.4753943	0.4550033	-0.4637701	-0.4470641	0.4548046	-0.3061297	-0.5660961	0.0735476	-0.4346947	-0.5138366	0.0707540	-0.3350302	-0.4024194	0.0270225	-0.4239957	-0.6275386	0.0480779	-0.3560299	-0.4718458	0.0265174	-0.4841987	-0.5435844	1.4901036	-0.0779379	-0.5587295	1.5098099	-0.4386859	-0.6645192	1.4993002	-0.2627536	-0.4306974	0.6945355	-0.0352633	-0.4778241	0.5959246	-0.0188928	-0.5756048	0.6985932	-0.0280724	-0.3867448	0.7033052	-0.5027939	-0.4296562	0.6061465	-0.5169161	-0.5422240	0.7004992	-0.5201436	-0.5446545	0.3316636	-0.0683936	-0.5278868	0.2174940	-0.0572002	-0.6032971	0.2323927	-0.0668320	-0.5063407	0.3400396	-0.4641542	-0.4966464	0.2188925	-0.4812861	-0.5804594	0.2450116	-0.4618905	-0.5252511	0.8324586	-0.1686124	-0.5028020	0.8316029	-0.3817953	-0.5605413	1.1729379	0.0880448	-0.5061019	1.1506204	0.0036782	-0.3920266	1.0264173	0.2218378	-0.4415480	0.9719626	0.2089603	-0.5666363	1.1825451	-0.6097418	-0.5356171	1.1478083	-0.5400512	-0.4028784	1.0039809	-0.7167289	-0.4650192	0.9580312	-0.7102546
13	0.4000000	-0.5563700	1.4384899	-0.2662300	-0.5412100	1.4359399	-0.0890400	-0.5141800	1.2043099	0.0507100	-0.4293100	1.0183699	0.2212200	-0.5599500	1.4480799	-0.4403000	-0.5341000	1.2071499	-0.5851800	-0.4527000	1.0080099	-0.7081800	-0.4683100	0.8646099	-0.2695300	-0.4754000	0.8653599	-0.1415200	-0.5214300	0.4359599	-0.1462000	-0.5497900	0.0703699	-0.1445900	-0.4629400	0.8534699	-0.3825500	-0.4696500	0.4555299	-0.3811000	-0.5403100	0.0715099	-0.3943400	-0.3798600	0.0113799	-0.4187900	-0.4216000	0.0139499	-0.4701300	-0.5961800	0.0265299	-0.3600300	-0.4033900	0.0108099	-0.1325100	-0.4231000	0.0164499	-0.0775300	-0.5961100	0.0163199	-0.1572900	-0.4051429	0.9393006	-0.0829323	-0.3695551	0.9375071	-0.4365394	-0.6491653	0.9627031	-0.2172689	-0.6341402	0.9610666	-0.3565415	-0.5267994	0.4473798	-0.0636642	-0.4951851	0.4470295	-0.2154114	-0.5792994	0.0706665	-0.0960598	-0.5371668	0.0736254	-0.1919138	-0.4291361	0.0330577	-0.1232266	-0.4829602	0.0191765	-0.0642919	-0.6395128	0.0450920	-0.1646180	-0.4764382	0.4587035	-0.4639459	-0.4475605	0.4584260	-0.3056614	-0.5670925	0.0776576	-0.4349740	-0.5142790	0.0746858	-0.3352942	-0.4038483	0.0295924	-0.4246579	-0.6282032	0.0529786	-0.3559212	-0.4736384	0.0299841	-0.4847378	-0.5426646	1.4937383	-0.0781691	-0.5596066	1.5133340	-0.4385910	-0.6641199	1.5031894	-0.2622685	-0.4292565	0.6981974	-0.0344946	-0.4769888	0.5995941	-0.0181246	-0.5752438	0.7026071	-0.0268523	-0.3868157	0.7070964	-0.5038909	-0.4302425	0.6099588	-0.5177586	-0.5437184	0.7046537	-0.5205197	-0.5449826	0.3358700	-0.0684457	-0.5279205	0.2216753	-0.0572968	-0.6033875	0.2362062	-0.0664941	-0.5076141	0.3441578	-0.4642234	-0.4978441	0.2232511	-0.4817791	-0.5818206	0.2488809	-0.4617348	-0.5247522	0.8369500	-0.1682220	-0.5035551	0.8357816	-0.3818161	-0.5612454	1.1759881	0.0871208	-0.5057523	1.1540393	0.0031299	-0.3924271	1.0288928	0.2216862	-0.4414720	0.9737090	0.2079696	-0.5667402	1.1859188	-0.6083640	-0.5347173	1.1515323	-0.5387875	-0.4020425	1.0075797	-0.7159599	-0.4643292	0.9610127	-0.7088644
14	0.4333333	-0.5562200	1.4384899	-0.2662500	-0.5412200	1.4362899	-0.0890600	-0.5151400	1.2042599	0.0507200	-0.4293500	1.0181899	0.2212400	-0.5427800	1.4466499	-0.4427300	-0.5511800	1.2071599	-0.5933100	-0.4521900	1.0080799	-0.7081700	-0.4682500	0.8647299	-0.2695500	-0.4753900	0.8653699	-0.1415300	-0.5214000	0.4358499	-0.1462100	-0.5498200	0.0704399	-0.1445900	-0.4468400	0.8555799	-0.3852700	-0.4698300	0.4554799	-0.3810700	-0.5594200	0.0638899	-0.3913400	-0.3799000	0.0112899	-0.4187700	-0.4394400	0.0065199	-0.4676900	-0.5962800	0.0262499	-0.3599900	-0.4033900	0.0108599	-0.1325200	-0.4250000	0.0204099	-0.0780900	-0.5961000	0.0163699	-0.1572800	-0.4049498	0.9401649	-0.0824053	-0.3697963	0.9376005	-0.4373851	-0.6492374	0.9619609	-0.2168811	-0.6343650	0.9599989	-0.3567108	-0.5264958	0.4466748	-0.0635562	-0.4950225	0.4466438	-0.2160385	-0.5787716	0.0699204	-0.0961036	-0.5367613	0.0731951	-0.1921897	-0.4291770	0.0321761	-0.1235562	-0.4830249	0.0183520	-0.0645421	-0.6392720	0.0446721	-0.1646668	-0.4774713	0.4575197	-0.4645807	-0.4477878	0.4572927	-0.3054370	-0.5699996	0.0767878	-0.4350638	-0.5164217	0.0736523	-0.3352246	-0.4073485	0.0266829	-0.4248442	-0.6308078	0.0530537	-0.3556246	-0.4777023	0.0277352	-0.4848787	-0.5422559	1.4930918	-0.0778954	-0.5578607	1.5122940	-0.4387937	-0.6626479	1.5025664	-0.2625024	-0.4281055	0.6975521	-0.0338334	-0.4761947	0.5988627	-0.0175056	-0.5751000	0.7022690	-0.0258862	-0.3865410	0.7058612	-0.5053254	-0.4307085	0.6087793	-0.5190211	-0.5449420	0.7041328	-0.5214655	-0.5448646	0.3353294	-0.0685215	-0.5277527	0.2211322	-0.0574777	-0.6031501	0.2354160	-0.0664100	-0.5094627	0.3432562	-0.4646380	-0.5002286	0.2223469	-0.4824069	-0.5843342	0.2479417	-0.4616999	-0.5245170	0.8371134	-0.1677522	-0.5035992	0.8354422	-0.3821811	-0.5621918	1.1744827	0.0860503	-0.5060457	1.1525906	0.0024618	-0.3927944	1.0269454	0.2213422	-0.4411635	0.9709960	0.2070315	-0.5679801	1.1854670	-0.6078633	-0.5354400	1.1510369	-0.5380823	-0.4017981	1.0071756	-0.7150572	-0.4643595	0.9601123	-0.7078590
15	0.4666667	-0.5562600	1.4384999	-0.2662500	-0.5412500	1.4359499	-0.0890500	-0.4930100	1.1997199	0.0555300	-0.4291900	1.0183399	0.2212600	-0.5423800	1.4466099	-0.4427600	-0.5514300	1.2070399	-0.5934500	-0.4526800	1.0079699	-0.7082000	-0.4682600	0.8646399	-0.2695600	-0.4949100	0.8628899	-0.1475000	-0.5043100	0.4405499	-0.1505100	-0.5498400	0.0703799	-0.1445600	-0.4628700	0.8535199	-0.3825600	-0.4697300	0.4555499	-0.3811300	-0.5595900	0.0639399	-0.3912900	-0.3800900	0.0113199	-0.4188000	-0.4394300	0.0062999	-0.4677700	-0.5960400	0.0265799	-0.3599900	-0.4035800	0.0107799	-0.1325300	-0.4251300	0.0202399	-0.0780800	-0.5962900	0.0162799	-0.1572600	-0.4053748	0.9405829	-0.0826513	-0.3701132	0.9373771	-0.4372699	-0.6490396	0.9611117	-0.2171191	-0.6341072	0.9588716	-0.3568252	-0.5241875	0.4463169	-0.0639004	-0.4927920	0.4466244	-0.2170087	-0.5779225	0.0695561	-0.0965483	-0.5360136	0.0731130	-0.1929508	-0.4288658	0.0315609	-0.1241266	-0.4827711	0.0178710	-0.0649497	-0.6387544	0.0448495	-0.1652544	-0.4785894	0.4562111	-0.4644336	-0.4482383	0.4558869	-0.3051556	-0.5728679	0.0758172	-0.4344148	-0.5187519	0.0724980	-0.3347484	-0.4104615	0.0241934	-0.4247750	-0.6334957	0.0528358	-0.3547662	-0.4813350	0.0258961	-0.4845471	-0.5416902	1.4919311	-0.0782787	-0.5560723	1.5107939	-0.4390465	-0.6608589	1.5017842	-0.2632463	-0.4263288	0.6976460	-0.0335785	-0.4742320	0.5986830	-0.0173410	-0.5743498	0.7017696	-0.0256156	-0.3866223	0.7047847	-0.5057119	-0.4313431	0.6076665	-0.5191973	-0.5457900	0.7035756	-0.5213334	-0.5430439	0.3348407	-0.0690023	-0.5263710	0.2204874	-0.0580449	-0.6017901	0.2350767	-0.0666838	-0.5112259	0.3421718	-0.4642481	-0.5025923	0.2213875	-0.4820394	-0.5866680	0.2468302	-0.4609741	-0.5243685	0.8371098	-0.1678480	-0.5033979	0.8350192	-0.3820661	-0.5602543	1.1732811	0.0856405	-0.5038505	1.1512966	0.0025979	-0.3913573	1.0247443	0.2215918	-0.4396170	0.9685971	0.2068546	-0.5687732	1.1850070	-0.6077348	-0.5353624	1.1506164	-0.5379089	-0.4018300	1.0068347	-0.7147822	-0.4645794	0.9595043	-0.7072375
16	0.5000000	-0.5561800	1.4384799	-0.2662400	-0.5413000	1.4362999	-0.0890500	-0.4938700	1.1996499	0.0555300	-0.4290900	1.0180799	0.2213100	-0.5426500	1.4466299	-0.4427200	-0.5511900	1.2071099	-0.5933200	-0.4522300	1.0080399	-0.7082400	-0.4683000	0.8647999	-0.2695600	-0.4949600	0.8629399	-0.1475100	-0.5213000	0.4358999	-0.1461900	-0.5494200	0.0653599	-0.1440100	-0.4468700	0.8556399	-0.3852800	-0.4874100	0.4508599	-0.3781200	-0.5592500	0.0639599	-0.3913300	-0.3799300	0.0112299	-0.4187700	-0.4394900	0.0064699	-0.4677200	-0.5960300	0.0263499	-0.3599700	-0.4035600	0.0107799	-0.1325200	-0.4251100	0.0203699	-0.0780800	-0.5962900	0.0163399	-0.1572900	-0.4064299	0.9409906	-0.0821707	-0.3695797	0.9376716	-0.4372124	-0.6491317	0.9603947	-0.2175474	-0.6335708	0.9580658	-0.3574372	-0.5246224	0.4456101	-0.0638997	-0.4927085	0.4461257	-0.2172729	-0.5773137	0.0692212	-0.0968370	-0.5351201	0.0730060	-0.1931069	-0.4290829	0.0311926	-0.1239166	-0.4828961	0.0175233	-0.0650188	-0.6377745	0.0447339	-0.1656516	-0.4819746	0.4550295	-0.4643024	-0.4510292	0.4550122	-0.3044593	-0.5752019	0.0746528	-0.4339719	-0.5202946	0.0714366	-0.3342356	-0.4126113	0.0222902	-0.4242913	-0.6352921	0.0519011	-0.3539726	-0.4840482	0.0241012	-0.4841081	-0.5421990	1.4908231	-0.0780880	-0.5540084	1.5094403	-0.4389273	-0.6595276	1.5007635	-0.2637622	-0.4264506	0.6972573	-0.0328101	-0.4745988	0.5981190	-0.0168392	-0.5752672	0.7013827	-0.0255933	-0.3869433	0.7030188	-0.5065538	-0.4330070	0.6061203	-0.5197419	-0.5472183	0.7032257	-0.5218063	-0.5433386	0.3343486	-0.0692403	-0.5265030	0.2201832	-0.0582818	-0.6017867	0.2344654	-0.0670816	-0.5146368	0.3413408	-0.4641175	-0.5055320	0.2205627	-0.4821577	-0.5899959	0.2456067	-0.4603556	-0.5247583	0.8371905	-0.1678714	-0.5028509	0.8350035	-0.3823413	-0.5582632	1.1728278	0.0852125	-0.5015263	1.1507773	0.0027762	-0.3904390	1.0235465	0.2222517	-0.4384494	0.9673054	0.2070462	-0.5695825	1.1851757	-0.6077065	-0.5352813	1.1506369	-0.5378213	-0.4019569	1.0070136	-0.7144298	-0.4647013	0.9595414	-0.7066381
17	0.5333333	-0.5562400	1.4384899	-0.2662400	-0.5412200	1.4359299	-0.0890300	-0.4930300	1.1996799	0.0555400	-0.4290500	1.0182899	0.2213000	-0.5423900	1.4466099	-0.4427500	-0.5513700	1.2070699	-0.5934400	-0.4525900	1.0079599	-0.7082200	-0.4683000	0.8646799	-0.2695700	-0.4949800	0.8629199	-0.1475200	-0.5214100	0.4359799	-0.1462000	-0.5498600	0.0703599	-0.1445700	-0.4460800	0.8556599	-0.3854100	-0.4697500	0.4555399	-0.3811300	-0.5402600	0.0715299	-0.3943000	-0.3801000	0.0112899	-0.4188000	-0.4394300	0.0062999	-0.4677900	-0.5959500	0.0266299	-0.3599800	-0.4035400	0.0107899	-0.1325200	-0.4251300	0.0202399	-0.0780800	-0.5963300	0.0162599	-0.1572700	-0.4079342	0.9410561	-0.0816161	-0.3685319	0.9379007	-0.4366192	-0.6493147	0.9597290	-0.2184262	-0.6327262	0.9574153	-0.3583027	-0.5253884	0.4451507	-0.0642290	-0.4926191	0.4460630	-0.2179752	-0.5774029	0.0688170	-0.0970657	-0.5346998	0.0729486	-0.1932669	-0.4294157	0.0310888	-0.1238285	-0.4832806	0.0172819	-0.0649357	-0.6375202	0.0446029	-0.1661212	-0.4824634	0.4539909	-0.4641610	-0.4514139	0.4541111	-0.3035709	-0.5746277	0.0742096	-0.4337212	-0.5193179	0.0710148	-0.3336576	-0.4126607	0.0213764	-0.4241702	-0.6342333	0.0518845	-0.3533775	-0.4842531	0.0236855	-0.4839952	-0.5424654	1.4894449	-0.0783270	-0.5518524	1.5081240	-0.4388645	-0.6579596	1.4999063	-0.2646800	-0.4269773	0.6967371	-0.0319562	-0.4753785	0.5975126	-0.0163792	-0.5767111	0.7006909	-0.0258461	-0.3858975	0.7020031	-0.5069429	-0.4326008	0.6051193	-0.5200463	-0.5470528	0.7027608	-0.5225194	-0.5441202	0.3340098	-0.0697371	-0.5272275	0.2198276	-0.0585040	-0.6023446	0.2339216	-0.0676584	-0.5150362	0.3407402	-0.4639549	-0.5054496	0.2202143	-0.4821561	-0.5902799	0.2448249	-0.4600248	-0.5253972	0.8368911	-0.1682043	-0.5019598	0.8347766	-0.3826516	-0.5562178	1.1723777	0.0848768	-0.4991284	1.1502839	0.0029678	-0.3895729	1.0225276	0.2229927	-0.4372452	0.9661816	0.2073215	-0.5703455	1.1850627	-0.6076482	-0.5350673	1.1504150	-0.5378372	-0.4023349	1.0069878	-0.7141097	-0.4649138	0.9595095	-0.7061616
18	0.5666667	-0.5562100	1.4384699	-0.2662400	-0.5412600	1.4362999	-0.0890500	-0.4939800	1.1997199	0.0555400	-0.4291300	1.0181099	0.2212900	-0.5427600	1.4466199	-0.4427100	-0.5511100	1.2070899	-0.5933300	-0.4521100	1.0080299	-0.7082200	-0.4682700	0.8647999	-0.2695800	-0.4949600	0.8629399	-0.1475300	-0.5042100	0.4404899	-0.1504800	-0.5498700	0.0704399	-0.1445700	-0.4468400	0.8556399	-0.3852800	-0.4699400	0.4555099	-0.3811000	-0.5399500	0.0715599	-0.3943300	-0.3799600	0.0112299	-0.4187800	-0.4219100	0.0140799	-0.4701000	-0.5959400	0.0263799	-0.3599500	-0.4036600	0.0107399	-0.1324800	-0.4252500	0.0203399	-0.0780400	-0.5962400	0.0163799	-0.1573000	-0.4094469	0.9413313	-0.0810990	-0.3674211	0.9382223	-0.4359828	-0.6495970	0.9591032	-0.2195364	-0.6319527	0.9567727	-0.3593703	-0.5239397	0.4451910	-0.0642411	-0.4906226	0.4463125	-0.2182975	-0.5766925	0.0691549	-0.0970613	-0.5337820	0.0734625	-0.1932962	-0.4288948	0.0315389	-0.1234923	-0.4829324	0.0180161	-0.0646755	-0.6367229	0.0452023	-0.1663123	-0.4816597	0.4537578	-0.4640114	-0.4510046	0.4539486	-0.3030422	-0.5728708	0.0742573	-0.4336401	-0.5176617	0.0711156	-0.3334390	-0.4110985	0.0212215	-0.4239402	-0.6324162	0.0521610	-0.3533780	-0.4826615	0.0240877	-0.4838526	-0.5427708	1.4884614	-0.0783660	-0.5501317	1.5071473	-0.4390166	-0.6568245	1.4994364	-0.2656723	-0.4266378	0.6973003	-0.0314018	-0.4747268	0.5977775	-0.0159728	-0.5771422	0.7003800	-0.0259836	-0.3843079	0.7018837	-0.5068992	-0.4312476	0.6049658	-0.5200268	-0.5459893	0.7026433	-0.5230011	-0.5429681	0.3340383	-0.0699190	-0.5264475	0.2198602	-0.0586220	-0.6013357	0.2341297	-0.0677629	-0.5140918	0.3407628	-0.4638138	-0.5041121	0.2204626	-0.4820735	-0.5891013	0.2445985	-0.4599117	-0.5260324	0.8368910	-0.1685676	-0.5010203	0.8347874	-0.3829520	-0.5545284	1.1722657	0.0844980	-0.4970285	1.1501886	0.0030870	-0.3890058	1.0220827	0.2236196	-0.4362565	0.9656362	0.2074517	-0.5710531	1.1851833	-0.6075465	-0.5347718	1.1504926	-0.5377939	-0.4026401	1.0073775	-0.7136342	-0.4649085	0.9599431	-0.7056562
19	0.6000000	-0.5563200	1.4384799	-0.2662500	-0.5412300	1.4359199	-0.0890400	-0.5135700	1.1996299	0.0510000	-0.4292900	1.0183099	0.2212700	-0.5424600	1.4465899	-0.4427600	-0.5513800	1.2069899	-0.5934200	-0.4525700	1.0079699	-0.7082100	-0.4683100	0.8647199	-0.2696000	-0.4950000	0.8629699	-0.1475500	-0.5042500	0.4406399	-0.1504900	-0.5494300	0.0652799	-0.1439900	-0.4463400	0.8605299	-0.3853300	-0.4697300	0.4555899	-0.3811400	-0.5402900	0.0715399	-0.3943200	-0.3800300	0.0113399	-0.4187900	-0.4218100	0.0139099	-0.4701700	-0.5960000	0.0266199	-0.3600100	-0.4036900	0.0107399	-0.1325000	-0.4252400	0.0202199	-0.0780500	-0.5963200	0.0162799	-0.1572800	-0.4108143	0.9412308	-0.0805223	-0.3665328	0.9386156	-0.4355524	-0.6499527	0.9583243	-0.2203289	-0.6314090	0.9561648	-0.3602173	-0.5223503	0.4449782	-0.0643557	-0.4886252	0.4463421	-0.2187107	-0.5761128	0.0689761	-0.0972417	-0.5331189	0.0734617	-0.1935527	-0.4285906	0.0313197	-0.1233917	-0.4827684	0.0183541	-0.0646088	-0.6361630	0.0453904	-0.1666499	-0.4804706	0.4534124	-0.4641952	-0.4504082	0.4538536	-0.3027920	-0.5710437	0.0740984	-0.4338677	-0.5160752	0.0711270	-0.3334551	-0.4094382	0.0210465	-0.4237798	-0.6307135	0.0522889	-0.3537155	-0.4809060	0.0243087	-0.4838217	-0.5431078	1.4872047	-0.0782331	-0.5487377	1.5059744	-0.4390145	-0.6559210	1.4986705	-0.2662889	-0.4261921	0.6974465	-0.0309549	-0.4739292	0.5976992	-0.0156655	-0.5774045	0.6997502	-0.0260354	-0.3826388	0.7016702	-0.5070392	-0.4296780	0.6046770	-0.5202671	-0.5447796	0.7022983	-0.5236721	-0.5417233	0.3337858	-0.0702380	-0.5256419	0.2195087	-0.0589494	-0.6003165	0.2339561	-0.0679607	-0.5128256	0.3406014	-0.4639835	-0.5025161	0.2204422	-0.4822599	-0.5876551	0.2441966	-0.4601644	-0.5266452	0.8365389	-0.1688192	-0.5002795	0.8347172	-0.3832974	-0.5557142	1.1716759	0.0836786	-0.4973786	1.1497548	0.0025913	-0.3901129	1.0223366	0.2238811	-0.4362847	0.9652469	0.2070618	-0.5719563	1.1852404	-0.6073270	-0.5352573	1.1503481	-0.5376290	-0.4029861	1.0074312	-0.7125355	-0.4648687	0.9601445	-0.7050321
20	0.6333333	-0.5562600	1.4384899	-0.2662600	-0.5413300	1.4362999	-0.0890800	-0.5144900	1.1996099	0.0509900	-0.4290300	1.0223599	0.2210500	-0.5427700	1.4466399	-0.4427200	-0.5511800	1.2070599	-0.5933100	-0.4520900	1.0080599	-0.7082400	-0.4683300	0.8648199	-0.2696000	-0.4950200	0.8629699	-0.1475600	-0.5042300	0.4405199	-0.1505000	-0.5498600	0.0704299	-0.1445600	-0.4471000	0.8605099	-0.3852100	-0.4699000	0.4555499	-0.3810800	-0.5400100	0.0715399	-0.3943600	-0.3799200	0.0112499	-0.4187600	-0.4218900	0.0140799	-0.4700900	-0.5960200	0.0263599	-0.3599800	-0.4037300	0.0107699	-0.1325300	-0.4252400	0.0204099	-0.0780600	-0.5961700	0.0163799	-0.1572600	-0.4121245	0.9412055	-0.0800459	-0.3658293	0.9391776	-0.4351093	-0.6503109	0.9577948	-0.2209976	-0.6309684	0.9558453	-0.3609018	-0.5207624	0.4450522	-0.0644753	-0.4867402	0.4466707	-0.2191022	-0.5757914	0.0691533	-0.0974467	-0.5327866	0.0737994	-0.1938587	-0.4284470	0.0314233	-0.1234139	-0.4827791	0.0189981	-0.0646339	-0.6359906	0.0459643	-0.1669522	-0.4793767	0.4533178	-0.4643457	-0.4498206	0.4539583	-0.3025986	-0.5694166	0.0742962	-0.4340539	-0.5146411	0.0714881	-0.3334565	-0.4078513	0.0214340	-0.4237600	-0.6292270	0.0526900	-0.3539364	-0.4792558	0.0250343	-0.4838985	-0.5434478	1.4861922	-0.0782528	-0.5479171	1.5051402	-0.4389695	-0.6552962	1.4981437	-0.2668092	-0.4257169	0.6977789	-0.0305579	-0.4730931	0.5978487	-0.0154023	-0.5774823	0.6993467	-0.0261019	-0.3811145	0.7017406	-0.5071065	-0.4282398	0.6046622	-0.5204307	-0.5436622	0.7022283	-0.5242067	-0.5404826	0.3338007	-0.0705695	-0.5248683	0.2194006	-0.0593290	-0.5994255	0.2341508	-0.0681262	-0.5116586	0.3407076	-0.4641148	-0.5010571	0.2207460	-0.4823755	-0.5863474	0.2440926	-0.4604075	-0.5271330	0.8363667	-0.1690498	-0.4995569	0.8348867	-0.3835530	-0.5572865	1.1713377	0.0830869	-0.4982053	1.1495757	0.0021572	-0.3908816	1.0235845	0.2240503	-0.4357379	0.9655626	0.2066158	-0.5726211	1.1854423	-0.6071503	-0.5356959	1.1505184	-0.5376366	-0.4031042	1.0079432	-0.7115098	-0.4646391	0.9608180	-0.7046043
21	0.6666667	-0.5563800	1.4385099	-0.2662500	-0.5412600	1.4359299	-0.0890500	-0.5137100	1.1995999	0.0510200	-0.4292700	1.0183099	0.2213000	-0.5599300	1.4481099	-0.4402700	-0.5514100	1.2070099	-0.5934400	-0.4525300	1.0079999	-0.7082200	-0.4683300	0.8647299	-0.2696100	-0.4950300	0.8629799	-0.1475600	-0.5042900	0.4406199	-0.1505200	-0.5498100	0.0703899	-0.1445500	-0.4463500	0.8605399	-0.3853400	-0.4872400	0.4508999	-0.3781700	-0.5403300	0.0715199	-0.3943400	-0.3800300	0.0113399	-0.4187900	-0.4217800	0.0139099	-0.4701600	-0.5960800	0.0265799	-0.3600200	-0.4037800	0.0107699	-0.1325200	-0.4252900	0.0202699	-0.0780500	-0.5961400	0.0163399	-0.1572500	-0.4128668	0.9407205	-0.0797074	-0.3656594	0.9396928	-0.4351094	-0.6506527	0.9570890	-0.2208731	-0.6309473	0.9555018	-0.3609229	-0.5198089	0.4446939	-0.0641705	-0.4855996	0.4465692	-0.2192460	-0.5754457	0.0692111	-0.0972213	-0.5324339	0.0740061	-0.1939142	-0.4283780	0.0310770	-0.1230984	-0.4827403	0.0191763	-0.0641979	-0.6357552	0.0466698	-0.1667676	-0.4811117	0.4527540	-0.4640484	-0.4517424	0.4537015	-0.3020921	-0.5690227	0.0739601	-0.4339288	-0.5141382	0.0714224	-0.3333235	-0.4068321	0.0218576	-0.4235689	-0.6287526	0.0522764	-0.3536853	-0.4783578	0.0253542	-0.4837495	-0.5438123	1.4850997	-0.0780938	-0.5494200	1.5042043	-0.4385694	-0.6558175	1.4971310	-0.2662627	-0.4251795	0.6975880	-0.0298689	-0.4724511	0.5975088	-0.0147721	-0.5774572	0.6986409	-0.0257418	-0.3809077	0.7008933	-0.5071427	-0.4287462	0.6039003	-0.5203717	-0.5439805	0.7020597	-0.5244069	-0.5396886	0.3335019	-0.0705067	-0.5242555	0.2190848	-0.0593619	-0.5988461	0.2340917	-0.0677916	-0.5129698	0.3404856	-0.4639215	-0.5015748	0.2207232	-0.4823583	-0.5870710	0.2434660	-0.4601293	-0.5272795	0.8359033	-0.1690328	-0.4991617	0.8350237	-0.3837449	-0.5582778	1.1705695	0.0823982	-0.4987861	1.1490460	0.0017910	-0.3915332	1.0241942	0.2236255	-0.4353631	0.9655636	0.2056160	-0.5739104	1.1852360	-0.6069183	-0.5364302	1.1503721	-0.5374564	-0.4034759	1.0084096	-0.7109633	-0.4647142	0.9612312	-0.7042229
22	0.7000000	-0.5563600	1.4384999	-0.2662500	-0.5413500	1.4362999	-0.0890900	-0.5146100	1.1995999	0.0510300	-0.4290100	1.0223899	0.2210300	-0.5603200	1.4481199	-0.4402100	-0.5511700	1.2070599	-0.5932900	-0.4521000	1.0080999	-0.7082400	-0.4683400	0.8647899	-0.2696000	-0.4951100	0.8629399	-0.1475600	-0.5214500	0.4358799	-0.1462300	-0.5497700	0.0704699	-0.1445600	-0.4470400	0.8604599	-0.3852200	-0.4699500	0.4554799	-0.3810900	-0.5593900	0.0639299	-0.3913500	-0.3798100	0.0111899	-0.4188000	-0.4218800	0.0139499	-0.4700800	-0.5978800	0.0310499	-0.3607500	-0.4037800	0.0106899	-0.1325000	-0.4253000	0.0203299	-0.0780300	-0.5960300	0.0164299	-0.1572500	-0.4133390	0.9408059	-0.0791065	-0.3653693	0.9402441	-0.4351294	-0.6510121	0.9565253	-0.2208134	-0.6309951	0.9550973	-0.3610990	-0.5206816	0.4444383	-0.0639463	-0.4862614	0.4464485	-0.2193520	-0.5759168	0.0688110	-0.0969527	-0.5329340	0.0736788	-0.1937774	-0.4287629	0.0308007	-0.1227411	-0.4831967	0.0192961	-0.0638186	-0.6362650	0.0463047	-0.1665372	-0.4812939	0.4524973	-0.4642542	-0.4520524	0.4537950	-0.3014237	-0.5695233	0.0740737	-0.4342057	-0.5144414	0.0717557	-0.3331109	-0.4066295	0.0220541	-0.4236488	-0.6294565	0.0526432	-0.3536795	-0.4784667	0.0257241	-0.4841629	-0.5444391	1.4847879	-0.0779003	-0.5513611	1.5041261	-0.4382403	-0.6569115	1.4967167	-0.2657991	-0.4255215	0.6971812	-0.0291852	-0.4730544	0.5971213	-0.0141890	-0.5780907	0.6983362	-0.0254207	-0.3801377	0.7003725	-0.5078319	-0.4283514	0.6034345	-0.5210375	-0.5439415	0.7018362	-0.5253132	-0.5405047	0.3333315	-0.0704787	-0.5250132	0.2188271	-0.0593439	-0.5994773	0.2337883	-0.0675424	-0.5134251	0.3404234	-0.4641979	-0.5019547	0.2207185	-0.4828344	-0.5877078	0.2433661	-0.4603824	-0.5274882	0.8356845	-0.1689637	-0.4989137	0.8350754	-0.3840532	-0.5593090	1.1702038	0.0817710	-0.4995311	1.1489412	0.0014475	-0.3922466	1.0255238	0.2231723	-0.4348999	0.9662637	0.2046902	-0.5750285	1.1851081	-0.6067414	-0.5370974	1.1504056	-0.5373657	-0.4035822	1.0092330	-0.7103307	-0.4644075	0.9618808	-0.7037219
23	0.7333333	-0.5565300	1.4385199	-0.2662700	-0.5413800	1.4359299	-0.0890700	-0.5148700	1.2042299	0.0507000	-0.4293000	1.0226499	0.2209600	-0.5602100	1.4481299	-0.4403200	-0.5516100	1.2070299	-0.5934500	-0.4526300	1.0079999	-0.7082400	-0.4684600	0.8646699	-0.2696600	-0.4951600	0.8629199	-0.1475900	-0.5215500	0.4359499	-0.1462800	-0.5498200	0.0704499	-0.1445700	-0.4465200	0.8604199	-0.3854500	-0.4871900	0.4508699	-0.3781500	-0.5597200	0.0638499	-0.3913500	-0.3796500	0.0114199	-0.4187500	-0.4217300	0.0138399	-0.4701600	-0.5962700	0.0265399	-0.3600600	-0.4037000	0.0108199	-0.1325100	-0.4237900	0.0270899	-0.0774500	-0.5962300	0.0163599	-0.1572900	-0.4139812	0.9405124	-0.0787572	-0.3653758	0.9406085	-0.4352501	-0.6513819	0.9558038	-0.2205989	-0.6311029	0.9545982	-0.3610740	-0.5220463	0.4436702	-0.0636291	-0.4876406	0.4460011	-0.2193640	-0.5759542	0.0685848	-0.0967781	-0.5330770	0.0736904	-0.1937445	-0.4286832	0.0311683	-0.1224262	-0.4830692	0.0197568	-0.0634799	-0.6363826	0.0461566	-0.1664361	-0.4839380	0.4516935	-0.4639880	-0.4547289	0.4532071	-0.3006133	-0.5709255	0.0736376	-0.4340284	-0.5156219	0.0715052	-0.3327268	-0.4069371	0.0223452	-0.4235181	-0.6310097	0.0520172	-0.3532524	-0.4791053	0.0257888	-0.4841800	-0.5451429	1.4840687	-0.0778652	-0.5537856	1.5034944	-0.4376751	-0.6580923	1.4957706	-0.2650896	-0.4259071	0.6963692	-0.0286154	-0.4738430	0.5962464	-0.0136474	-0.5787502	0.6976026	-0.0251101	-0.3802933	0.6992112	-0.5080991	-0.4294835	0.6023991	-0.5212025	-0.5448885	0.7015638	-0.5258115	-0.5415769	0.3328214	-0.0703624	-0.5256893	0.2184565	-0.0593348	-0.6001297	0.2332749	-0.0672947	-0.5159323	0.3399592	-0.4640159	-0.5039042	0.2204168	-0.4828582	-0.5899497	0.2426649	-0.4601132	-0.5277089	0.8352747	-0.1689484	-0.4987561	0.8350524	-0.3843276	-0.5602339	1.1697972	0.0809744	-0.5004074	1.1487423	0.0010883	-0.3932062	1.0266321	0.2224032	-0.4347669	0.9669323	0.2035812	-0.5763082	1.1847725	-0.6066046	-0.5380047	1.1502482	-0.5372957	-0.4038493	1.0097829	-0.7098239	-0.4642746	0.9622416	-0.7032077
24	0.7666667	-0.5564700	1.4385299	-0.2662700	-0.5414700	1.4362999	-0.0890900	-0.5158300	1.2042899	0.0507000	-0.4292100	1.0224599	0.2209300	-0.5604600	1.4481899	-0.4402700	-0.5513300	1.2071099	-0.5933100	-0.4521200	1.0080899	-0.7082500	-0.4684600	0.8647899	-0.2696700	-0.4951900	0.8629299	-0.1476000	-0.5044300	0.4403899	-0.1505500	-0.5498100	0.0705299	-0.1445700	-0.4472700	0.8604099	-0.3853300	-0.4874100	0.4507999	-0.3781100	-0.5595100	0.0638199	-0.3913700	-0.3796200	0.0113099	-0.4187700	-0.4218700	0.0140399	-0.4701000	-0.5981100	0.0309899	-0.3607700	-0.4037600	0.0108399	-0.1325400	-0.4237800	0.0272499	-0.0774700	-0.5961800	0.0164199	-0.1572700	-0.4143175	0.9405946	-0.0783126	-0.3651513	0.9411681	-0.4353591	-0.6516506	0.9555071	-0.2205221	-0.6311300	0.9544521	-0.3611998	-0.5214001	0.4433177	-0.0631334	-0.4869633	0.4459053	-0.2194186	-0.5755962	0.0686344	-0.0964399	-0.5328061	0.0739206	-0.1937743	-0.4282375	0.0315665	-0.1222169	-0.4826238	0.0204278	-0.0631005	-0.6361996	0.0463670	-0.1662553	-0.4862333	0.4512431	-0.4637693	-0.4572711	0.4529281	-0.2997960	-0.5726535	0.0733996	-0.4337660	-0.5173616	0.0714035	-0.3322045	-0.4074224	0.0225535	-0.4232674	-0.6331235	0.0516650	-0.3528412	-0.4798731	0.0257819	-0.4840836	-0.5452053	1.4841409	-0.0776248	-0.5555614	1.5034314	-0.4376005	-0.6588070	1.4956419	-0.2647067	-0.4253257	0.6963629	-0.0280226	-0.4732565	0.5960133	-0.0129616	-0.5787303	0.6971312	-0.0244791	-0.3803280	0.6983845	-0.5083011	-0.4303610	0.6017113	-0.5213630	-0.5455098	0.7015394	-0.5263696	-0.5410763	0.3325105	-0.0700438	-0.5253208	0.2181522	-0.0591417	-0.5996488	0.2331585	-0.0667736	-0.5182559	0.3397608	-0.4638181	-0.5059283	0.2203160	-0.4827805	-0.5921311	0.2422651	-0.4598368	-0.5278541	0.8351525	-0.1688680	-0.4985700	0.8352050	-0.3845877	-0.5608986	1.1696103	0.0802625	-0.5011717	1.1487232	0.0008114	-0.3939499	1.0277180	0.2216353	-0.4344975	0.9677237	0.2025689	-0.5771864	1.1846900	-0.6064765	-0.5386617	1.1503441	-0.5371679	-0.4037507	1.0105223	-0.7092198	-0.4638084	0.9627900	-0.7026271
25	0.8000000	-0.5734900	1.4398699	-0.2627900	-0.5416300	1.4359199	-0.0890400	-0.5306000	1.2041599	0.0557500	-0.4292200	1.0226399	0.2209200	-0.5602300	1.4481599	-0.4403200	-0.5516200	1.2070699	-0.5934800	-0.4351000	1.0092099	-0.7090800	-0.4683900	0.8647099	-0.2696700	-0.4951100	0.8629699	-0.1476000	-0.5225200	0.4408899	-0.1466700	-0.5497900	0.0705899	-0.1445800	-0.4464700	0.8604999	-0.3854600	-0.4873500	0.4507699	-0.3781300	-0.5597700	0.0638199	-0.3913400	-0.3800000	0.0112699	-0.4187400	-0.4395700	0.0061399	-0.4677800	-0.5962700	0.0265199	-0.3600600	-0.4040400	0.0107999	-0.1325100	-0.4240400	0.0271499	-0.0774300	-0.5960100	0.0166599	-0.1573200	-0.4145687	0.9405420	-0.0778370	-0.3649960	0.9416442	-0.4355475	-0.6517492	0.9547704	-0.2201321	-0.6310678	0.9539025	-0.3610627	-0.5225042	0.4428562	-0.0628958	-0.4880974	0.4457299	-0.2194641	-0.5755481	0.0684975	-0.0964812	-0.5329027	0.0739868	-0.1939273	-0.4283388	0.0314854	-0.1223121	-0.4825544	0.0206046	-0.0631470	-0.6361628	0.0464435	-0.1662758	-0.4887602	0.4507354	-0.4637446	-0.4596259	0.4526472	-0.2991600	-0.5745970	0.0730551	-0.4337331	-0.5189403	0.0712046	-0.3319398	-0.4088022	0.0221528	-0.4233607	-0.6349610	0.0514727	-0.3524261	-0.4816212	0.0251617	-0.4842527	-0.5462161	1.4835654	-0.0774019	-0.5580086	1.5029546	-0.4370853	-0.6602259	1.4945598	-0.2640017	-0.4254876	0.6954980	-0.0274823	-0.4737954	0.5952576	-0.0124865	-0.5791346	0.6965647	-0.0241207	-0.3805248	0.6972100	-0.5089078	-0.4315326	0.6007764	-0.5218408	-0.5465001	0.7013455	-0.5269495	-0.5419196	0.3322685	-0.0700473	-0.5258756	0.2179832	-0.0592952	-0.6000766	0.2328467	-0.0666751	-0.5208775	0.3395222	-0.4638616	-0.5082462	0.2201293	-0.4830652	-0.5946232	0.2418000	-0.4596584	-0.5278540	0.8347583	-0.1687206	-0.4983296	0.8351174	-0.3848370	-0.5633378	1.1692388	0.0798963	-0.5038130	1.1483342	0.0006215	-0.3953575	1.0288702	0.2212408	-0.4349375	0.9686611	0.2018146	-0.5767432	1.1844726	-0.6069265	-0.5385712	1.1502408	-0.5367284	-0.3997074	1.0124363	-0.7075303	-0.4595192	0.9640853	-0.7015057
26	0.8333333	-0.5734000	1.4398699	-0.2627900	-0.5416700	1.4362799	-0.0890400	-0.5158500	1.2042399	0.0507100	-0.4293700	1.0181599	0.2211400	-0.5604500	1.4481899	-0.4402700	-0.5513200	1.2071399	-0.5933300	-0.4520600	1.0081099	-0.7082600	-0.4684100	0.8648199	-0.2696700	-0.4951500	0.8629699	-0.1476000	-0.5225300	0.4406899	-0.1466400	-0.5498300	0.0706399	-0.1445900	-0.4471900	0.8604999	-0.3853300	-0.4876500	0.4507099	-0.3781100	-0.5595400	0.0637299	-0.3913300	-0.3797700	0.0112399	-0.4187700	-0.4396100	0.0063599	-0.4677200	-0.5963400	0.0262099	-0.3599800	-0.4040100	0.0108299	-0.1325100	-0.4240100	0.0273599	-0.0774400	-0.5960500	0.0166799	-0.1573300	-0.4148967	0.9406886	-0.0774047	-0.3647944	0.9421395	-0.4355385	-0.6519617	0.9544571	-0.2199954	-0.6310573	0.9536947	-0.3610867	-0.5238067	0.4426601	-0.0625697	-0.4892308	0.4458135	-0.2194933	-0.5757660	0.0683364	-0.0962879	-0.5330786	0.0740343	-0.1938681	-0.4284633	0.0316006	-0.1221971	-0.4825696	0.0206196	-0.0629566	-0.6363370	0.0463338	-0.1661344	-0.4913047	0.4503367	-0.4635359	-0.4619942	0.4523641	-0.2982979	-0.5764610	0.0725854	-0.4334681	-0.5204000	0.0708154	-0.3314152	-0.4101033	0.0215828	-0.4232096	-0.6366490	0.0510737	-0.3518294	-0.4832440	0.0244424	-0.4842193	-0.5472475	1.4836589	-0.0772817	-0.5605296	1.5030230	-0.4367639	-0.6618199	1.4942161	-0.2635641	-0.4258072	0.6950095	-0.0269033	-0.4745337	0.5948164	-0.0119395	-0.5798775	0.6962632	-0.0237812	-0.3808791	0.6963250	-0.5094110	-0.4327852	0.6000835	-0.5221873	-0.5475374	0.7013686	-0.5274787	-0.5429856	0.3321720	-0.0698967	-0.5266299	0.2178705	-0.0591653	-0.6008183	0.2326143	-0.0664527	-0.5234711	0.3393257	-0.4636925	-0.5104968	0.2199447	-0.4831176	-0.5971166	0.2413256	-0.4592823	-0.5280157	0.8346558	-0.1686905	-0.4981764	0.8352143	-0.3850621	-0.5633803	1.1687531	0.0793074	-0.5044323	1.1478609	0.0005812	-0.3956258	1.0288128	0.2200556	-0.4346015	0.9684450	0.2006344	-0.5776542	1.1844106	-0.6065164	-0.5395521	1.1501347	-0.5367306	-0.4000878	1.0126436	-0.7071666	-0.4598039	0.9641406	-0.7010945
27	0.8666667	-0.5734100	1.4398599	-0.2627700	-0.5416000	1.4358799	-0.0890000	-0.5148300	1.2042299	0.0507000	-0.4293600	1.0183199	0.2211300	-0.5600800	1.4481799	-0.4403000	-0.5516700	1.2070899	-0.5934900	-0.4524900	1.0080299	-0.7082400	-0.4683900	0.8647099	-0.2696800	-0.4951500	0.8629599	-0.1476100	-0.5217700	0.4359699	-0.1462400	-0.5498100	0.0705799	-0.1445800	-0.4464500	0.8605199	-0.3854600	-0.4874100	0.4507699	-0.3781500	-0.5597700	0.0637899	-0.3913200	-0.3798600	0.0113399	-0.4187900	-0.4394700	0.0061799	-0.4678000	-0.5963300	0.0264799	-0.3600300	-0.4039200	0.0108199	-0.1324800	-0.4239600	0.0272099	-0.0774300	-0.5960700	0.0166299	-0.1573300	-0.4152499	0.9407340	-0.0769347	-0.3644968	0.9424178	-0.4355772	-0.6520554	0.9538651	-0.2199085	-0.6308831	0.9531730	-0.3611901	-0.5248807	0.4422102	-0.0622285	-0.4901943	0.4455953	-0.2194348	-0.5757457	0.0680930	-0.0960885	-0.5330733	0.0739618	-0.1937487	-0.4285344	0.0317447	-0.1221470	-0.4824695	0.0206805	-0.0628517	-0.6362102	0.0460427	-0.1659579	-0.4931061	0.4497805	-0.4634193	-0.4636715	0.4519143	-0.2975161	-0.5778085	0.0721019	-0.4332586	-0.5214093	0.0704133	-0.3309308	-0.4112237	0.0207897	-0.4229929	-0.6377893	0.0508146	-0.3513618	-0.4845909	0.0235688	-0.4841329	-0.5482438	1.4834389	-0.0770445	-0.5625963	1.5028527	-0.4363999	-0.6631183	1.4936042	-0.2631581	-0.4261043	0.6943380	-0.0264013	-0.4751561	0.5941791	-0.0114448	-0.5804790	0.6957663	-0.0234617	-0.3808544	0.6953668	-0.5099016	-0.4335155	0.5992811	-0.5225669	-0.5482356	0.7011135	-0.5280798	-0.5438432	0.3318681	-0.0697152	-0.5272096	0.2176060	-0.0590020	-0.6012735	0.2322378	-0.0662421	-0.5253918	0.3389738	-0.4635965	-0.5121660	0.2196313	-0.4832118	-0.5989601	0.2407865	-0.4590028	-0.5281674	0.8343344	-0.1686504	-0.4979380	0.8350248	-0.3853287	-0.5631366	1.1683220	0.0789297	-0.5045786	1.1474898	0.0007623	-0.3959753	1.0286347	0.2192729	-0.4344006	0.9683426	0.1997580	-0.5785556	1.1843198	-0.6065881	-0.5402627	1.1501997	-0.5364773	-0.4002823	1.0127486	-0.7069331	-0.4597799	0.9640535	-0.7006652
28	0.9000000	-0.5734500	1.4398699	-0.2627900	-0.5417200	1.4362899	-0.0890600	-0.5156100	1.2042299	0.0507000	-0.4294600	1.0181599	0.2211000	-0.5605200	1.4481899	-0.4402500	-0.5512800	1.2071599	-0.5933000	-0.4520200	1.0081199	-0.7082500	-0.4683700	0.8648199	-0.2696900	-0.4951400	0.8629699	-0.1476100	-0.5217700	0.4357799	-0.1462300	-0.5498900	0.0706299	-0.1446100	-0.4471300	0.8604999	-0.3853400	-0.4876500	0.4507299	-0.3781100	-0.5595500	0.0637199	-0.3913300	-0.3797700	0.0112399	-0.4187800	-0.4396200	0.0063599	-0.4677200	-0.5963400	0.0262099	-0.3599800	-0.4039400	0.0107999	-0.1325000	-0.4239800	0.0273399	-0.0774500	-0.5961800	0.0166499	-0.1573600	-0.4155601	0.9410060	-0.0765399	-0.3642488	0.9429000	-0.4355793	-0.6521043	0.9535225	-0.2198125	-0.6307004	0.9528970	-0.3612406	-0.5257703	0.4419372	-0.0620558	-0.4910070	0.4455726	-0.2194719	-0.5756818	0.0680455	-0.0961029	-0.5330578	0.0741043	-0.1938132	-0.4285000	0.0320780	-0.1223027	-0.4822878	0.0208824	-0.0629720	-0.6360719	0.0459688	-0.1659827	-0.4945931	0.4494642	-0.4632715	-0.4650644	0.4517011	-0.2968200	-0.5788723	0.0718788	-0.4330811	-0.5221682	0.0702773	-0.3305408	-0.4120924	0.0202358	-0.4228046	-0.6386374	0.0508341	-0.3510100	-0.4856646	0.0229639	-0.4840422	-0.5490443	1.4834538	-0.0769198	-0.5643928	1.5029624	-0.4360981	-0.6642339	1.4933187	-0.2628615	-0.4262843	0.6939078	-0.0260393	-0.4756282	0.5937534	-0.0111120	-0.5809719	0.6954624	-0.0232618	-0.3808051	0.6947763	-0.5103082	-0.4340993	0.5987934	-0.5228625	-0.5487996	0.7010536	-0.5285558	-0.5445462	0.3317493	-0.0697067	-0.5276706	0.2175406	-0.0590295	-0.6016059	0.2320349	-0.0662208	-0.5269982	0.3388425	-0.4634715	-0.5135528	0.2195593	-0.4832646	-0.6004784	0.2404843	-0.4587324	-0.5282886	0.8342430	-0.1686322	-0.4977241	0.8350534	-0.3855509	-0.5628445	1.1680267	0.0786071	-0.5048233	1.1472726	0.0009320	-0.3964255	1.0282939	0.2185615	-0.4343381	0.9680387	0.1989565	-0.5790464	1.1843306	-0.6064469	-0.5407509	1.1503605	-0.5362520	-0.4004365	1.0127193	-0.7064700	-0.4597832	0.9639574	-0.7000881
29	0.9333333	-0.5735400	1.4398599	-0.2627700	-0.5417000	1.4358999	-0.0890200	-0.5148300	1.2042199	0.0506200	-0.4300200	1.0231599	0.2209400	-0.5601600	1.4481399	-0.4402800	-0.5514900	1.2120099	-0.5931600	-0.4524300	1.0080699	-0.7082200	-0.4684100	0.8646999	-0.2696800	-0.4951700	0.8629399	-0.1476000	-0.5225500	0.4409199	-0.1466700	-0.5498500	0.0705699	-0.1446100	-0.4464400	0.8604799	-0.3854600	-0.4874000	0.4507499	-0.3781600	-0.5596400	0.0638299	-0.3913300	-0.3798000	0.0113399	-0.4187800	-0.4217700	0.0137599	-0.4701700	-0.5961900	0.0265299	-0.3600300	-0.4038600	0.0108099	-0.1325000	-0.4239300	0.0271599	-0.0774600	-0.5962400	0.0166099	-0.1573700	-0.4160483	0.9411446	-0.0760976	-0.3638755	0.9430875	-0.4355280	-0.6523192	0.9529198	-0.2200022	-0.6305619	0.9522952	-0.3615687	-0.5267015	0.4415600	-0.0617750	-0.4918710	0.4454132	-0.2194698	-0.5757823	0.0678869	-0.0961353	-0.5331948	0.0741181	-0.1939575	-0.4286138	0.0324598	-0.1224167	-0.4822694	0.0211254	-0.0630712	-0.6360551	0.0456585	-0.1661340	-0.4954272	0.4490571	-0.4631643	-0.4660591	0.4514939	-0.2959852	-0.5786063	0.0713504	-0.4330223	-0.5217841	0.0699518	-0.3300772	-0.4112469	0.0200850	-0.4224204	-0.6383794	0.0502105	-0.3508467	-0.4849494	0.0226393	-0.4839667	-0.5498087	1.4832873	-0.0767737	-0.5656715	1.5029589	-0.4359016	-0.6651871	1.4930367	-0.2627721	-0.4265484	0.6934085	-0.0256390	-0.4761649	0.5932488	-0.0106960	-0.5815932	0.6950072	-0.0229766	-0.3803250	0.6942145	-0.5106061	-0.4341165	0.5982574	-0.5231492	-0.5489576	0.7006326	-0.5292235	-0.5453242	0.3315024	-0.0695904	-0.5282176	0.2173512	-0.0589657	-0.6020652	0.2317312	-0.0661487	-0.5277240	0.3385482	-0.4634163	-0.5137893	0.2193223	-0.4833394	-0.6009690	0.2398665	-0.4586878	-0.5285799	0.8339604	-0.1686238	-0.4974954	0.8347944	-0.3857803	-0.5626558	1.1678125	0.0786157	-0.5049537	1.1472320	0.0012415	-0.3966808	1.0283832	0.2184899	-0.4339612	0.9679068	0.1986900	-0.5793653	1.1844358	-0.6065774	-0.5411197	1.1505926	-0.5362964	-0.4007482	1.0125153	-0.7062718	-0.4600195	0.9637587	-0.6998324
30	0.9666667	-0.5735400	1.4398599	-0.2627700	-0.5418200	1.4362999	-0.0890700	-0.5157000	1.2042199	0.0506200	-0.4295300	1.0180799	0.2211000	-0.5605100	1.4481799	-0.4402100	-0.5511400	1.2120799	-0.5929600	-0.4520600	1.0081299	-0.7082700	-0.4683400	0.8648099	-0.2696800	-0.4951100	0.8629499	-0.1476200	-0.5225200	0.4407499	-0.1466200	-0.5498900	0.0706299	-0.1446100	-0.4470900	0.8604799	-0.3853200	-0.4876900	0.4506399	-0.3781200	-0.5594200	0.0637599	-0.3913300	-0.3797800	0.0112199	-0.4187700	-0.4396000	0.0063499	-0.4677200	-0.5961300	0.0262499	-0.3599900	-0.4039900	0.0107199	-0.1324600	-0.4240900	0.0272699	-0.0774100	-0.5962500	0.0166599	-0.1573700	-0.4162738	0.9413687	-0.0756408	-0.3634617	0.9435025	-0.4356311	-0.6524539	0.9527559	-0.2199535	-0.6304440	0.9522024	-0.3617282	-0.5272183	0.4414689	-0.0615484	-0.4923806	0.4455589	-0.2195761	-0.5756299	0.0680139	-0.0961386	-0.5331165	0.0744169	-0.1941534	-0.4286172	0.0327619	-0.1226636	-0.4821132	0.0214102	-0.0631754	-0.6358485	0.0458695	-0.1661804	-0.4961529	0.4489155	-0.4631500	-0.4668037	0.4513952	-0.2956062	-0.5789186	0.0712540	-0.4329794	-0.5219195	0.0699077	-0.3299357	-0.4113521	0.0198825	-0.4224424	-0.6386186	0.0502311	-0.3506654	-0.4851916	0.0223651	-0.4839618	-0.5502213	1.4831841	-0.0766690	-0.5668145	1.5029425	-0.4358640	-0.6658683	1.4928070	-0.2626831	-0.4265674	0.6931555	-0.0253382	-0.4763829	0.5930064	-0.0103506	-0.5819139	0.6947892	-0.0225812	-0.3800456	0.6938515	-0.5109798	-0.4342385	0.5979867	-0.5234453	-0.5491297	0.7006750	-0.5296367	-0.5457244	0.3315481	-0.0695152	-0.5284367	0.2174260	-0.0589582	-0.6021888	0.2317201	-0.0660306	-0.5285078	0.3385750	-0.4634018	-0.5143624	0.2194196	-0.4834669	-0.6016428	0.2397111	-0.4585445	-0.5287169	0.8339051	-0.1685389	-0.4972473	0.8348524	-0.3860334	-0.5622741	1.1676223	0.0784262	-0.5050619	1.1471734	0.0014231	-0.3968215	1.0280358	0.2181297	-0.4337233	0.9674928	0.1981714	-0.5794671	1.1847429	-0.6066797	-0.5413123	1.1509868	-0.5362562	-0.4009238	1.0123016	-0.7059988	-0.4602241	0.9636025	-0.6995161
31	1.0000000	-0.5735800	1.4398799	-0.2628000	-0.5427700	1.4407399	-0.0894500	-0.5148300	1.2042199	0.0505800	-0.4295000	1.0182999	0.2210700	-0.5601600	1.4481399	-0.4402600	-0.5695700	1.2120799	-0.5915300	-0.4525000	1.0080299	-0.7082500	-0.4683000	0.8647399	-0.2696800	-0.4950600	0.8629699	-0.1476100	-0.5225000	0.4409599	-0.1466600	-0.5498700	0.0705399	-0.1446000	-0.4463500	0.8605599	-0.3854300	-0.4874400	0.4507399	-0.3781600	-0.5596400	0.0638399	-0.3913400	-0.3798200	0.0113299	-0.4187900	-0.4394000	0.0061699	-0.4678000	-0.5961400	0.0264999	-0.3600400	-0.4039500	0.0107399	-0.1324700	-0.4240400	0.0271099	-0.0774100	-0.5962600	0.0165799	-0.1573600	-0.4166352	0.9414449	-0.0753056	-0.3631166	0.9436578	-0.4356285	-0.6524797	0.9524491	-0.2200064	-0.6301847	0.9519246	-0.3619078	-0.5277880	0.4412832	-0.0614171	-0.4928264	0.4455272	-0.2196073	-0.5757977	0.0678964	-0.0961642	-0.5333015	0.0744191	-0.1942164	-0.4287131	0.0328128	-0.1228583	-0.4821626	0.0213737	-0.0633432	-0.6359921	0.0457458	-0.1661893	-0.4966784	0.4486314	-0.4632641	-0.4673110	0.4512030	-0.2952310	-0.5792597	0.0710081	-0.4329715	-0.5220387	0.0697350	-0.3296982	-0.4116322	0.0193978	-0.4222667	-0.6387895	0.0501745	-0.3505544	-0.4855892	0.0218544	-0.4839207	-0.5505283	1.4831646	-0.0765883	-0.5676669	1.5028771	-0.4357859	-0.6663457	1.4925865	-0.2626446	-0.4266799	0.6928082	-0.0250674	-0.4767019	0.5926866	-0.0100970	-0.5823438	0.6945104	-0.0224190	-0.3797176	0.6934645	-0.5113893	-0.4342640	0.5976254	-0.5238341	-0.5492220	0.7004545	-0.5301477	-0.5462198	0.3314434	-0.0695190	-0.5288384	0.2173287	-0.0589904	-0.6025063	0.2315451	-0.0659964	-0.5291619	0.3383992	-0.4635084	-0.5148840	0.2192943	-0.4836560	-0.6022681	0.2393922	-0.4585362	-0.5288634	0.8337213	-0.1685185	-0.4969653	0.8347109	-0.3862163	-0.5619163	1.1672570	0.0782100	-0.5053825	1.1468025	0.0015441	-0.3966843	1.0273670	0.2176703	-0.4333888	0.9667840	0.1977565	-0.5814180	1.1848991	-0.6067810	-0.5435550	1.1509956	-0.5359767	-0.4022133	1.0122057	-0.7052708	-0.4615863	0.9634117	-0.6988794
32	1.0333333	-0.5735700	1.4398599	-0.2628000	-0.5418500	1.4362899	-0.0891000	-0.5158000	1.2042199	0.0505900	-0.4300200	1.0229199	0.2209300	-0.5605500	1.4481699	-0.4402200	-0.5692200	1.2121499	-0.5913500	-0.4521000	1.0081299	-0.7082300	-0.4683200	0.8648399	-0.2696800	-0.4950900	0.8629799	-0.1476200	-0.5224000	0.4407999	-0.1466000	-0.5499000	0.0706099	-0.1446200	-0.4470600	0.8605199	-0.3853100	-0.4876600	0.4506999	-0.3781100	-0.5594600	0.0637499	-0.3913600	-0.3798300	0.0111899	-0.4187900	-0.4396300	0.0063299	-0.4677300	-0.5961300	0.0262299	-0.3600000	-0.4039200	0.0107699	-0.1324700	-0.4240100	0.0272999	-0.0774100	-0.5963400	0.0166099	-0.1573900	-0.4169877	0.9416994	-0.0749793	-0.3628114	0.9439385	-0.4356436	-0.6526162	0.9523406	-0.2200809	-0.6300577	0.9518197	-0.3621101	-0.5281901	0.4413144	-0.0612654	-0.4932045	0.4456905	-0.2196853	-0.5758581	0.0679850	-0.0961396	-0.5334225	0.0745949	-0.1943019	-0.4288797	0.0330292	-0.1230196	-0.4822024	0.0215287	-0.0634255	-0.6360209	0.0458377	-0.1661842	-0.4970768	0.4485166	-0.4632899	-0.4676890	0.4511533	-0.2949447	-0.5795777	0.0709616	-0.4328996	-0.5221721	0.0697639	-0.3295264	-0.4119257	0.0191257	-0.4222023	-0.6389767	0.0503295	-0.3503897	-0.4859882	0.0215719	-0.4838746	-0.5508206	1.4832576	-0.0765381	-0.5684772	1.5030655	-0.4356811	-0.6667788	1.4926093	-0.2625839	-0.4267910	0.6927282	-0.0248392	-0.4769338	0.5926173	-0.0098494	-0.5826781	0.6944414	-0.0221824	-0.3794770	0.6932503	-0.5117191	-0.4342813	0.5974450	-0.5241047	-0.5493286	0.7004204	-0.5304830	-0.5465608	0.3315271	-0.0694751	-0.5290835	0.2173900	-0.0589683	-0.6026930	0.2316077	-0.0659226	-0.5296834	0.3383916	-0.4635104	-0.5153209	0.2193444	-0.4837445	-0.6027762	0.2392748	-0.4584359	-0.5290790	0.8337263	-0.1684935	-0.4967839	0.8347308	-0.3863986	-0.5618802	1.1675322	0.0783945	-0.5058862	1.1470085	0.0018775	-0.3964609	1.0277382	0.2179618	-0.4329331	0.9669429	0.1980388	-0.5830512	1.1852791	-0.6071259	-0.5457771	1.1511807	-0.5359672	-0.4031230	1.0124517	-0.7044772	-0.4625926	0.9635947	-0.6983957
33	1.0666667	-0.5736100	1.4398699	-0.2628000	-0.5418200	1.4359299	-0.0890800	-0.5149900	1.2042199	0.0505800	-0.4300100	1.0231399	0.2209100	-0.5601600	1.4481499	-0.4402700	-0.5696000	1.2120799	-0.5915400	-0.4525100	1.0080399	-0.7082200	-0.4683000	0.8647499	-0.2696700	-0.4950700	0.8629899	-0.1476000	-0.5224100	0.4410199	-0.1466200	-0.5499000	0.0705399	-0.1446100	-0.4461300	0.8557399	-0.3855100	-0.4874400	0.4507899	-0.3781500	-0.5596400	0.0638399	-0.3913500	-0.3799000	0.0112799	-0.4188100	-0.4394400	0.0061199	-0.4678200	-0.5961200	0.0265099	-0.3600400	-0.4039600	0.0107499	-0.1324600	-0.4240600	0.0271199	-0.0774100	-0.5963400	0.0165799	-0.1574000	-0.4172976	0.9418512	-0.0746696	-0.3624964	0.9439285	-0.4357098	-0.6526931	0.9520689	-0.2201555	-0.6298834	0.9514833	-0.3623286	-0.5284899	0.4411771	-0.0611456	-0.4934511	0.4456288	-0.2197354	-0.5759402	0.0679418	-0.0961217	-0.5335458	0.0746072	-0.1943544	-0.4289951	0.0330560	-0.1231829	-0.4822353	0.0215072	-0.0635377	-0.6360867	0.0457852	-0.1661711	-0.4972663	0.4482620	-0.4633619	-0.4678313	0.4509747	-0.2946766	-0.5798367	0.0707922	-0.4329020	-0.5222316	0.0696566	-0.3293875	-0.4122663	0.0186381	-0.4221217	-0.6390701	0.0503932	-0.3503220	-0.4864276	0.0211050	-0.4838630	-0.5509249	1.4831340	-0.0763437	-0.5689519	1.5031063	-0.4355585	-0.6669930	1.4924596	-0.2624645	-0.4268502	0.6925079	-0.0246173	-0.4771020	0.5924105	-0.0096300	-0.5829580	0.6942737	-0.0219742	-0.3791657	0.6928874	-0.5120766	-0.4341844	0.5971113	-0.5244175	-0.5493488	0.7001518	-0.5308438	-0.5468272	0.3314626	-0.0694442	-0.5292975	0.2173444	-0.0589512	-0.6028412	0.2315166	-0.0658605	-0.5300396	0.3382191	-0.4635867	-0.5156476	0.2192111	-0.4839122	-0.6031635	0.2390420	-0.4584103	-0.5292379	0.8336031	-0.1684270	-0.4965643	0.8345081	-0.3865616	-0.5616245	1.1678199	0.0785517	-0.5062754	1.1471521	0.0021806	-0.3961444	1.0281255	0.2184050	-0.4323835	0.9670923	0.1985040	-0.5846065	1.1855601	-0.6075202	-0.5479255	1.1511751	-0.5360768	-0.4040577	1.0125229	-0.7038874	-0.4636823	0.9636363	-0.6981419
34	1.1000000	-0.5736000	1.4398599	-0.2628000	-0.5419100	1.4362899	-0.0891000	-0.5159200	1.2042299	0.0506000	-0.4300100	1.0229499	0.2209200	-0.5605300	1.4481799	-0.4402200	-0.5691400	1.2121099	-0.5913300	-0.4521400	1.0080799	-0.7082700	-0.4682800	0.8648399	-0.2696800	-0.4951100	0.8629799	-0.1476200	-0.5224500	0.4408299	-0.1465800	-0.5498900	0.0706499	-0.1446300	-0.4469900	0.8605199	-0.3853000	-0.4875700	0.4507299	-0.3781000	-0.5401600	0.0713499	-0.3943600	-0.3798300	0.0111899	-0.4188400	-0.4220200	0.0139499	-0.4701300	-0.5960900	0.0262399	-0.3600000	-0.4039400	0.0107799	-0.1324500	-0.4240400	0.0273199	-0.0774000	-0.5963000	0.0166399	-0.1574100	-0.4178002	0.9420575	-0.0744753	-0.3620920	0.9442761	-0.4356252	-0.6527502	0.9519644	-0.2204292	-0.6295692	0.9514221	-0.3626407	-0.5289431	0.4413118	-0.0610995	-0.4937551	0.4458928	-0.2198759	-0.5760674	0.0682195	-0.0961303	-0.5336141	0.0749878	-0.1943986	-0.4291387	0.0336911	-0.1231686	-0.4823449	0.0220898	-0.0635104	-0.6360873	0.0460061	-0.1662906	-0.4965982	0.4483022	-0.4634568	-0.4675329	0.4511519	-0.2942784	-0.5776086	0.0709477	-0.4329954	-0.5201146	0.0699793	-0.3291569	-0.4101913	0.0192495	-0.4218458	-0.6367443	0.0505031	-0.3504014	-0.4841665	0.0216754	-0.4838093	-0.5508511	1.4829808	-0.0763619	-0.5690313	1.5031609	-0.4353473	-0.6668367	1.4924940	-0.2624323	-0.4270123	0.6924599	-0.0243290	-0.4774049	0.5924006	-0.0093951	-0.5834082	0.6941982	-0.0218961	-0.3781954	0.6931647	-0.5120929	-0.4332651	0.5972655	-0.5245695	-0.5487138	0.7000280	-0.5313812	-0.5472686	0.3317042	-0.0694607	-0.5296455	0.2176220	-0.0588843	-0.6031228	0.2317136	-0.0659177	-0.5290320	0.3383826	-0.4636891	-0.5140382	0.2195465	-0.4840144	-0.6017371	0.2389717	-0.4586201	-0.5294547	0.8335585	-0.1684828	-0.4962312	0.8345469	-0.3866874	-0.5613967	1.1683278	0.0786336	-0.5066727	1.1474799	0.0024061	-0.3959209	1.0287166	0.2188532	-0.4319670	0.9675188	0.1989397	-0.5857847	1.1859436	-0.6079509	-0.5496775	1.1512955	-0.5361497	-0.4046681	1.0126986	-0.7033437	-0.4644103	0.9637802	-0.6979553
35	1.1333333	-0.5735900	1.4398599	-0.2627900	-0.5427400	1.4407299	-0.0894100	-0.5149800	1.2041699	0.0506100	-0.4294100	1.0182899	0.2210600	-0.5602100	1.4481199	-0.4403000	-0.5697000	1.2120799	-0.5916000	-0.4524700	1.0079799	-0.7082000	-0.4682600	0.8647799	-0.2696500	-0.4950800	0.8629999	-0.1475900	-0.5223700	0.4410699	-0.1466000	-0.5498600	0.0705799	-0.1446200	-0.4462500	0.8605999	-0.3853700	-0.4874400	0.4507499	-0.3781800	-0.5596100	0.0638599	-0.3913900	-0.3794900	0.0172099	-0.4181200	-0.4208900	0.0198099	-0.4693000	-0.5961300	0.0264799	-0.3600600	-0.4039500	0.0107599	-0.1324500	-0.4240500	0.0271299	-0.0774100	-0.5962900	0.0166199	-0.1574100	-0.4180727	0.9420577	-0.0738892	-0.3615341	0.9443643	-0.4357507	-0.6530418	0.9517313	-0.2205226	-0.6295296	0.9512224	-0.3630060	-0.5289926	0.4412322	-0.0607181	-0.4938189	0.4457659	-0.2198239	-0.5759488	0.0681747	-0.0959500	-0.5336109	0.0749190	-0.1944121	-0.4290195	0.0338572	-0.1231031	-0.4821612	0.0223683	-0.0633965	-0.6360291	0.0458353	-0.1661857	-0.4962898	0.4481476	-0.4634983	-0.4675938	0.4512442	-0.2939367	-0.5767848	0.0709379	-0.4330844	-0.5193979	0.0701659	-0.3290763	-0.4089501	0.0201450	-0.4216805	-0.6360892	0.0501732	-0.3505201	-0.4829276	0.0223630	-0.4837833	-0.5511216	1.4830183	-0.0760615	-0.5692616	1.5032142	-0.4354311	-0.6671749	1.4925118	-0.2624766	-0.4270406	0.6924796	-0.0240184	-0.4774534	0.5923766	-0.0089759	-0.5836411	0.6940907	-0.0213914	-0.3775156	0.6929405	-0.5122211	-0.4326728	0.5970231	-0.5247443	-0.5482707	0.6997366	-0.5319049	-0.5472795	0.3316547	-0.0691980	-0.5295923	0.2175807	-0.0586998	-0.6030452	0.2316815	-0.0656002	-0.5286959	0.3383106	-0.4637593	-0.5134494	0.2195202	-0.4841427	-0.6012215	0.2388155	-0.4587182	-0.5297470	0.8334155	-0.1683397	-0.4960228	0.8344587	-0.3869787	-0.5608633	1.1685699	0.0785346	-0.5069563	1.1474732	0.0024983	-0.3956720	1.0284545	0.2188717	-0.4317706	0.9673455	0.1989614	-0.5868169	1.1860904	-0.6082684	-0.5512199	1.1512212	-0.5360794	-0.4052840	1.0125151	-0.7027654	-0.4651020	0.9635543	-0.6976898
36	1.1666667	-0.5735900	1.4398699	-0.2627900	-0.5428000	1.4410899	-0.0894400	-0.5158600	1.2041599	0.0506300	-0.4294100	1.0180899	0.2210600	-0.5606300	1.4481799	-0.4402400	-0.5692200	1.2121399	-0.5913600	-0.4520900	1.0080999	-0.7082200	-0.4682600	0.8648499	-0.2696400	-0.4951300	0.8629799	-0.1475900	-0.5224700	0.4407599	-0.1466000	-0.5498400	0.0706399	-0.1446200	-0.4466700	0.8557099	-0.3853500	-0.4877400	0.4506599	-0.3781600	-0.5594200	0.0637699	-0.3913600	-0.3793600	0.0171199	-0.4180800	-0.4220500	0.0139599	-0.4701300	-0.5960700	0.0262199	-0.3599900	-0.4039600	0.0107599	-0.1324600	-0.4240500	0.0272899	-0.0774100	-0.5962300	0.0166599	-0.1573800	-0.4184324	0.9422474	-0.0736626	-0.3612894	0.9445062	-0.4358028	-0.6532250	0.9516793	-0.2206687	-0.6294672	0.9511520	-0.3632574	-0.5290724	0.4412913	-0.0605703	-0.4939458	0.4459209	-0.2198771	-0.5759681	0.0683272	-0.0959296	-0.5337312	0.0751442	-0.1945290	-0.4289301	0.0341965	-0.1231994	-0.4820778	0.0228313	-0.0634452	-0.6361287	0.0459919	-0.1661963	-0.4962913	0.4480438	-0.4635242	-0.4679278	0.4513040	-0.2936796	-0.5760887	0.0709597	-0.4331809	-0.5188568	0.0703455	-0.3289964	-0.4078503	0.0210076	-0.4215500	-0.6355900	0.0498948	-0.3506624	-0.4818149	0.0230328	-0.4837824	-0.5511641	1.4830379	-0.0759309	-0.5694867	1.5032790	-0.4354226	-0.6673294	1.4926162	-0.2624896	-0.4269810	0.6925555	-0.0238638	-0.4774498	0.5924203	-0.0087746	-0.5837619	0.6940561	-0.0211425	-0.3770678	0.6928772	-0.5122663	-0.4323426	0.5969074	-0.5248504	-0.5479252	0.6995710	-0.5322420	-0.5473517	0.3317626	-0.0691219	-0.5296381	0.2176990	-0.0586958	-0.6030588	0.2317888	-0.0654491	-0.5285627	0.3382914	-0.4637964	-0.5130275	0.2196133	-0.4841875	-0.6008790	0.2386586	-0.4588477	-0.5299056	0.8334540	-0.1682863	-0.4958146	0.8344651	-0.3870989	-0.5604467	1.1689485	0.0784549	-0.5072955	1.1476166	0.0025724	-0.3955750	1.0281870	0.2188350	-0.4317935	0.9672345	0.1988707	-0.5875318	1.1863445	-0.6086347	-0.5524375	1.1512932	-0.5359821	-0.4055889	1.0124434	-0.7022104	-0.4654445	0.9633905	-0.6974524
37	1.2000000	-0.5735600	1.4398799	-0.2628100	-0.5426600	1.4407099	-0.0894400	-0.5148600	1.2041299	0.0505800	-0.4293700	1.0183299	0.2210500	-0.5601500	1.4481599	-0.4403200	-0.5696700	1.2120499	-0.5915400	-0.4524600	1.0079899	-0.7082000	-0.4682000	0.8647499	-0.2696500	-0.4950100	0.8629799	-0.1475900	-0.5223300	0.4409699	-0.1466500	-0.5498800	0.0704999	-0.1446000	-0.4462200	0.8605599	-0.3853600	-0.4876300	0.4507399	-0.3781900	-0.5596900	0.0638299	-0.3913500	-0.3793100	0.0172499	-0.4181400	-0.4207700	0.0198799	-0.4693200	-0.5962000	0.0264199	-0.3600200	-0.4041000	0.0107399	-0.1324200	-0.4240700	0.0270099	-0.0773900	-0.5961500	0.0164599	-0.1573900	-0.4187345	0.9422387	-0.0733265	-0.3608855	0.9445242	-0.4358749	-0.6533732	0.9514738	-0.2208501	-0.6293288	0.9509519	-0.3635938	-0.5290206	0.4411881	-0.0603055	-0.4939332	0.4458350	-0.2198953	-0.5759168	0.0682113	-0.0958289	-0.5337805	0.0750441	-0.1946004	-0.4288313	0.0342942	-0.1231782	-0.4819513	0.0230920	-0.0633655	-0.6361538	0.0458254	-0.1661845	-0.4960323	0.4477412	-0.4635843	-0.4680889	0.4511746	-0.2934472	-0.5755629	0.0708653	-0.4331341	-0.5185603	0.0703904	-0.3287904	-0.4068957	0.0219821	-0.4213571	-0.6353678	0.0494050	-0.3506278	-0.4808396	0.0237806	-0.4836865	-0.5513522	1.4830638	-0.0759013	-0.5696768	1.5031608	-0.4354858	-0.6674698	1.4925876	-0.2626172	-0.4268902	0.6924915	-0.0236205	-0.4773823	0.5923278	-0.0084549	-0.5838417	0.6938895	-0.0207967	-0.3764272	0.6926410	-0.5122670	-0.4317775	0.5966090	-0.5249411	-0.5473864	0.6992349	-0.5326704	-0.5473059	0.3316533	-0.0689371	-0.5295717	0.2175518	-0.0585755	-0.6029836	0.2317196	-0.0652144	-0.5282846	0.3380658	-0.4638070	-0.5125925	0.2194618	-0.4841419	-0.6004746	0.2383991	-0.4589230	-0.5300568	0.8332951	-0.1682462	-0.4955381	0.8343203	-0.3873106	-0.5599238	1.1691629	0.0783847	-0.5075537	1.1476044	0.0026478	-0.3954537	1.0276774	0.2187525	-0.4317961	0.9668664	0.1987334	-0.5880258	1.1864203	-0.6089851	-0.5534550	1.1511955	-0.5359479	-0.4057705	1.0121656	-0.7017096	-0.4656685	0.9630149	-0.6972611
38	1.2333333	-0.5736000	1.4398799	-0.2628200	-0.5428100	1.4410899	-0.0894900	-0.5157700	1.2041599	0.0505800	-0.4293200	1.0181099	0.2210600	-0.5605600	1.4481899	-0.4402700	-0.5517200	1.2121399	-0.5830300	-0.4521500	1.0080499	-0.7082600	-0.4682100	0.8647899	-0.2696500	-0.4950600	0.8629299	-0.1476000	-0.5223500	0.4406999	-0.1466300	-0.5498700	0.0705699	-0.1446000	-0.4466300	0.8556599	-0.3853600	-0.4878500	0.4506599	-0.3781500	-0.5595300	0.0636999	-0.3913400	-0.3791300	0.0171599	-0.4180900	-0.4219500	0.0140699	-0.4701600	-0.5962000	0.0261599	-0.3599800	-0.4040600	0.0107199	-0.1324200	-0.4240500	0.0271799	-0.0773800	-0.5962000	0.0164699	-0.1573700	-0.4189506	0.9423849	-0.0730493	-0.3606754	0.9445911	-0.4360039	-0.6535961	0.9514667	-0.2209560	-0.6293779	0.9509153	-0.3638576	-0.5290616	0.4411760	-0.0601393	-0.4940066	0.4458215	-0.2199486	-0.5760506	0.0682409	-0.0957675	-0.5339920	0.0750667	-0.1946926	-0.4288659	0.0342920	-0.1233009	-0.4820093	0.0233099	-0.0634066	-0.6363659	0.0458990	-0.1661304	-0.4960534	0.4476824	-0.4636904	-0.4684070	0.4512338	-0.2933155	-0.5755393	0.0708629	-0.4332483	-0.5186833	0.0704828	-0.3287747	-0.4064701	0.0225152	-0.4213376	-0.6355909	0.0492038	-0.3507539	-0.4804368	0.0241409	-0.4837657	-0.5514303	1.4831851	-0.0757706	-0.5699115	1.5032216	-0.4355636	-0.6676887	1.4926757	-0.2626827	-0.4268409	0.6925190	-0.0234448	-0.4773747	0.5923360	-0.0082346	-0.5839431	0.6939084	-0.0205099	-0.3760825	0.6925098	-0.5124314	-0.4315227	0.5964774	-0.5251398	-0.5471313	0.6991227	-0.5330199	-0.5473737	0.3316818	-0.0688305	-0.5296612	0.2175863	-0.0585288	-0.6030435	0.2317559	-0.0650247	-0.5283426	0.3380527	-0.4639058	-0.5125754	0.2194856	-0.4842502	-0.6004933	0.2383221	-0.4590655	-0.5302042	0.8333289	-0.1681625	-0.4954273	0.8343045	-0.3874763	-0.5595888	1.1695433	0.0784167	-0.5076790	1.1479198	0.0028297	-0.3954773	1.0275099	0.2188002	-0.4317820	0.9667095	0.1985797	-0.5865953	1.1863580	-0.6085306	-0.5523877	1.1512950	-0.5354163	-0.4051263	1.0117174	-0.7010937	-0.4649925	0.9625790	-0.6968084
39	1.2666667	-0.5735800	1.4398799	-0.2628200	-0.5427400	1.4407299	-0.0894600	-0.5149700	1.2041699	0.0505300	-0.4293300	1.0183199	0.2210500	-0.5601600	1.4481699	-0.4403200	-0.5696600	1.2120599	-0.5915500	-0.4523900	1.0034099	-0.7083800	-0.4681400	0.8646999	-0.2696400	-0.4949900	0.8629299	-0.1475900	-0.5216500	0.4359899	-0.1462700	-0.5498600	0.0704999	-0.1445900	-0.4459500	0.8557099	-0.3854500	-0.4875200	0.4507399	-0.3781600	-0.5596400	0.0638299	-0.3913500	-0.3790800	0.0172899	-0.4181200	-0.4216800	0.0138899	-0.4702500	-0.5961700	0.0264299	-0.3600100	-0.4041100	0.0106899	-0.1324200	-0.4255800	0.0202499	-0.0779900	-0.5961200	0.0164799	-0.1573900	-0.4191650	0.9424802	-0.0728135	-0.3604315	0.9445445	-0.4360707	-0.6537079	0.9513073	-0.2210761	-0.6293010	0.9506974	-0.3640927	-0.5290535	0.4410178	-0.0600263	-0.4938760	0.4456538	-0.2200101	-0.5762380	0.0679395	-0.0956258	-0.5341224	0.0747536	-0.1946486	-0.4290031	0.0337756	-0.1232798	-0.4821920	0.0229872	-0.0633297	-0.6365253	0.0457242	-0.1660209	-0.4959105	0.4472692	-0.4637589	-0.4685625	0.4508830	-0.2932390	-0.5755421	0.0707157	-0.4333064	-0.5188492	0.0703693	-0.3287505	-0.4061707	0.0227017	-0.4213693	-0.6358283	0.0489717	-0.3508292	-0.4801524	0.0242782	-0.4838454	-0.5515666	1.4832181	-0.0757943	-0.5701785	1.5031556	-0.4356065	-0.6678281	1.4926348	-0.2627960	-0.4267823	0.6924280	-0.0231860	-0.4773674	0.5922142	-0.0079965	-0.5840748	0.6937856	-0.0203200	-0.3756749	0.6921921	-0.5124677	-0.4311576	0.5961061	-0.5252269	-0.5467233	0.6988161	-0.5332647	-0.5474347	0.3314826	-0.0687210	-0.5297754	0.2173213	-0.0583763	-0.6031514	0.2315569	-0.0648884	-0.5282894	0.3377241	-0.4639556	-0.5125326	0.2192289	-0.4842735	-0.6004192	0.2380525	-0.4591705	-0.5302517	0.8332267	-0.1681011	-0.4951971	0.8341156	-0.3876010	-0.5593248	1.1694023	0.0781466	-0.5081120	1.1476822	0.0027611	-0.3957098	1.0266724	0.2183500	-0.4320417	0.9659177	0.1980211	-0.5868356	1.1862205	-0.6085928	-0.5529597	1.1511040	-0.5350424	-0.4053831	1.0107196	-0.7007129	-0.4654421	0.9614673	-0.6964769
40	1.3000000	-0.5735700	1.4398599	-0.2628200	-0.5418500	1.4362899	-0.0891200	-0.5154900	1.2041599	0.0505900	-0.4291300	1.0181199	0.2210800	-0.5605100	1.4481599	-0.4402700	-0.5517000	1.2121399	-0.5830500	-0.4520500	1.0034799	-0.7084300	-0.4681100	0.8647799	-0.2696300	-0.4950000	0.8629399	-0.1475900	-0.5216200	0.4357399	-0.1462400	-0.5498300	0.0705399	-0.1445900	-0.4465100	0.8556699	-0.3853200	-0.4877900	0.4506299	-0.3781200	-0.5594900	0.0637099	-0.3913200	-0.3796900	0.0113099	-0.4189000	-0.4219100	0.0140699	-0.4701500	-0.5962000	0.0261899	-0.3599700	-0.4040200	0.0107599	-0.1323900	-0.4255000	0.0204799	-0.0779700	-0.5960900	0.0164599	-0.1573600	-0.4193236	0.9427509	-0.0726268	-0.3603404	0.9446352	-0.4361410	-0.6538288	0.9512915	-0.2211545	-0.6293174	0.9506067	-0.3642723	-0.5291158	0.4408921	-0.0599692	-0.4938281	0.4455329	-0.2200685	-0.5764035	0.0678291	-0.0955745	-0.5342154	0.0746295	-0.1946661	-0.4291735	0.0333446	-0.1233987	-0.4824091	0.0227156	-0.0633859	-0.6366294	0.0457927	-0.1659644	-0.4958857	0.4471448	-0.4637928	-0.4687360	0.4507757	-0.2931788	-0.5757712	0.0707135	-0.4333644	-0.5191753	0.0703793	-0.3287543	-0.4061891	0.0225305	-0.4214146	-0.6362359	0.0490968	-0.3508824	-0.4801969	0.0241704	-0.4839407	-0.5516066	1.4832329	-0.0757519	-0.5704899	1.5032870	-0.4355395	-0.6679352	1.4926820	-0.2627686	-0.4267571	0.6923839	-0.0230255	-0.4774028	0.5921353	-0.0078568	-0.5842026	0.6938057	-0.0201930	-0.3754155	0.6920198	-0.5125699	-0.4309419	0.5959484	-0.5253276	-0.5464993	0.6987631	-0.5334196	-0.5475516	0.3313833	-0.0686700	-0.5299239	0.2172077	-0.0582979	-0.6032880	0.2314721	-0.0648390	-0.5283687	0.3376586	-0.4639926	-0.5126553	0.2191972	-0.4843294	-0.6005443	0.2380152	-0.4592407	-0.5302729	0.8333081	-0.1680410	-0.4950685	0.8340892	-0.3876978	-0.5591239	1.1696312	0.0782206	-0.5083044	1.1478669	0.0029549	-0.3956380	1.0264220	0.2183232	-0.4319492	0.9655806	0.1977697	-0.5850948	1.1859484	-0.6081348	-0.5516518	1.1511152	-0.5345962	-0.4047248	1.0097317	-0.7000280	-0.4648479	0.9605303	-0.6958974
41	1.3333333	-0.5735100	1.4398499	-0.2628200	-0.5427200	1.4407099	-0.0894600	-0.5145800	1.2041599	0.0505600	-0.4291700	1.0183199	0.2210700	-0.5600000	1.4481099	-0.4403400	-0.5343500	1.2119899	-0.5849200	-0.4524700	1.0033899	-0.7084000	-0.4681200	0.8647099	-0.2696200	-0.4949900	0.8629499	-0.1475800	-0.5215800	0.4360199	-0.1462700	-0.5498300	0.0704499	-0.1445800	-0.4459100	0.8557299	-0.3854100	-0.4875400	0.4506799	-0.3781600	-0.5578100	0.0592499	-0.3905800	-0.3797000	0.0114499	-0.4189100	-0.4217000	0.0138899	-0.4702400	-0.5961600	0.0264399	-0.3600100	-0.4039900	0.0107799	-0.1324000	-0.4255100	0.0203099	-0.0779800	-0.5960600	0.0164199	-0.1573500	-0.4195749	0.9428700	-0.0724402	-0.3602461	0.9446100	-0.4361918	-0.6539466	0.9511448	-0.2212515	-0.6292945	0.9503993	-0.3644632	-0.5292844	0.4406213	-0.0599018	-0.4937808	0.4452630	-0.2201023	-0.5766041	0.0674878	-0.0954831	-0.5342657	0.0742833	-0.1946111	-0.4293920	0.0326993	-0.1234480	-0.4826751	0.0221686	-0.0633836	-0.6367043	0.0456338	-0.1658813	-0.4958874	0.4467484	-0.4638675	-0.4689350	0.4504280	-0.2930764	-0.5759094	0.0703302	-0.4334103	-0.5193806	0.0700141	-0.3286743	-0.4061490	0.0220139	-0.4213884	-0.6365095	0.0488308	-0.3508867	-0.4801705	0.0237282	-0.4840107	-0.5517159	1.4832378	-0.0757729	-0.5707091	1.5032381	-0.4355639	-0.6680038	1.4926315	-0.2628380	-0.4268210	0.6921729	-0.0227932	-0.4775509	0.5918986	-0.0076732	-0.5844974	0.6936654	-0.0200975	-0.3751389	0.6916557	-0.5126533	-0.4307316	0.5955634	-0.5254461	-0.5462973	0.6985007	-0.5336633	-0.5477585	0.3311119	-0.0686059	-0.5301427	0.2169017	-0.0581638	-0.6035171	0.2311855	-0.0647953	-0.5284490	0.3372953	-0.4640727	-0.5127263	0.2188242	-0.4844027	-0.6006564	0.2376438	-0.4593457	-0.5303574	0.8332239	-0.1679923	-0.4949453	0.8339178	-0.3877937	-0.5588397	1.1696950	0.0780542	-0.5081658	1.1480475	0.0030085	-0.3959156	1.0261930	0.2181118	-0.4320322	0.9651995	0.1971734	-0.5819828	1.1856254	-0.6076900	-0.5485463	1.1512447	-0.5342730	-0.4034955	1.0083444	-0.7002091	-0.4637713	0.9592267	-0.6957993
42	1.3666667	-0.5734600	1.4398399	-0.2628300	-0.5427400	1.4410699	-0.0895000	-0.5152900	1.2041799	0.0505500	-0.4291200	1.0181099	0.2210800	-0.5603700	1.4481199	-0.4402900	-0.5509200	1.2120099	-0.5929100	-0.4522500	1.0035099	-0.7084200	-0.4681600	0.8647499	-0.2696100	-0.4950500	0.8629199	-0.1475800	-0.5216100	0.4357399	-0.1462400	-0.5498400	0.0705099	-0.1445800	-0.4465400	0.8556299	-0.3853100	-0.4877100	0.4506099	-0.3781400	-0.5577200	0.0590999	-0.3905600	-0.3796600	0.0113399	-0.4188700	-0.4219000	0.0140799	-0.4701200	-0.5961600	0.0261899	-0.3599700	-0.4039800	0.0107799	-0.1324000	-0.4254700	0.0204899	-0.0779700	-0.5961400	0.0164099	-0.1573400	-0.4198124	0.9430785	-0.0722975	-0.3602268	0.9446872	-0.4362426	-0.6540696	0.9511196	-0.2213169	-0.6293121	0.9503187	-0.3646051	-0.5293651	0.4404492	-0.0597998	-0.4937306	0.4451134	-0.2201069	-0.5766570	0.0673390	-0.0953830	-0.5342252	0.0741423	-0.1945720	-0.4295003	0.0323130	-0.1235042	-0.4827893	0.0218710	-0.0633669	-0.6366580	0.0456595	-0.1657922	-0.4959815	0.4464971	-0.4638655	-0.4691957	0.4502191	-0.2929694	-0.5760849	0.0700808	-0.4333598	-0.5196133	0.0697888	-0.3285496	-0.4061772	0.0216387	-0.4213690	-0.6368031	0.0487010	-0.3507765	-0.4802199	0.0234299	-0.4840233	-0.5518182	1.4833223	-0.0757564	-0.5709937	1.5032961	-0.4355185	-0.6680902	1.4926834	-0.2628191	-0.4268202	0.6920909	-0.0226245	-0.4776102	0.5917743	-0.0075120	-0.5847023	0.6936136	-0.0199694	-0.3749768	0.6913928	-0.5126873	-0.4306302	0.5953011	-0.5254901	-0.5461835	0.6983794	-0.5338005	-0.5478623	0.3309557	-0.0685096	-0.5302313	0.2167287	-0.0580268	-0.6036140	0.2310504	-0.0647155	-0.5285926	0.3370781	-0.4640669	-0.5128498	0.2185949	-0.4843908	-0.6008224	0.2374132	-0.4593489	-0.5304445	0.8332503	-0.1679456	-0.4948790	0.8338667	-0.3878650	-0.5588968	1.1694674	0.0776189	-0.5084551	1.1478922	0.0029101	-0.3965538	1.0257804	0.2175715	-0.4325066	0.9646514	0.1963806	-0.5807827	1.1854899	-0.6079117	-0.5473173	1.1513238	-0.5342890	-0.4031011	1.0071793	-0.7006694	-0.4636450	0.9579782	-0.6959207
43	1.4000000	-0.5733600	1.4398399	-0.2628000	-0.5426800	1.4407299	-0.0894800	-0.5145400	1.2042199	0.0505200	-0.4291700	1.0183299	0.2210700	-0.5598400	1.4480999	-0.4402900	-0.5342200	1.2119999	-0.5849100	-0.4525600	1.0033899	-0.7083900	-0.4681400	0.8646999	-0.2696100	-0.4949900	0.8629499	-0.1475600	-0.5215400	0.4360599	-0.1462600	-0.5499300	0.0704399	-0.1446000	-0.4461500	0.8605499	-0.3852900	-0.4873700	0.4507799	-0.3781200	-0.5578300	0.0592399	-0.3905900	-0.3791000	0.0173399	-0.4180900	-0.4206700	0.0198799	-0.4692800	-0.5961800	0.0264299	-0.3600100	-0.4039400	0.0108199	-0.1323800	-0.4240200	0.0270299	-0.0773800	-0.5962500	0.0163499	-0.1574000	-0.4200802	0.9430992	-0.0721099	-0.3600833	0.9447605	-0.4362559	-0.6540486	0.9509949	-0.2213684	-0.6291208	0.9502092	-0.3647367	-0.5291720	0.4402321	-0.0595906	-0.4934764	0.4449292	-0.2199778	-0.5764105	0.0672718	-0.0952669	-0.5339735	0.0741061	-0.1944738	-0.4292679	0.0325087	-0.1234061	-0.4825372	0.0220911	-0.0632635	-0.6363842	0.0455654	-0.1657320	-0.4958565	0.4461554	-0.4638691	-0.4693197	0.4500190	-0.2927620	-0.5760173	0.0699231	-0.4331358	-0.5196727	0.0697256	-0.3281730	-0.4060055	0.0220489	-0.4210985	-0.6368833	0.0483925	-0.3504923	-0.4800214	0.0237331	-0.4838123	-0.5518328	1.4833271	-0.0756393	-0.5709463	1.5032024	-0.4353610	-0.6679013	1.4926368	-0.2627045	-0.4267088	0.6919463	-0.0224394	-0.4774883	0.5915906	-0.0072973	-0.5847486	0.6934371	-0.0198305	-0.3745639	0.6911289	-0.5126028	-0.4302877	0.5949825	-0.5254843	-0.5458688	0.6981099	-0.5340702	-0.5476725	0.3307674	-0.0683351	-0.5300257	0.2165522	-0.0578596	-0.6033904	0.2309483	-0.0645747	-0.5285067	0.3367831	-0.4640128	-0.5127270	0.2183188	-0.4842421	-0.6007447	0.2371629	-0.4593087	-0.5305054	0.8331380	-0.1679271	-0.4946920	0.8337845	-0.3879718	-0.5588536	1.1692718	0.0774512	-0.5083258	1.1478252	0.0030260	-0.3967118	1.0256686	0.2173321	-0.4324435	0.9642496	0.1958080	-0.5780250	1.1850371	-0.6075162	-0.5445483	1.1513537	-0.5341509	-0.4020719	1.0058662	-0.7007964	-0.4627421	0.9567517	-0.6957211
44	1.4333333	-0.5734100	1.4398499	-0.2628100	-0.5427400	1.4410899	-0.0895000	-0.5152800	1.2042199	0.0505300	-0.4291000	1.0181199	0.2210600	-0.5429600	1.4466899	-0.4427500	-0.5336300	1.2120599	-0.5846300	-0.4520800	1.0035299	-0.7083600	-0.4682000	0.8647599	-0.2696100	-0.4951000	0.8629199	-0.1475700	-0.5216600	0.4357199	-0.1462300	-0.5499400	0.0704999	-0.1446200	-0.4465300	0.8556399	-0.3853100	-0.4875500	0.4507199	-0.3780800	-0.5595900	0.0636599	-0.3913300	-0.3791000	0.0171999	-0.4180800	-0.4209600	0.0200499	-0.4691900	-0.5962900	0.0261599	-0.3599900	-0.4039600	0.0108299	-0.1323900	-0.4240400	0.0271999	-0.0773800	-0.5963000	0.0163699	-0.1573900	-0.4205410	0.9433551	-0.0717710	-0.3597427	0.9448626	-0.4362444	-0.6541869	0.9509965	-0.2217082	-0.6289340	0.9501458	-0.3651969	-0.5287683	0.4400489	-0.0596152	-0.4930154	0.4447223	-0.2199873	-0.5761454	0.0674076	-0.0953624	-0.5337355	0.0742555	-0.1945161	-0.4289862	0.0329916	-0.1234355	-0.4822775	0.0226444	-0.0634043	-0.6361212	0.0455463	-0.1658739	-0.4956011	0.4460947	-0.4640157	-0.4694707	0.4500889	-0.2926998	-0.5758510	0.0700994	-0.4332053	-0.5197662	0.0699697	-0.3280949	-0.4058877	0.0224790	-0.4210136	-0.6369112	0.0484525	-0.3506475	-0.4797977	0.0241269	-0.4837704	-0.5519170	1.4835079	-0.0754882	-0.5695151	1.5032230	-0.4355361	-0.6672423	1.4928841	-0.2632008	-0.4266914	0.6920516	-0.0224257	-0.4773400	0.5915807	-0.0072897	-0.5848642	0.6933941	-0.0198307	-0.3740808	0.6910449	-0.5126493	-0.4298329	0.5948781	-0.5256229	-0.5453792	0.6979495	-0.5344523	-0.5473443	0.3306920	-0.0683582	-0.5298085	0.2166093	-0.0578909	-0.6030231	0.2309209	-0.0646779	-0.5283041	0.3367707	-0.4641193	-0.5124964	0.2183408	-0.4842712	-0.6005337	0.2372246	-0.4595041	-0.5308002	0.8331933	-0.1679254	-0.4945046	0.8337406	-0.3881711	-0.5594228	1.1689347	0.0769461	-0.5086570	1.1476553	0.0028864	-0.3974903	1.0256046	0.2169949	-0.4327712	0.9637830	0.1951408	-0.5752481	1.1850161	-0.6070010	-0.5418926	1.1516825	-0.5338594	-0.4012380	1.0045341	-0.7008219	-0.4621545	0.9556207	-0.6955115
45	1.4666667	-0.5734300	1.4398399	-0.2628100	-0.5427400	1.4407399	-0.0894700	-0.5144700	1.2042199	0.0505200	-0.4291500	1.0183299	0.2210600	-0.5425100	1.4466499	-0.4428000	-0.5342500	1.2120299	-0.5849000	-0.4525500	1.0033899	-0.7083800	-0.4681400	0.8646999	-0.2696200	-0.4950400	0.8629399	-0.1475700	-0.5216200	0.4360199	-0.1462800	-0.5499200	0.0704199	-0.1446000	-0.4459200	0.8557299	-0.3854000	-0.4873900	0.4507399	-0.3781500	-0.5596700	0.0638399	-0.3913600	-0.3791800	0.0173199	-0.4180900	-0.4217500	0.0138499	-0.4702400	-0.5962400	0.0264299	-0.3600200	-0.4039500	0.0108399	-0.1323900	-0.4240300	0.0270199	-0.0773800	-0.5962200	0.0163599	-0.1574000	-0.4209085	0.9434486	-0.0714990	-0.3593218	0.9448458	-0.4362371	-0.6542258	0.9509664	-0.2220630	-0.6286579	0.9500785	-0.3656552	-0.5284383	0.4398227	-0.0596192	-0.4926327	0.4445081	-0.2200285	-0.5758798	0.0674634	-0.0953599	-0.5334644	0.0743366	-0.1945212	-0.4286753	0.0333807	-0.1234897	-0.4819934	0.0230638	-0.0634843	-0.6358523	0.0454758	-0.1658880	-0.4953635	0.4457963	-0.4641511	-0.4695851	0.4498568	-0.2927458	-0.5758524	0.0701218	-0.4332585	-0.5200121	0.0700254	-0.3280696	-0.4059310	0.0226261	-0.4210444	-0.6371185	0.0484739	-0.3507562	-0.4797569	0.0243245	-0.4837855	-0.5518245	1.4834088	-0.0754685	-0.5677465	1.5031383	-0.4357592	-0.6663032	1.4930051	-0.2638004	-0.4266072	0.6920284	-0.0223718	-0.4771799	0.5914770	-0.0072502	-0.5849178	0.6932457	-0.0198187	-0.3735971	0.6907963	-0.5126103	-0.4293881	0.5945943	-0.5256799	-0.5448364	0.6977079	-0.5347326	-0.5470520	0.3305610	-0.0683486	-0.5295534	0.2165781	-0.0578666	-0.6027120	0.2308451	-0.0646820	-0.5281512	0.3365498	-0.4642004	-0.5123861	0.2181895	-0.4842560	-0.6003899	0.2371146	-0.4596788	-0.5309597	0.8331255	-0.1679416	-0.4941864	0.8336044	-0.3883505	-0.5599135	1.1683901	0.0766389	-0.5087542	1.1472617	0.0028738	-0.3979064	1.0254986	0.2168902	-0.4327714	0.9631647	0.1947163	-0.5726436	1.1848326	-0.6065873	-0.5394477	1.1518255	-0.5336828	-0.4006353	1.0029566	-0.7009796	-0.4618593	0.9543109	-0.6954564
