PathFileType  4	(X/Y/Z) /Users/callumsherry/opencap-sandboxes/opencap-core-sandbox/diagnostics/openpose_swapped
DataRate	CameraRate	NumFrames	NumMarkers	Units	OrigDataRate	OrigDataStartFrame	OrigNumFrames
30.0	30.0	45	20	m	30.0	1	45
Frame#	Time	Neck			RShoulder			RElbow			RWrist			LShoulder			LElbow			LWrist			midHip			RHip			RKnee			RAnkle			LHip			LKnee			LAnkle			LBigToe			LSmallToe			LHeel			RBigToe			RSmallToe			RHeel			
		X1	Y1	Z1	X2	Y2	Z2	X3	Y3	Z3	X4	Y4	Z4	X5	Y5	Z5	X6	Y6	Z6	X7	Y7	Z7	X8	Y8	Z8	X9	Y9	Z9	X10	Y10	Z10	X11	Y11	Z11	X12	Y12	Z12	X13	Y13	Z13	X14	Y14	Z14	X15	Y15	Z15	X16	Y16	Z16	X17	Y17	Z17	X18	Y18	Z18	X19	Y19	Z19	X20	Y20	Z20	

1	0.0000000	-0.5563900	1.4720700	-0.2662500	-0.5422000	1.4743800	-0.0895200	-0.5140900	1.2378800	0.0505800	-0.4293500	1.0518800	0.2211800	-0.5599600	1.4816000	-0.4402100	-0.5338400	1.2405500	-0.5850200	-0.4521600	1.0321700	-0.7084700	-0.4684200	0.8934400	-0.2694900	-0.4951500	0.8963000	-0.1475500	-0.5213500	0.4695100	-0.1461600	-0.5498600	0.1039500	-0.1446000	-0.4632600	0.8869000	-0.3826100	-0.4695900	0.4892000	-0.3811100	-0.5403100	0.1049300	-0.3943200	-0.3613400	0.0533600	-0.4109500	-0.4211700	0.0478100	-0.4700100	-0.5961600	0.0598900	-0.3600200	-0.4040300	0.0442500	-0.1323500	-0.4254800	0.0538300	-0.0779500	-0.5961000	0.0499200	-0.1573800
2	0.0333333	-0.5563900	1.4720700	-0.2662700	-0.5423200	1.4747100	-0.0895600	-0.5149200	1.2378700	0.0505800	-0.4293400	1.0516900	0.2211900	-0.5602400	1.4816300	-0.4401700	-0.5339300	1.2405700	-0.5850300	-0.4519100	1.0322100	-0.7085200	-0.4684300	0.8935700	-0.2694800	-0.4951400	0.8963200	-0.1475400	-0.5213300	0.4694600	-0.1461600	-0.5498300	0.1040100	-0.1446100	-0.4640100	0.8868900	-0.3824800	-0.4697200	0.4891700	-0.3810700	-0.5400000	0.1050300	-0.3943800	-0.3612400	0.0532800	-0.4109600	-0.4212100	0.0479400	-0.4699800	-0.5961100	0.0597600	-0.3600300	-0.4040700	0.0442400	-0.1323500	-0.4255000	0.0539400	-0.0779500	-0.5959700	0.0500300	-0.1574000
3	0.0666667	-0.5565200	1.4720900	-0.2662700	-0.5423500	1.4743900	-0.0895300	-0.5140800	1.2378600	0.0505800	-0.4294200	1.0518900	0.2212200	-0.5600500	1.4816200	-0.4402300	-0.5340300	1.2405300	-0.5850700	-0.4524200	1.0369300	-0.7083100	-0.4684300	0.8934600	-0.2695000	-0.4951400	0.8963100	-0.1475600	-0.5213900	0.4695000	-0.1461500	-0.5498500	0.1039100	-0.1445900	-0.4633100	0.8869000	-0.3826200	-0.4695700	0.4892000	-0.3810900	-0.5385500	0.1003400	-0.3935800	-0.3612500	0.0533200	-0.4109100	-0.4197000	0.0432000	-0.4692300	-0.5961200	0.0598900	-0.3600400	-0.4039600	0.0442400	-0.1323700	-0.4254000	0.0538200	-0.0779700	-0.5961300	0.0498800	-0.1573600
4	0.1000000	-0.5565200	1.4721000	-0.2662900	-0.5424500	1.4747300	-0.0895700	-0.5148700	1.2379000	0.0505800	-0.4298800	1.0566000	0.2211000	-0.5603700	1.4816700	-0.4402000	-0.5339900	1.2405700	-0.5850300	-0.4520900	1.0369900	-0.7083300	-0.4685200	0.8936100	-0.2695100	-0.4951800	0.8963400	-0.1475600	-0.5213800	0.4694500	-0.1461400	-0.5493100	0.0988800	-0.1440200	-0.4641500	0.8869000	-0.3825200	-0.4697900	0.4891500	-0.3810900	-0.5381400	0.1004400	-0.3935800	-0.3611400	0.0532700	-0.4109500	-0.4196700	0.0433900	-0.4691800	-0.5959200	0.0597800	-0.3599500	-0.4038500	0.0442500	-0.1324000	-0.4253600	0.0538900	-0.0780000	-0.5959200	0.0498500	-0.1573600
5	0.1333333	-0.5565100	1.4720900	-0.2662900	-0.5423400	1.4744100	-0.0895700	-0.5142300	1.2378900	0.0506200	-0.4299700	1.0567900	0.2211000	-0.5600500	1.4816200	-0.4402200	-0.5340400	1.2405300	-0.5851000	-0.4524300	1.0369400	-0.7083100	-0.4684800	0.8934800	-0.2695200	-0.4951400	0.8963300	-0.1475700	-0.5213100	0.4695100	-0.1461500	-0.5497400	0.1039400	-0.1445900	-0.4633900	0.8869000	-0.3826500	-0.4696200	0.4891700	-0.3811200	-0.5384700	0.1003500	-0.3935300	-0.3614100	0.0532300	-0.4109900	-0.4196900	0.0431700	-0.4692500	-0.5960100	0.0599500	-0.3599400	-0.4039000	0.0442100	-0.1323800	-0.4253700	0.0537900	-0.0780000	-0.5960000	0.0498700	-0.1573400
6	0.1666667	-0.5565000	1.4720800	-0.2662800	-0.5425500	1.4747300	-0.0895400	-0.5152400	1.2379000	0.0506500	-0.4299100	1.0566300	0.2210700	-0.5602700	1.4816500	-0.4401900	-0.5340500	1.2406000	-0.5850700	-0.4521300	1.0370400	-0.7082800	-0.4683400	0.8935900	-0.2695400	-0.4950900	0.8963500	-0.1475800	-0.5213300	0.4695000	-0.1461500	-0.5497600	0.1040100	-0.1446100	-0.4639400	0.8869300	-0.3825400	-0.4698200	0.4891700	-0.3811100	-0.5398100	0.1051300	-0.3943200	-0.3615400	0.0531100	-0.4109400	-0.4212500	0.0479300	-0.4699200	-0.5764100	0.0676800	-0.3631800	-0.4037900	0.0442500	-0.1324100	-0.4253300	0.0539000	-0.0780100	-0.5960000	0.0500600	-0.1573800
7	0.2000000	-0.5565500	1.4720900	-0.2662700	-0.5424900	1.4743600	-0.0894900	-0.5142900	1.2378200	0.0506800	-0.4296700	1.0568100	0.2211000	-0.5600000	1.4816400	-0.4402400	-0.5513500	1.2405100	-0.5933800	-0.4524500	1.0369900	-0.7082400	-0.4682900	0.8934300	-0.2695300	-0.4950600	0.8963100	-0.1475500	-0.5213600	0.4695500	-0.1461500	-0.5497300	0.1039400	-0.1445900	-0.4463400	0.8890300	-0.3855200	-0.4696100	0.4891700	-0.3811100	-0.5401400	0.1050500	-0.3942900	-0.3615600	0.0532100	-0.4109100	-0.4211300	0.0477800	-0.4699600	-0.5959200	0.0600400	-0.3599800	-0.4038000	0.0442500	-0.1324000	-0.4253300	0.0538000	-0.0780000	-0.5960300	0.0499600	-0.1573500
8	0.2333333	-0.5563800	1.4720800	-0.2662500	-0.5423600	1.4747000	-0.0894800	-0.5149900	1.2378500	0.0506900	-0.4296100	1.0566600	0.2211000	-0.5602900	1.4816800	-0.4401900	-0.5340500	1.2406600	-0.5850600	-0.4522200	1.0370600	-0.7083300	-0.4682300	0.8935600	-0.2695000	-0.4949300	0.8963200	-0.1475200	-0.5215300	0.4693500	-0.1461900	-0.5497200	0.1039900	-0.1446000	-0.4638400	0.8869300	-0.3825000	-0.4698300	0.4891000	-0.3811000	-0.5396900	0.1051200	-0.3942700	-0.3608600	0.0589700	-0.4101300	-0.4212400	0.0479600	-0.4699300	-0.5957200	0.0598600	-0.3598800	-0.4039200	0.0441900	-0.1324500	-0.4253900	0.0538700	-0.0780300	-0.5948800	0.0443600	-0.1578700
9	0.2666667	-0.5564600	1.4720900	-0.2662200	-0.5422700	1.4743500	-0.0894400	-0.5141500	1.2378500	0.0507000	-0.4296400	1.0568700	0.2210900	-0.5600700	1.4816500	-0.4402200	-0.5340300	1.2406200	-0.5851100	-0.4527800	1.0415500	-0.7081900	-0.4681900	0.8934500	-0.2694900	-0.4948900	0.8963000	-0.1475100	-0.5215200	0.4694400	-0.1461900	-0.5497500	0.1039500	-0.1446000	-0.4630100	0.8869600	-0.3826100	-0.4696700	0.4891300	-0.3811400	-0.5400300	0.1050700	-0.3942500	-0.3609800	0.0590300	-0.4101300	-0.4211900	0.0477800	-0.4699800	-0.5957800	0.0600900	-0.3599300	-0.4039600	0.0441900	-0.1324600	-0.4254200	0.0537700	-0.0780400	-0.5959200	0.0499600	-0.1573300
10	0.3000000	-0.5732400	1.4734200	-0.2627800	-0.5424100	1.4746900	-0.0894500	-0.5150600	1.2378500	0.0507100	-0.4296600	1.0567000	0.2211100	-0.5602700	1.4816800	-0.4401900	-0.5338700	1.2406800	-0.5850400	-0.4523100	1.0416300	-0.7081700	-0.4681900	0.8936100	-0.2694700	-0.4949300	0.8963500	-0.1475000	-0.5214600	0.4693800	-0.1461900	-0.5493900	0.0988700	-0.1440200	-0.4469200	0.8890800	-0.3853200	-0.4698600	0.4890900	-0.3811000	-0.5397500	0.1051000	-0.3942800	-0.3609600	0.0589100	-0.4101500	-0.4212400	0.0479200	-0.4699500	-0.5957900	0.0598700	-0.3598900	-0.4038100	0.0442200	-0.1324700	-0.4234600	0.0500300	-0.0774800	-0.5959800	0.0498600	-0.1573100
11	0.3333333	-0.5563800	1.4720700	-0.2662000	-0.5421800	1.4743300	-0.0894000	-0.5141700	1.2378700	0.0507200	-0.4291300	1.0519600	0.2212500	-0.5600100	1.4816400	-0.4402600	-0.5340700	1.2406300	-0.5851600	-0.4526700	1.0415900	-0.7081300	-0.4681700	0.8935200	-0.2694600	-0.4754200	0.8988600	-0.1415300	-0.5215900	0.4694000	-0.1462000	-0.5497600	0.1038900	-0.1445600	-0.4461000	0.8891400	-0.3854200	-0.4695400	0.4891100	-0.3810800	-0.5402900	0.1050200	-0.3943300	-0.3798100	0.0449300	-0.4187900	-0.4214700	0.0476300	-0.4701200	-0.5961500	0.0600000	-0.3600400	-0.4038400	0.0442000	-0.1324300	-0.4253000	0.0537300	-0.0780100	-0.5949900	0.0442000	-0.1578000
12	0.3666667	-0.5563400	1.4720600	-0.2662200	-0.5413000	1.4698700	-0.0890600	-0.4945100	1.2378500	0.0552400	-0.4290900	1.0517700	0.2212600	-0.5603300	1.4816700	-0.4402300	-0.5511400	1.2406500	-0.5933200	-0.4523900	1.0416500	-0.7081900	-0.4681500	0.8936400	-0.2694600	-0.4753800	0.8988800	-0.1415400	-0.5214700	0.4693900	-0.1461800	-0.5498100	0.1040000	-0.1445700	-0.4468600	0.8891100	-0.3852800	-0.4698200	0.4890400	-0.3810800	-0.5399300	0.1050800	-0.3943400	-0.3790000	0.0507500	-0.4179400	-0.4215500	0.0477900	-0.4700700	-0.5960600	0.0598000	-0.3599800	-0.4037500	0.0442500	-0.1324000	-0.4234300	0.0500300	-0.0774300	-0.5959000	0.0499900	-0.1573100
13	0.4000000	-0.5563700	1.4720500	-0.2662300	-0.5412100	1.4695000	-0.0890400	-0.5141800	1.2378700	0.0507100	-0.4293100	1.0519300	0.2212200	-0.5599500	1.4816400	-0.4403000	-0.5341000	1.2407100	-0.5851800	-0.4527000	1.0415700	-0.7081800	-0.4683100	0.8981700	-0.2695300	-0.4754000	0.8989200	-0.1415200	-0.5214300	0.4695200	-0.1462000	-0.5497900	0.1039300	-0.1445900	-0.4629400	0.8870300	-0.3825500	-0.4696500	0.4890900	-0.3811000	-0.5403100	0.1050700	-0.3943400	-0.3798600	0.0449400	-0.4187900	-0.4216000	0.0475100	-0.4701300	-0.5961800	0.0600900	-0.3600300	-0.4033900	0.0443700	-0.1325100	-0.4231000	0.0500100	-0.0775300	-0.5961100	0.0498800	-0.1572900
14	0.4333333	-0.5562200	1.4720500	-0.2662500	-0.5412200	1.4698500	-0.0890600	-0.5151400	1.2378200	0.0507200	-0.4293500	1.0517500	0.2212400	-0.5427800	1.4802100	-0.4427300	-0.5511800	1.2407200	-0.5933100	-0.4521900	1.0416400	-0.7081700	-0.4682500	0.8982900	-0.2695500	-0.4753900	0.8989300	-0.1415300	-0.5214000	0.4694100	-0.1462100	-0.5498200	0.1040000	-0.1445900	-0.4468400	0.8891400	-0.3852700	-0.4698300	0.4890400	-0.3810700	-0.5594200	0.0974500	-0.3913400	-0.3799000	0.0448500	-0.4187700	-0.4394400	0.0400800	-0.4676900	-0.5962800	0.0598100	-0.3599900	-0.4033900	0.0444200	-0.1325200	-0.4250000	0.0539700	-0.0780900	-0.5961000	0.0499300	-0.1572800
15	0.4666667	-0.5562600	1.4720600	-0.2662500	-0.5412500	1.4695100	-0.0890500	-0.4930100	1.2332800	0.0555300	-0.4291900	1.0519000	0.2212600	-0.5423800	1.4801700	-0.4427600	-0.5514300	1.2406000	-0.5934500	-0.4526800	1.0415300	-0.7082000	-0.4682600	0.8982000	-0.2695600	-0.4949100	0.8964500	-0.1475000	-0.5043100	0.4741100	-0.1505100	-0.5498400	0.1039400	-0.1445600	-0.4628700	0.8870800	-0.3825600	-0.4697300	0.4891100	-0.3811300	-0.5595900	0.0975000	-0.3912900	-0.3800900	0.0448800	-0.4188000	-0.4394300	0.0398600	-0.4677700	-0.5960400	0.0601400	-0.3599900	-0.4035800	0.0443400	-0.1325300	-0.4251300	0.0538000	-0.0780800	-0.5962900	0.0498400	-0.1572600
16	0.5000000	-0.5561800	1.4720400	-0.2662400	-0.5413000	1.4698600	-0.0890500	-0.4938700	1.2332100	0.0555300	-0.4290900	1.0516400	0.2213100	-0.5426500	1.4801900	-0.4427200	-0.5511900	1.2406700	-0.5933200	-0.4522300	1.0416000	-0.7082400	-0.4683000	0.8983600	-0.2695600	-0.4949600	0.8965000	-0.1475100	-0.5213000	0.4694600	-0.1461900	-0.5494200	0.0989200	-0.1440100	-0.4468700	0.8892000	-0.3852800	-0.4874100	0.4844200	-0.3781200	-0.5592500	0.0975200	-0.3913300	-0.3799300	0.0447900	-0.4187700	-0.4394900	0.0400300	-0.4677200	-0.5960300	0.0599100	-0.3599700	-0.4035600	0.0443400	-0.1325200	-0.4251100	0.0539300	-0.0780800	-0.5962900	0.0499000	-0.1572900
17	0.5333333	-0.5562400	1.4720500	-0.2662400	-0.5412200	1.4694900	-0.0890300	-0.4930300	1.2332400	0.0555400	-0.4290500	1.0518500	0.2213000	-0.5423900	1.4801700	-0.4427500	-0.5513700	1.2406300	-0.5934400	-0.4525900	1.0415200	-0.7082200	-0.4683000	0.8982400	-0.2695700	-0.4949800	0.8964800	-0.1475200	-0.5214100	0.4695400	-0.1462000	-0.5498600	0.1039200	-0.1445700	-0.4460800	0.8892200	-0.3854100	-0.4697500	0.4891000	-0.3811300	-0.5402600	0.1050900	-0.3943000	-0.3801000	0.0448500	-0.4188000	-0.4394300	0.0398600	-0.4677900	-0.5959500	0.0601900	-0.3599800	-0.4035400	0.0443500	-0.1325200	-0.4251300	0.0538000	-0.0780800	-0.5963300	0.0498200	-0.1572700
18	0.5666667	-0.5562100	1.4720300	-0.2662400	-0.5412600	1.4698600	-0.0890500	-0.4939800	1.2332800	0.0555400	-0.4291300	1.0516700	0.2212900	-0.5427600	1.4801800	-0.4427100	-0.5511100	1.2406500	-0.5933300	-0.4521100	1.0415900	-0.7082200	-0.4682700	0.8983600	-0.2695800	-0.4949600	0.8965000	-0.1475300	-0.5042100	0.4740500	-0.1504800	-0.5498700	0.1040000	-0.1445700	-0.4468400	0.8892000	-0.3852800	-0.4699400	0.4890700	-0.3811000	-0.5399500	0.1051200	-0.3943300	-0.3799600	0.0447900	-0.4187800	-0.4219100	0.0476400	-0.4701000	-0.5959400	0.0599400	-0.3599500	-0.4036600	0.0443000	-0.1324800	-0.4252500	0.0539000	-0.0780400	-0.5962400	0.0499400	-0.1573000
19	0.6000000	-0.5563200	1.4720400	-0.2662500	-0.5412300	1.4694800	-0.0890400	-0.5135700	1.2331900	0.0510000	-0.4292900	1.0518700	0.2212700	-0.5424600	1.4801500	-0.4427600	-0.5513800	1.2405500	-0.5934200	-0.4525700	1.0415300	-0.7082100	-0.4683100	0.8982800	-0.2696000	-0.4950000	0.8965300	-0.1475500	-0.5042500	0.4742000	-0.1504900	-0.5494300	0.0988400	-0.1439900	-0.4463400	0.8940900	-0.3853300	-0.4697300	0.4891500	-0.3811400	-0.5402900	0.1051000	-0.3943200	-0.3800300	0.0449000	-0.4187900	-0.4218100	0.0474700	-0.4701700	-0.5960000	0.0601800	-0.3600100	-0.4036900	0.0443000	-0.1325000	-0.4252400	0.0537800	-0.0780500	-0.5963200	0.0498400	-0.1572800
20	0.6333333	-0.5562600	1.4720500	-0.2662600	-0.5413300	1.4698600	-0.0890800	-0.5144900	1.2331700	0.0509900	-0.4290300	1.0559200	0.2210500	-0.5427700	1.4802000	-0.4427200	-0.5511800	1.2406200	-0.5933100	-0.4520900	1.0416200	-0.7082400	-0.4683300	0.8983800	-0.2696000	-0.4950200	0.8965300	-0.1475600	-0.5042300	0.4740800	-0.1505000	-0.5498600	0.1039900	-0.1445600	-0.4471000	0.8940700	-0.3852100	-0.4699000	0.4891100	-0.3810800	-0.5400100	0.1051000	-0.3943600	-0.3799200	0.0448100	-0.4187600	-0.4218900	0.0476400	-0.4700900	-0.5960200	0.0599200	-0.3599800	-0.4037300	0.0443300	-0.1325300	-0.4252400	0.0539700	-0.0780600	-0.5961700	0.0499400	-0.1572600
21	0.6666667	-0.5563800	1.4720700	-0.2662500	-0.5412600	1.4694900	-0.0890500	-0.5137100	1.2331600	0.0510200	-0.4292700	1.0518700	0.2213000	-0.5599300	1.4816700	-0.4402700	-0.5514100	1.2405700	-0.5934400	-0.4525300	1.0415600	-0.7082200	-0.4683300	0.8982900	-0.2696100	-0.4950300	0.8965400	-0.1475600	-0.5042900	0.4741800	-0.1505200	-0.5498100	0.1039500	-0.1445500	-0.4463500	0.8941000	-0.3853400	-0.4872400	0.4844600	-0.3781700	-0.5403300	0.1050800	-0.3943400	-0.3800300	0.0449000	-0.4187900	-0.4217800	0.0474700	-0.4701600	-0.5960800	0.0601400	-0.3600200	-0.4037800	0.0443300	-0.1325200	-0.4252900	0.0538300	-0.0780500	-0.5961400	0.0499000	-0.1572500
22	0.7000000	-0.5563600	1.4720600	-0.2662500	-0.5413500	1.4698600	-0.0890900	-0.5146100	1.2331600	0.0510300	-0.4290100	1.0559500	0.2210300	-0.5603200	1.4816800	-0.4402100	-0.5511700	1.2406200	-0.5932900	-0.4521000	1.0416600	-0.7082400	-0.4683400	0.8983500	-0.2696000	-0.4951100	0.8965000	-0.1475600	-0.5214500	0.4694400	-0.1462300	-0.5497700	0.1040300	-0.1445600	-0.4470400	0.8940200	-0.3852200	-0.4699500	0.4890400	-0.3810900	-0.5593900	0.0974900	-0.3913500	-0.3798100	0.0447500	-0.4188000	-0.4218800	0.0475100	-0.4700800	-0.5978800	0.0646100	-0.3607500	-0.4037800	0.0442500	-0.1325000	-0.4253000	0.0538900	-0.0780300	-0.5960300	0.0499900	-0.1572500
23	0.7333333	-0.5565300	1.4720800	-0.2662700	-0.5413800	1.4694900	-0.0890700	-0.5148700	1.2377900	0.0507000	-0.4293000	1.0562100	0.2209600	-0.5602100	1.4816900	-0.4403200	-0.5516100	1.2405900	-0.5934500	-0.4526300	1.0415600	-0.7082400	-0.4684600	0.8982300	-0.2696600	-0.4951600	0.8964800	-0.1475900	-0.5215500	0.4695100	-0.1462800	-0.5498200	0.1040100	-0.1445700	-0.4465200	0.8939800	-0.3854500	-0.4871900	0.4844300	-0.3781500	-0.5597200	0.0974100	-0.3913500	-0.3796500	0.0449800	-0.4187500	-0.4217300	0.0474000	-0.4701600	-0.5962700	0.0601000	-0.3600600	-0.4037000	0.0443800	-0.1325100	-0.4237900	0.0606500	-0.0774500	-0.5962300	0.0499200	-0.1572900
24	0.7666667	-0.5564700	1.4720900	-0.2662700	-0.5414700	1.4698600	-0.0890900	-0.5158300	1.2378500	0.0507000	-0.4292100	1.0560200	0.2209300	-0.5604600	1.4817500	-0.4402700	-0.5513300	1.2406700	-0.5933100	-0.4521200	1.0416500	-0.7082500	-0.4684600	0.8983500	-0.2696700	-0.4951900	0.8964900	-0.1476000	-0.5044300	0.4739500	-0.1505500	-0.5498100	0.1040900	-0.1445700	-0.4472700	0.8939700	-0.3853300	-0.4874100	0.4843600	-0.3781100	-0.5595100	0.0973800	-0.3913700	-0.3796200	0.0448700	-0.4187700	-0.4218700	0.0476000	-0.4701000	-0.5981100	0.0645500	-0.3607700	-0.4037600	0.0444000	-0.1325400	-0.4237800	0.0608100	-0.0774700	-0.5961800	0.0499800	-0.1572700
25	0.8000000	-0.5734900	1.4734300	-0.2627900	-0.5416300	1.4694800	-0.0890400	-0.5306000	1.2377200	0.0557500	-0.4292200	1.0562000	0.2209200	-0.5602300	1.4817200	-0.4403200	-0.5516200	1.2406300	-0.5934800	-0.4351000	1.0427700	-0.7090800	-0.4683900	0.8982700	-0.2696700	-0.4951100	0.8965300	-0.1476000	-0.5225200	0.4744500	-0.1466700	-0.5497900	0.1041500	-0.1445800	-0.4464700	0.8940600	-0.3854600	-0.4873500	0.4843300	-0.3781300	-0.5597700	0.0973800	-0.3913400	-0.3800000	0.0448300	-0.4187400	-0.4395700	0.0397000	-0.4677800	-0.5962700	0.0600800	-0.3600600	-0.4040400	0.0443600	-0.1325100	-0.4240400	0.0607100	-0.0774300	-0.5960100	0.0502200	-0.1573200
26	0.8333333	-0.5734000	1.4734300	-0.2627900	-0.5416700	1.4698400	-0.0890400	-0.5158500	1.2378000	0.0507100	-0.4293700	1.0517200	0.2211400	-0.5604500	1.4817500	-0.4402700	-0.5513200	1.2407000	-0.5933300	-0.4520600	1.0416700	-0.7082600	-0.4684100	0.8983800	-0.2696700	-0.4951500	0.8965300	-0.1476000	-0.5225300	0.4742500	-0.1466400	-0.5498300	0.1042000	-0.1445900	-0.4471900	0.8940600	-0.3853300	-0.4876500	0.4842700	-0.3781100	-0.5595400	0.0972900	-0.3913300	-0.3797700	0.0448000	-0.4187700	-0.4396100	0.0399200	-0.4677200	-0.5963400	0.0597700	-0.3599800	-0.4040100	0.0443900	-0.1325100	-0.4240100	0.0609200	-0.0774400	-0.5960500	0.0502400	-0.1573300
27	0.8666667	-0.5734100	1.4734200	-0.2627700	-0.5416000	1.4694400	-0.0890000	-0.5148300	1.2377900	0.0507000	-0.4293600	1.0518800	0.2211300	-0.5600800	1.4817400	-0.4403000	-0.5516700	1.2406500	-0.5934900	-0.4524900	1.0415900	-0.7082400	-0.4683900	0.8982700	-0.2696800	-0.4951500	0.8965200	-0.1476100	-0.5217700	0.4695300	-0.1462400	-0.5498100	0.1041400	-0.1445800	-0.4464500	0.8940800	-0.3854600	-0.4874100	0.4843300	-0.3781500	-0.5597700	0.0973500	-0.3913200	-0.3798600	0.0449000	-0.4187900	-0.4394700	0.0397400	-0.4678000	-0.5963300	0.0600400	-0.3600300	-0.4039200	0.0443800	-0.1324800	-0.4239600	0.0607700	-0.0774300	-0.5960700	0.0501900	-0.1573300
28	0.9000000	-0.5734500	1.4734300	-0.2627900	-0.5417200	1.4698500	-0.0890600	-0.5156100	1.2377900	0.0507000	-0.4294600	1.0517200	0.2211000	-0.5605200	1.4817500	-0.4402500	-0.5512800	1.2407200	-0.5933000	-0.4520200	1.0416800	-0.7082500	-0.4683700	0.8983800	-0.2696900	-0.4951400	0.8965300	-0.1476100	-0.5217700	0.4693400	-0.1462300	-0.5498900	0.1041900	-0.1446100	-0.4471300	0.8940600	-0.3853400	-0.4876500	0.4842900	-0.3781100	-0.5595500	0.0972800	-0.3913300	-0.3797700	0.0448000	-0.4187800	-0.4396200	0.0399200	-0.4677200	-0.5963400	0.0597700	-0.3599800	-0.4039400	0.0443600	-0.1325000	-0.4239800	0.0609000	-0.0774500	-0.5961800	0.0502100	-0.1573600
29	0.9333333	-0.5735400	1.4734200	-0.2627700	-0.5417000	1.4694600	-0.0890200	-0.5148300	1.2377800	0.0506200	-0.4300200	1.0567200	0.2209400	-0.5601600	1.4817000	-0.4402800	-0.5514900	1.2455700	-0.5931600	-0.4524300	1.0416300	-0.7082200	-0.4684100	0.8982600	-0.2696800	-0.4951700	0.8965000	-0.1476000	-0.5225500	0.4744800	-0.1466700	-0.5498500	0.1041300	-0.1446100	-0.4464400	0.8940400	-0.3854600	-0.4874000	0.4843100	-0.3781600	-0.5596400	0.0973900	-0.3913300	-0.3798000	0.0449000	-0.4187800	-0.4217700	0.0473200	-0.4701700	-0.5961900	0.0600900	-0.3600300	-0.4038600	0.0443700	-0.1325000	-0.4239300	0.0607200	-0.0774600	-0.5962400	0.0501700	-0.1573700
30	0.9666667	-0.5735400	1.4734200	-0.2627700	-0.5418200	1.4698600	-0.0890700	-0.5157000	1.2377800	0.0506200	-0.4295300	1.0516400	0.2211000	-0.5605100	1.4817400	-0.4402100	-0.5511400	1.2456400	-0.5929600	-0.4520600	1.0416900	-0.7082700	-0.4683400	0.8983700	-0.2696800	-0.4951100	0.8965100	-0.1476200	-0.5225200	0.4743100	-0.1466200	-0.5498900	0.1041900	-0.1446100	-0.4470900	0.8940400	-0.3853200	-0.4876900	0.4842000	-0.3781200	-0.5594200	0.0973200	-0.3913300	-0.3797800	0.0447800	-0.4187700	-0.4396000	0.0399100	-0.4677200	-0.5961300	0.0598100	-0.3599900	-0.4039900	0.0442800	-0.1324600	-0.4240900	0.0608300	-0.0774100	-0.5962500	0.0502200	-0.1573700
31	1.0000000	-0.5735800	1.4734400	-0.2628000	-0.5427700	1.4743000	-0.0894500	-0.5148300	1.2377800	0.0505800	-0.4295000	1.0518600	0.2210700	-0.5601600	1.4817000	-0.4402600	-0.5695700	1.2456400	-0.5915300	-0.4525000	1.0415900	-0.7082500	-0.4683000	0.8983000	-0.2696800	-0.4950600	0.8965300	-0.1476100	-0.5225000	0.4745200	-0.1466600	-0.5498700	0.1041000	-0.1446000	-0.4463500	0.8941200	-0.3854300	-0.4874400	0.4843000	-0.3781600	-0.5596400	0.0974000	-0.3913400	-0.3798200	0.0448900	-0.4187900	-0.4394000	0.0397300	-0.4678000	-0.5961400	0.0600600	-0.3600400	-0.4039500	0.0443000	-0.1324700	-0.4240400	0.0606700	-0.0774100	-0.5962600	0.0501400	-0.1573600
32	1.0333333	-0.5735700	1.4734200	-0.2628000	-0.5418500	1.4698500	-0.0891000	-0.5158000	1.2377800	0.0505900	-0.4300200	1.0564800	0.2209300	-0.5605500	1.4817300	-0.4402200	-0.5692200	1.2457100	-0.5913500	-0.4521000	1.0416900	-0.7082300	-0.4683200	0.8984000	-0.2696800	-0.4950900	0.8965400	-0.1476200	-0.5224000	0.4743600	-0.1466000	-0.5499000	0.1041700	-0.1446200	-0.4470600	0.8940800	-0.3853100	-0.4876600	0.4842600	-0.3781100	-0.5594600	0.0973100	-0.3913600	-0.3798300	0.0447500	-0.4187900	-0.4396300	0.0398900	-0.4677300	-0.5961300	0.0597900	-0.3600000	-0.4039200	0.0443300	-0.1324700	-0.4240100	0.0608600	-0.0774100	-0.5963400	0.0501700	-0.1573900
33	1.0666667	-0.5736100	1.4734300	-0.2628000	-0.5418200	1.4694900	-0.0890800	-0.5149900	1.2377800	0.0505800	-0.4300100	1.0567000	0.2209100	-0.5601600	1.4817100	-0.4402700	-0.5696000	1.2456400	-0.5915400	-0.4525100	1.0416000	-0.7082200	-0.4683000	0.8983100	-0.2696700	-0.4950700	0.8965500	-0.1476000	-0.5224100	0.4745800	-0.1466200	-0.5499000	0.1041000	-0.1446100	-0.4461300	0.8893000	-0.3855100	-0.4874400	0.4843500	-0.3781500	-0.5596400	0.0974000	-0.3913500	-0.3799000	0.0448400	-0.4188100	-0.4394400	0.0396800	-0.4678200	-0.5961200	0.0600700	-0.3600400	-0.4039600	0.0443100	-0.1324600	-0.4240600	0.0606800	-0.0774100	-0.5963400	0.0501400	-0.1574000
34	1.1000000	-0.5736000	1.4734200	-0.2628000	-0.5419100	1.4698500	-0.0891000	-0.5159200	1.2377900	0.0506000	-0.4300100	1.0565100	0.2209200	-0.5605300	1.4817400	-0.4402200	-0.5691400	1.2456700	-0.5913300	-0.4521400	1.0416400	-0.7082700	-0.4682800	0.8984000	-0.2696800	-0.4951100	0.8965400	-0.1476200	-0.5224500	0.4743900	-0.1465800	-0.5498900	0.1042100	-0.1446300	-0.4469900	0.8940800	-0.3853000	-0.4875700	0.4842900	-0.3781000	-0.5401600	0.1049100	-0.3943600	-0.3798300	0.0447500	-0.4188400	-0.4220200	0.0475100	-0.4701300	-0.5960900	0.0598000	-0.3600000	-0.4039400	0.0443400	-0.1324500	-0.4240400	0.0608800	-0.0774000	-0.5963000	0.0502000	-0.1574100
35	1.1333333	-0.5735900	1.4734200	-0.2627900	-0.5427400	1.4742900	-0.0894100	-0.5149800	1.2377300	0.0506100	-0.4294100	1.0518500	0.2210600	-0.5602100	1.4816800	-0.4403000	-0.5697000	1.2456400	-0.5916000	-0.4524700	1.0415400	-0.7082000	-0.4682600	0.8983400	-0.2696500	-0.4950800	0.8965600	-0.1475900	-0.5223700	0.4746300	-0.1466000	-0.5498600	0.1041400	-0.1446200	-0.4462500	0.8941600	-0.3853700	-0.4874400	0.4843100	-0.3781800	-0.5596100	0.0974200	-0.3913900	-0.3794900	0.0507700	-0.4181200	-0.4208900	0.0533700	-0.4693000	-0.5961300	0.0600400	-0.3600600	-0.4039500	0.0443200	-0.1324500	-0.4240500	0.0606900	-0.0774100	-0.5962900	0.0501800	-0.1574100
36	1.1666667	-0.5735900	1.4734300	-0.2627900	-0.5428000	1.4746500	-0.0894400	-0.5158600	1.2377200	0.0506300	-0.4294100	1.0516500	0.2210600	-0.5606300	1.4817400	-0.4402400	-0.5692200	1.2457000	-0.5913600	-0.4520900	1.0416600	-0.7082200	-0.4682600	0.8984100	-0.2696400	-0.4951300	0.8965400	-0.1475900	-0.5224700	0.4743200	-0.1466000	-0.5498400	0.1042000	-0.1446200	-0.4466700	0.8892700	-0.3853500	-0.4877400	0.4842200	-0.3781600	-0.5594200	0.0973300	-0.3913600	-0.3793600	0.0506800	-0.4180800	-0.4220500	0.0475200	-0.4701300	-0.5960700	0.0597800	-0.3599900	-0.4039600	0.0443200	-0.1324600	-0.4240500	0.0608500	-0.0774100	-0.5962300	0.0502200	-0.1573800
37	1.2000000	-0.5735600	1.4734400	-0.2628100	-0.5426600	1.4742700	-0.0894400	-0.5148600	1.2376900	0.0505800	-0.4293700	1.0518900	0.2210500	-0.5601500	1.4817200	-0.4403200	-0.5696700	1.2456100	-0.5915400	-0.4524600	1.0415500	-0.7082000	-0.4682000	0.8983100	-0.2696500	-0.4950100	0.8965400	-0.1475900	-0.5223300	0.4745300	-0.1466500	-0.5498800	0.1040600	-0.1446000	-0.4462200	0.8941200	-0.3853600	-0.4876300	0.4843000	-0.3781900	-0.5596900	0.0973900	-0.3913500	-0.3793100	0.0508100	-0.4181400	-0.4207700	0.0534400	-0.4693200	-0.5962000	0.0599800	-0.3600200	-0.4041000	0.0443000	-0.1324200	-0.4240700	0.0605700	-0.0773900	-0.5961500	0.0500200	-0.1573900
38	1.2333333	-0.5736000	1.4734400	-0.2628200	-0.5428100	1.4746500	-0.0894900	-0.5157700	1.2377200	0.0505800	-0.4293200	1.0516700	0.2210600	-0.5605600	1.4817500	-0.4402700	-0.5517200	1.2457000	-0.5830300	-0.4521500	1.0416100	-0.7082600	-0.4682100	0.8983500	-0.2696500	-0.4950600	0.8964900	-0.1476000	-0.5223500	0.4742600	-0.1466300	-0.5498700	0.1041300	-0.1446000	-0.4466300	0.8892200	-0.3853600	-0.4878500	0.4842200	-0.3781500	-0.5595300	0.0972600	-0.3913400	-0.3791300	0.0507200	-0.4180900	-0.4219500	0.0476300	-0.4701600	-0.5962000	0.0597200	-0.3599800	-0.4040600	0.0442800	-0.1324200	-0.4240500	0.0607400	-0.0773800	-0.5962000	0.0500300	-0.1573700
39	1.2666667	-0.5735800	1.4734400	-0.2628200	-0.5427400	1.4742900	-0.0894600	-0.5149700	1.2377300	0.0505300	-0.4293300	1.0518800	0.2210500	-0.5601600	1.4817300	-0.4403200	-0.5696600	1.2456200	-0.5915500	-0.4523900	1.0369700	-0.7083800	-0.4681400	0.8982600	-0.2696400	-0.4949900	0.8964900	-0.1475900	-0.5216500	0.4695500	-0.1462700	-0.5498600	0.1040600	-0.1445900	-0.4459500	0.8892700	-0.3854500	-0.4875200	0.4843000	-0.3781600	-0.5596400	0.0973900	-0.3913500	-0.3790800	0.0508500	-0.4181200	-0.4216800	0.0474500	-0.4702500	-0.5961700	0.0599900	-0.3600100	-0.4041100	0.0442500	-0.1324200	-0.4255800	0.0538100	-0.0779900	-0.5961200	0.0500400	-0.1573900
40	1.3000000	-0.5735700	1.4734200	-0.2628200	-0.5418500	1.4698500	-0.0891200	-0.5154900	1.2377200	0.0505900	-0.4291300	1.0516800	0.2210800	-0.5605100	1.4817200	-0.4402700	-0.5517000	1.2457000	-0.5830500	-0.4520500	1.0370400	-0.7084300	-0.4681100	0.8983400	-0.2696300	-0.4950000	0.8965000	-0.1475900	-0.5216200	0.4693000	-0.1462400	-0.5498300	0.1041000	-0.1445900	-0.4465100	0.8892300	-0.3853200	-0.4877900	0.4841900	-0.3781200	-0.5594900	0.0972700	-0.3913200	-0.3796900	0.0448700	-0.4189000	-0.4219100	0.0476300	-0.4701500	-0.5962000	0.0597500	-0.3599700	-0.4040200	0.0443200	-0.1323900	-0.4255000	0.0540400	-0.0779700	-0.5960900	0.0500200	-0.1573600
41	1.3333333	-0.5735100	1.4734100	-0.2628200	-0.5427200	1.4742700	-0.0894600	-0.5145800	1.2377200	0.0505600	-0.4291700	1.0518800	0.2210700	-0.5600000	1.4816700	-0.4403400	-0.5343500	1.2455500	-0.5849200	-0.4524700	1.0369500	-0.7084000	-0.4681200	0.8982700	-0.2696200	-0.4949900	0.8965100	-0.1475800	-0.5215800	0.4695800	-0.1462700	-0.5498300	0.1040100	-0.1445800	-0.4459100	0.8892900	-0.3854100	-0.4875400	0.4842400	-0.3781600	-0.5578100	0.0928100	-0.3905800	-0.3797000	0.0450100	-0.4189100	-0.4217000	0.0474500	-0.4702400	-0.5961600	0.0600000	-0.3600100	-0.4039900	0.0443400	-0.1324000	-0.4255100	0.0538700	-0.0779800	-0.5960600	0.0499800	-0.1573500
42	1.3666667	-0.5734600	1.4734000	-0.2628300	-0.5427400	1.4746300	-0.0895000	-0.5152900	1.2377400	0.0505500	-0.4291200	1.0516700	0.2210800	-0.5603700	1.4816800	-0.4402900	-0.5509200	1.2455700	-0.5929100	-0.4522500	1.0370700	-0.7084200	-0.4681600	0.8983100	-0.2696100	-0.4950500	0.8964800	-0.1475800	-0.5216100	0.4693000	-0.1462400	-0.5498400	0.1040700	-0.1445800	-0.4465400	0.8891900	-0.3853100	-0.4877100	0.4841700	-0.3781400	-0.5577200	0.0926600	-0.3905600	-0.3796600	0.0449000	-0.4188700	-0.4219000	0.0476400	-0.4701200	-0.5961600	0.0597500	-0.3599700	-0.4039800	0.0443400	-0.1324000	-0.4254700	0.0540500	-0.0779700	-0.5961400	0.0499700	-0.1573400
43	1.4000000	-0.5733600	1.4734000	-0.2628000	-0.5426800	1.4742900	-0.0894800	-0.5145400	1.2377800	0.0505200	-0.4291700	1.0518900	0.2210700	-0.5598400	1.4816600	-0.4402900	-0.5342200	1.2455600	-0.5849100	-0.4525600	1.0369500	-0.7083900	-0.4681400	0.8982600	-0.2696100	-0.4949900	0.8965100	-0.1475600	-0.5215400	0.4696200	-0.1462600	-0.5499300	0.1040000	-0.1446000	-0.4461500	0.8941100	-0.3852900	-0.4873700	0.4843400	-0.3781200	-0.5578300	0.0928000	-0.3905900	-0.3791000	0.0509000	-0.4180900	-0.4206700	0.0534400	-0.4692800	-0.5961800	0.0599900	-0.3600100	-0.4039400	0.0443800	-0.1323800	-0.4240200	0.0605900	-0.0773800	-0.5962500	0.0499100	-0.1574000
44	1.4333333	-0.5734100	1.4734100	-0.2628100	-0.5427400	1.4746500	-0.0895000	-0.5152800	1.2377800	0.0505300	-0.4291000	1.0516800	0.2210600	-0.5429600	1.4802500	-0.4427500	-0.5336300	1.2456200	-0.5846300	-0.4520800	1.0370900	-0.7083600	-0.4682000	0.8983200	-0.2696100	-0.4951000	0.8964800	-0.1475700	-0.5216600	0.4692800	-0.1462300	-0.5499400	0.1040600	-0.1446200	-0.4465300	0.8892000	-0.3853100	-0.4875500	0.4842800	-0.3780800	-0.5595900	0.0972200	-0.3913300	-0.3791000	0.0507600	-0.4180800	-0.4209600	0.0536100	-0.4691900	-0.5962900	0.0597200	-0.3599900	-0.4039600	0.0443900	-0.1323900	-0.4240400	0.0607600	-0.0773800	-0.5963000	0.0499300	-0.1573900
45	1.4666667	-0.5734300	1.4734000	-0.2628100	-0.5427400	1.4743000	-0.0894700	-0.5144700	1.2377800	0.0505200	-0.4291500	1.0518900	0.2210600	-0.5425100	1.4802100	-0.4428000	-0.5342500	1.2455900	-0.5849000	-0.4525500	1.0369500	-0.7083800	-0.4681400	0.8982600	-0.2696200	-0.4950400	0.8965000	-0.1475700	-0.5216200	0.4695800	-0.1462800	-0.5499200	0.1039800	-0.1446000	-0.4459200	0.8892900	-0.3854000	-0.4873900	0.4843000	-0.3781500	-0.5596700	0.0974000	-0.3913600	-0.3791800	0.0508800	-0.4180900	-0.4217500	0.0474100	-0.4702400	-0.5962400	0.0599900	-0.3600200	-0.4039500	0.0444000	-0.1323900	-0.4240300	0.0605800	-0.0773800	-0.5962200	0.0499200	-0.1574000
