Model Marker Errors from IK
version=1
nRows=651
nColumns=4
inDegrees=no
endheader
time	total_squared_error	marker_error_RMS	marker_error_max
      0.00000000	      0.03948423	      0.03030244	      0.05846840
      0.01666670	      0.03740152	      0.02949242	      0.05329979
      0.03333330	      0.03320465	      0.02778851	      0.05095708
      0.05000000	      0.03040874	      0.02659286	      0.04906604
      0.06666670	      0.02803248	      0.02553269	      0.04769385
      0.08333330	      0.02665654	      0.02489818	      0.04777523
      0.10000000	      0.02555629	      0.02437893	      0.04772407
      0.11666670	      0.02458860	      0.02391292	      0.04769181
      0.13333330	      0.02424511	      0.02374531	      0.04741978
      0.15000000	      0.02408689	      0.02366771	      0.04726329
      0.16666670	      0.02379105	      0.02352191	      0.04740250
      0.18333330	      0.02364812	      0.02345114	      0.04719634
      0.20000000	      0.02306916	      0.02316230	      0.04662860
      0.21666670	      0.02298250	      0.02311875	      0.04637894
      0.23333330	      0.02283990	      0.02304692	      0.04653735
      0.25000000	      0.02290977	      0.02308214	      0.04667942
      0.26666670	      0.02273160	      0.02299221	      0.04667890
      0.28333330	      0.02281158	      0.02303263	      0.04676734
      0.30000000	      0.02284420	      0.02304909	      0.04665499
      0.31666670	      0.02274409	      0.02299853	      0.04675844
      0.33333330	      0.02281558	      0.02303465	      0.04703901
      0.35000000	      0.02290528	      0.02307988	      0.04695686
      0.36666670	      0.02294738	      0.02310108	      0.04688789
      0.38333330	      0.02300243	      0.02312878	      0.04690552
      0.40000000	      0.02289031	      0.02307234	      0.04675109
      0.41666670	      0.02288826	      0.02307130	      0.04672937
      0.43333330	      0.02298588	      0.02312045	      0.04691160
      0.45000000	      0.02299782	      0.02312646	      0.04696191
      0.46666670	      0.02304638	      0.02315086	      0.04767872
      0.48333330	      0.02310993	      0.02318276	      0.04776556
      0.50000000	      0.02318828	      0.02322202	      0.04797127
      0.51666670	      0.02318793	      0.02322185	      0.04762038
      0.53333330	      0.02325604	      0.02325593	      0.04782201
      0.55000000	      0.02334025	      0.02329799	      0.04775297
      0.56666670	      0.02333906	      0.02329740	      0.04774925
      0.58333330	      0.02345885	      0.02335711	      0.04797952
      0.60000000	      0.02354613	      0.02340052	      0.04811453
      0.61666670	      0.02349119	      0.02337320	      0.04763342
      0.63333330	      0.02349228	      0.02337375	      0.04768810
      0.65000000	      0.02356211	      0.02340846	      0.04787211
      0.66666670	      0.02354268	      0.02339880	      0.04781785
      0.68333330	      0.02348668	      0.02337096	      0.04795211
      0.70000000	      0.02353869	      0.02339682	      0.04814051
      0.71666670	      0.02356226	      0.02340853	      0.04823129
      0.73333330	      0.02356703	      0.02341090	      0.04835734
      0.75000000	      0.02360770	      0.02343110	      0.04801665
      0.76666670	      0.02364284	      0.02344853	      0.04806680
      0.78333330	      0.02366600	      0.02346001	      0.04802961
      0.80000000	      0.02368546	      0.02346965	      0.04809833
      0.81666670	      0.02374236	      0.02349783	      0.04807101
      0.83333330	      0.02367864	      0.02346628	      0.04838754
      0.85000000	      0.02369474	      0.02347425	      0.04848697
      0.86666670	      0.02374137	      0.02349734	      0.04844019
      0.88333330	      0.02367787	      0.02346589	      0.04858989
      0.90000000	      0.02360877	      0.02343163	      0.04826233
      0.91666670	      0.02366160	      0.02345783	      0.04836281
      0.93333330	      0.02362836	      0.02344135	      0.04847277
      0.95000000	      0.02370139	      0.02347754	      0.04859873
      0.96666670	      0.02368277	      0.02346832	      0.04873704
      0.98333330	      0.02357942	      0.02341706	      0.04808792
      1.00000000	      0.02356323	      0.02340902	      0.04804664
      1.01666670	      0.02340290	      0.02332924	      0.04828087
      1.03333330	      0.02338898	      0.02332230	      0.04831853
      1.05000000	      0.02335417	      0.02330494	      0.04811521
      1.06666670	      0.02338266	      0.02331915	      0.04804102
      1.08333330	      0.02342789	      0.02334170	      0.04810591
      1.10000000	      0.02340922	      0.02333239	      0.04793737
      1.11666670	      0.02337551	      0.02331559	      0.04794196
      1.13333330	      0.02343885	      0.02334715	      0.04792722
      1.15000000	      0.02343300	      0.02334424	      0.04788914
      1.16666670	      0.02342013	      0.02333783	      0.04802027
      1.18333330	      0.02347680	      0.02336604	      0.04813883
      1.20000000	      0.02351908	      0.02338707	      0.04826771
      1.21666670	      0.02360955	      0.02343201	      0.04830177
      1.23333330	      0.02365349	      0.02345381	      0.04823083
      1.25000000	      0.02366073	      0.02345740	      0.04806230
      1.26666670	      0.02376015	      0.02350663	      0.04813977
      1.28333330	      0.02372255	      0.02348802	      0.04810775
      1.30000000	      0.02376496	      0.02350901	      0.04849604
      1.31666670	      0.02376451	      0.02350879	      0.04846950
      1.33333330	      0.02378930	      0.02352104	      0.04842540
      1.35000000	      0.02376531	      0.02350918	      0.04855438
      1.36666670	      0.02376399	      0.02350853	      0.04856803
      1.38333330	      0.02381065	      0.02353160	      0.04851962
      1.40000000	      0.02384606	      0.02354909	      0.04837653
      1.41666670	      0.02385202	      0.02355203	      0.04814839
      1.43333330	      0.02377950	      0.02351620	      0.04805770
      1.45000000	      0.02382175	      0.02353708	      0.04803246
      1.46666670	      0.02380992	      0.02353123	      0.04793160
      1.48333330	      0.02378990	      0.02352134	      0.04784273
      1.50000000	      0.02376005	      0.02350658	      0.04785337
      1.51666670	      0.02374772	      0.02350048	      0.04748373
      1.53333330	      0.02374845	      0.02350084	      0.04758179
      1.55000000	      0.02379956	      0.02352611	      0.04762675
      1.56666670	      0.02385092	      0.02355149	      0.04766140
      1.58333330	      0.02389563	      0.02357355	      0.04831199
      1.60000000	      0.02390746	      0.02357939	      0.04831115
      1.61666670	      0.02381521	      0.02353385	      0.04795010
      1.63333330	      0.02382097	      0.02353670	      0.04805365
      1.65000000	      0.02383241	      0.02354235	      0.04856796
      1.66666670	      0.02385519	      0.02355360	      0.04856625
      1.68333330	      0.02383323	      0.02354275	      0.04852999
      1.70000000	      0.02379022	      0.02352150	      0.04854074
      1.71666670	      0.02367043	      0.02346221	      0.04843334
      1.73333330	      0.02361178	      0.02343312	      0.04839634
      1.75000000	      0.02359844	      0.02342650	      0.04848167
      1.76666670	      0.02353349	      0.02339424	      0.04841909
      1.78333330	      0.02355654	      0.02340570	      0.04852503
      1.80000000	      0.02360786	      0.02343117	      0.04816595
      1.81666670	      0.02355036	      0.02340262	      0.04791594
      1.83333330	      0.02357140	      0.02341308	      0.04785366
      1.85000000	      0.02355538	      0.02340512	      0.04773282
      1.86666670	      0.02350962	      0.02338237	      0.04764417
      1.88333330	      0.02347573	      0.02336551	      0.04745273
      1.90000000	      0.02341937	      0.02333745	      0.04774596
      1.91666670	      0.02339909	      0.02332734	      0.04792991
      1.93333330	      0.02330187	      0.02327883	      0.04775463
      1.95000000	      0.02332023	      0.02328800	      0.04811325
      1.96666670	      0.02337305	      0.02331436	      0.04840525
      1.98333330	      0.02341012	      0.02333284	      0.04865208
      2.00000000	      0.02354102	      0.02339798	      0.04890921
      2.01666670	      0.02358763	      0.02342113	      0.04872055
      2.03333330	      0.02369789	      0.02347581	      0.04926855
      2.05000000	      0.02390903	      0.02358016	      0.04949112
      2.06666670	      0.02405346	      0.02365128	      0.04930514
      2.08333330	      0.02419878	      0.02372261	      0.04971698
      2.10000000	      0.02458378	      0.02391058	      0.05041522
      2.11666670	      0.02486298	      0.02404597	      0.05122916
      2.13333330	      0.02566226	      0.02442942	      0.05214940
      2.15000000	      0.02634184	      0.02475078	      0.05310671
      2.16666670	      0.02738581	      0.02523647	      0.05452875
      2.18333330	      0.02843779	      0.02571661	      0.05581018
      2.20000000	      0.02939686	      0.02614666	      0.05724768
      2.21666670	      0.03045571	      0.02661339	      0.05873999
      2.23333330	      0.03129497	      0.02697758	      0.05990793
      2.25000000	      0.03217171	      0.02735287	      0.06105561
      2.26666670	      0.03318152	      0.02777883	      0.06213107
      2.28333330	      0.03425190	      0.02822332	      0.06341157
      2.30000000	      0.03498562	      0.02852401	      0.06450095
      2.31666670	      0.03561234	      0.02877836	      0.06555565
      2.33333330	      0.03622840	      0.02902621	      0.06643667
      2.35000000	      0.03736303	      0.02947724	      0.06744776
      2.36666670	      0.03850345	      0.02992372	      0.06837997
      2.38333330	      0.03875083	      0.03001969	      0.06873081
      2.40000000	      0.03941858	      0.03027724	      0.06951509
      2.41666670	      0.03990293	      0.03046268	      0.06951037
      2.43333330	      0.04067865	      0.03075736	      0.06966017
      2.45000000	      0.04150988	      0.03107002	      0.06957596
      2.46666670	      0.04260926	      0.03147877	      0.06920000
      2.48333330	      0.04407550	      0.03201580	      0.06952792
      2.50000000	      0.04576064	      0.03262209	      0.07015998
      2.51666670	      0.04747114	      0.03322620	      0.06997744
      2.53333330	      0.04903124	      0.03376776	      0.06935990
      2.55000000	      0.04969927	      0.03399701	      0.06881387
      2.56666670	      0.05035681	      0.03422117	      0.06917989
      2.58333330	      0.05180403	      0.03470943	      0.06930810
      2.60000000	      0.05248316	      0.03493621	      0.06912355
      2.61666670	      0.05379990	      0.03537175	      0.06910415
      2.63333330	      0.05454922	      0.03561722	      0.06897638
      2.65000000	      0.05493935	      0.03574436	      0.06846363
      2.66666670	      0.05575952	      0.03601018	      0.06828897
      2.68333330	      0.05658262	      0.03627499	      0.06813976
      2.70000000	      0.05767512	      0.03662351	      0.06774239
      2.71666670	      0.05881136	      0.03698251	      0.06777885
      2.73333330	      0.06030299	      0.03744857	      0.06818147
      2.75000000	      0.06051016	      0.03751284	      0.06810324
      2.76666670	      0.06122937	      0.03773511	      0.06923085
      2.78333330	      0.06165850	      0.03786712	      0.06961736
      2.80000000	      0.06216641	      0.03802276	      0.07148824
      2.81666670	      0.06261974	      0.03816114	      0.07276108
      2.83333330	      0.06313315	      0.03831726	      0.07471473
      2.85000000	      0.06375526	      0.03850559	      0.07605213
      2.86666670	      0.06450851	      0.03873239	      0.07834319
      2.88333330	      0.06474134	      0.03880222	      0.07975869
      2.90000000	      0.06427718	      0.03866288	      0.08116886
      2.91666670	      0.06447571	      0.03872254	      0.08296315
      2.93333330	      0.06531909	      0.03897498	      0.08488619
      2.95000000	      0.06593783	      0.03915914	      0.08720451
      2.96666670	      0.06631939	      0.03927227	      0.08958555
      2.98333330	      0.06730874	      0.03956412	      0.09184493
      3.00000000	      0.06885897	      0.04001714	      0.09461065
      3.01666670	      0.06948445	      0.04019847	      0.09714838
      3.03333330	      0.06893112	      0.04003810	      0.09938632
      3.05000000	      0.06832844	      0.03986268	      0.10046570
      3.06666670	      0.06725276	      0.03954766	      0.10127571
      3.08333330	      0.06606849	      0.03919791	      0.10120666
      3.10000000	      0.06579091	      0.03911548	      0.10217343
      3.11666670	      0.06426666	      0.03865971	      0.10142373
      3.13333330	      0.06205622	      0.03798905	      0.10029056
      3.15000000	      0.05951217	      0.03720220	      0.09825967
      3.16666670	      0.05622465	      0.03616006	      0.09587093
      3.18333330	      0.05370561	      0.03534074	      0.09345021
      3.20000000	      0.05074387	      0.03435244	      0.09023941
      3.21666670	      0.04717881	      0.03312373	      0.08665482
      3.23333330	      0.04347125	      0.03179559	      0.08251704
      3.25000000	      0.04006709	      0.03052528	      0.07864583
      3.26666670	      0.03741025	      0.02949586	      0.07505867
      3.28333330	      0.03507430	      0.02856014	      0.07134267
      3.30000000	      0.03321969	      0.02779480	      0.06811922
      3.31666670	      0.03162328	      0.02711872	      0.06547136
      3.33333330	      0.03017627	      0.02649101	      0.06293138
      3.35000000	      0.02925426	      0.02608317	      0.06095283
      3.36666670	      0.02842792	      0.02571214	      0.05989195
      3.38333330	      0.02785389	      0.02545123	      0.05914097
      3.40000000	      0.02734549	      0.02521788	      0.05960192
      3.41666670	      0.02670560	      0.02492109	      0.05918789
      3.43333330	      0.02606459	      0.02462018	      0.05937766
      3.45000000	      0.02582002	      0.02450440	      0.05982392
      3.46666670	      0.02586329	      0.02452492	      0.06084513
      3.48333330	      0.02656107	      0.02485356	      0.06219555
      3.50000000	      0.02762930	      0.02534841	      0.06380416
      3.51666670	      0.02896439	      0.02595362	      0.06522558
      3.53333330	      0.03020853	      0.02650517	      0.06621177
      3.55000000	      0.03123576	      0.02695205	      0.06671805
      3.56666670	      0.03198992	      0.02727548	      0.06681941
      3.58333330	      0.03301454	      0.02770884	      0.06712867
      3.60000000	      0.03434610	      0.02826211	      0.06769542
      3.61666670	      0.03564920	      0.02879325	      0.06827762
      3.63333330	      0.03712293	      0.02938238	      0.06892864
      3.65000000	      0.03924948	      0.03021223	      0.06993000
      3.66666670	      0.04080685	      0.03080579	      0.07080001
      3.68333330	      0.04191758	      0.03122223	      0.07143834
      3.70000000	      0.04299947	      0.03162258	      0.07192234
      3.71666670	      0.04376943	      0.03190445	      0.07218570
      3.73333330	      0.04511510	      0.03239118	      0.07228216
      3.75000000	      0.04667560	      0.03294661	      0.07259419
      3.76666670	      0.04793978	      0.03338980	      0.07250228
      3.78333330	      0.04916273	      0.03381300	      0.07208746
      3.80000000	      0.05038530	      0.03423085	      0.07228777
      3.81666670	      0.05186499	      0.03472985	      0.07208425
      3.83333330	      0.05379873	      0.03537136	      0.07149476
      3.85000000	      0.05592383	      0.03606320	      0.07184934
      3.86666670	      0.05794452	      0.03670895	      0.07189691
      3.88333330	      0.06077283	      0.03759417	      0.07267527
      3.90000000	      0.06290549	      0.03824811	      0.07350668
      3.91666670	      0.06497520	      0.03887224	      0.07523208
      3.93333330	      0.06660621	      0.03935710	      0.07533292
      3.95000000	      0.06724687	      0.03954593	      0.07552357
      3.96666670	      0.06748537	      0.03961600	      0.07426967
      3.98333330	      0.06739182	      0.03958853	      0.07361339
      4.00000000	      0.06748197	      0.03961500	      0.07341540
      4.01666670	      0.06760891	      0.03965224	      0.07283451
      4.03333330	      0.06796245	      0.03975578	      0.07273483
      4.05000000	      0.06816098	      0.03981381	      0.07270531
      4.06666670	      0.06785179	      0.03972340	      0.07231206
      4.08333330	      0.06801753	      0.03977189	      0.07137381
      4.10000000	      0.06868747	      0.03996728	      0.07246940
      4.11666670	      0.06834453	      0.03986738	      0.07191339
      4.13333330	      0.06835506	      0.03987045	      0.07215949
      4.15000000	      0.06781780	      0.03971345	      0.07358702
      4.16666670	      0.06706260	      0.03949171	      0.07535173
      4.18333330	      0.06714355	      0.03951554	      0.07736284
      4.20000000	      0.06705764	      0.03949025	      0.07938497
      4.21666670	      0.06673177	      0.03939418	      0.08131692
      4.23333330	      0.06647420	      0.03931808	      0.08316633
      4.25000000	      0.06673506	      0.03939515	      0.08534262
      4.26666670	      0.06740135	      0.03959133	      0.08762785
      4.28333330	      0.06775379	      0.03969471	      0.09004406
      4.30000000	      0.06839764	      0.03988286	      0.09267279
      4.31666670	      0.06928584	      0.04014099	      0.09533206
      4.33333330	      0.07047744	      0.04048469	      0.09864983
      4.35000000	      0.07142982	      0.04075731	      0.10095252
      4.36666670	      0.07147734	      0.04077087	      0.10273099
      4.38333330	      0.07014491	      0.04038907	      0.10273736
      4.40000000	      0.06866686	      0.03996128	      0.10311524
      4.41666670	      0.06625172	      0.03925223	      0.10253379
      4.43333330	      0.06349824	      0.03842790	      0.10111288
      4.45000000	      0.06071115	      0.03757509	      0.09920847
      4.46666670	      0.05782521	      0.03667114	      0.09701833
      4.48333330	      0.05512938	      0.03580613	      0.09453012
      4.50000000	      0.05198558	      0.03477020	      0.09173641
      4.51666670	      0.04859996	      0.03361892	      0.08841186
      4.53333330	      0.04499139	      0.03234674	      0.08466367
      4.55000000	      0.04170157	      0.03114168	      0.08093780
      4.56666670	      0.03807721	      0.02975763	      0.07613575
      4.58333330	      0.03545554	      0.02871493	      0.07220309
      4.60000000	      0.03334314	      0.02784640	      0.06854635
      4.61666670	      0.03179247	      0.02719117	      0.06575200
      4.63333330	      0.03068323	      0.02671261	      0.06362762
      4.65000000	      0.02985936	      0.02635154	      0.06200391
      4.66666670	      0.02952710	      0.02620452	      0.06156871
      4.68333330	      0.02916773	      0.02604457	      0.06124352
      4.70000000	      0.02899143	      0.02596573	      0.06188914
      4.71666670	      0.02833034	      0.02566798	      0.06175510
      4.73333330	      0.02782230	      0.02543679	      0.06194847
      4.75000000	      0.02761238	      0.02534065	      0.06263976
      4.76666670	      0.02768136	      0.02537228	      0.06343477
      4.78333330	      0.02806728	      0.02554853	      0.06474048
      4.80000000	      0.02861641	      0.02579725	      0.06597148
      4.81666670	      0.02965903	      0.02626300	      0.06733092
      4.83333330	      0.03082593	      0.02677465	      0.06849998
      4.85000000	      0.03227891	      0.02739840	      0.06943625
      4.86666670	      0.03387426	      0.02806730	      0.07017867
      4.88333330	      0.03522780	      0.02862256	      0.07046435
      4.90000000	      0.03645105	      0.02911527	      0.07063746
      4.91666670	      0.03727408	      0.02944213	      0.07068291
      4.93333330	      0.03777172	      0.02963802	      0.07047609
      4.95000000	      0.03888602	      0.03007202	      0.07111182
      4.96666670	      0.04038244	      0.03064517	      0.07185045
      4.98333330	      0.04184682	      0.03119586	      0.07268207
      5.00000000	      0.04332995	      0.03174387	      0.07338630
      5.01666670	      0.04455976	      0.03219120	      0.07393988
      5.03333330	      0.04527564	      0.03244876	      0.07397402
      5.05000000	      0.04609134	      0.03273976	      0.07396318
      5.06666670	      0.04692694	      0.03303520	      0.07383746
      5.08333330	      0.04764154	      0.03328577	      0.07329697
      5.10000000	      0.04861138	      0.03362287	      0.07282164
      5.11666670	      0.05047194	      0.03426027	      0.07285587
      5.13333330	      0.05288850	      0.03507086	      0.07337325
      5.15000000	      0.05403070	      0.03544754	      0.07242160
      5.16666670	      0.05631747	      0.03618990	      0.07286542
      5.18333330	      0.05756053	      0.03658711	      0.07256424
      5.20000000	      0.05918910	      0.03710109	      0.07283550
      5.21666670	      0.06092604	      0.03764153	      0.07355813
      5.23333330	      0.06160968	      0.03785212	      0.07369095
      5.25000000	      0.06247817	      0.03811798	      0.07343904
      5.26666670	      0.06327424	      0.03836006	      0.07257595
      5.28333330	      0.06477290	      0.03881168	      0.07280739
      5.30000000	      0.06586180	      0.03913655	      0.07353204
      5.31666670	      0.06670877	      0.03938739	      0.07423043
      5.33333330	      0.06691157	      0.03944722	      0.07419087
      5.35000000	      0.06802247	      0.03977333	      0.07413904
      5.36666670	      0.06817125	      0.03981681	      0.07358990
      5.38333330	      0.06871518	      0.03997534	      0.07410348
      5.40000000	      0.06913216	      0.04009644	      0.07522627
      5.41666670	      0.06896666	      0.04004842	      0.07624224
      5.43333330	      0.06861883	      0.03994730	      0.07751497
      5.45000000	      0.06811523	      0.03980044	      0.07871031
      5.46666670	      0.06797455	      0.03975932	      0.08052214
      5.48333330	      0.06805434	      0.03978265	      0.08233925
      5.50000000	      0.06840644	      0.03988543	      0.08427627
      5.51666670	      0.06879745	      0.03999926	      0.08655720
      5.53333330	      0.06872033	      0.03997683	      0.08857852
      5.55000000	      0.06839957	      0.03988342	      0.08997997
      5.56666670	      0.06873519	      0.03998115	      0.09166961
      5.58333330	      0.06933543	      0.04015535	      0.09420958
      5.60000000	      0.07014255	      0.04038839	      0.09623553
      5.61666670	      0.07107061	      0.04065470	      0.09874150
      5.63333330	      0.07142307	      0.04075539	      0.10105634
      5.65000000	      0.07158493	      0.04080154	      0.10186465
      5.66666670	      0.07067904	      0.04054255	      0.10268655
      5.68333330	      0.06864222	      0.03995411	      0.10190362
      5.70000000	      0.06647989	      0.03931977	      0.10140642
      5.71666670	      0.06382795	      0.03852754	      0.10017308
      5.73333330	      0.06077319	      0.03759428	      0.09858175
      5.75000000	      0.05710162	      0.03644097	      0.09617952
      5.76666670	      0.05364999	      0.03532243	      0.09367649
      5.78333330	      0.04986468	      0.03405354	      0.09048974
      5.80000000	      0.04668806	      0.03295101	      0.08731297
      5.81666670	      0.04271727	      0.03151864	      0.08296544
      5.83333330	      0.03945349	      0.03029064	      0.07878823
      5.85000000	      0.03637075	      0.02908318	      0.07485303
      5.86666670	      0.03383128	      0.02804949	      0.07107748
      5.88333330	      0.03201176	      0.02728479	      0.06817760
      5.90000000	      0.03029412	      0.02654269	      0.06554912
      5.91666670	      0.02930471	      0.02610565	      0.06365624
      5.93333330	      0.02866049	      0.02581711	      0.06282730
      5.95000000	      0.02818374	      0.02560148	      0.06204214
      5.96666670	      0.02784588	      0.02544757	      0.06189721
      5.98333330	      0.02718578	      0.02514413	      0.06159985
      6.00000000	      0.02739356	      0.02524004	      0.06289839
      6.01666670	      0.02716328	      0.02513372	      0.06242508
      6.03333330	      0.02730418	      0.02519883	      0.06264825
      6.05000000	      0.02797671	      0.02550727	      0.06365627
      6.06666670	      0.02876939	      0.02586611	      0.06419388
      6.08333330	      0.03016046	      0.02648407	      0.06554563
      6.10000000	      0.03160516	      0.02711095	      0.06646611
      6.11666670	      0.03315962	      0.02776966	      0.06728392
      6.13333330	      0.03482286	      0.02845758	      0.06794897
      6.15000000	      0.03608762	      0.02896976	      0.06835796
      6.16666670	      0.03727059	      0.02944075	      0.06872015
      6.18333330	      0.03827182	      0.02983358	      0.06888906
      6.20000000	      0.03916798	      0.03018084	      0.06932034
      6.21666670	      0.03985660	      0.03044500	      0.06976770
      6.23333330	      0.04047928	      0.03068189	      0.07019595
      6.25000000	      0.04149480	      0.03106437	      0.07094861
      6.26666670	      0.04262712	      0.03148537	      0.07173424
      6.28333330	      0.04394075	      0.03196682	      0.07249853
      6.30000000	      0.04538640	      0.03248842	      0.07327745
      6.31666670	      0.04644398	      0.03286476	      0.07335398
      6.33333330	      0.04815349	      0.03346414	      0.07368093
      6.35000000	      0.04965663	      0.03398243	      0.07370498
      6.36666670	      0.05098398	      0.03443362	      0.07366777
      6.38333330	      0.05320545	      0.03517579	      0.07415571
      6.40000000	      0.05499033	      0.03576094	      0.07386905
      6.41666670	      0.05755003	      0.03658378	      0.07460182
      6.43333330	      0.05987723	      0.03731613	      0.07464058
      6.45000000	      0.06210968	      0.03800541	      0.07428800
      6.46666670	      0.06372657	      0.03849692	      0.07428977
      6.48333330	      0.06405317	      0.03859545	      0.07404460
      6.50000000	      0.06501642	      0.03888457	      0.07434669
      6.51666670	      0.06628414	      0.03926183	      0.07459837
      6.53333330	      0.06735555	      0.03957788	      0.07437358
      6.55000000	      0.06835603	      0.03987073	      0.07411794
      6.56666670	      0.06923983	      0.04012765	      0.07295834
      6.58333330	      0.06876907	      0.03999101	      0.07254993
      6.60000000	      0.06831912	      0.03985997	      0.07145122
      6.61666670	      0.06900292	      0.04005894	      0.07139651
      6.63333330	      0.06938992	      0.04017112	      0.07114275
      6.65000000	      0.07007750	      0.04036966	      0.07169684
      6.66666670	      0.06993129	      0.04032752	      0.07159738
      6.68333330	      0.06999749	      0.04034661	      0.07214149
      6.70000000	      0.06979358	      0.04028780	      0.07308307
      6.71666670	      0.06895033	      0.04004368	      0.07394954
      6.73333330	      0.06759675	      0.03964867	      0.07446527
      6.75000000	      0.06757307	      0.03964173	      0.07574337
      6.76666670	      0.06703477	      0.03948352	      0.07708708
      6.78333330	      0.06698829	      0.03946983	      0.07883486
      6.80000000	      0.06621709	      0.03924197	      0.08056576
      6.81666670	      0.06600306	      0.03917850	      0.08264198
      6.83333330	      0.06565841	      0.03907608	      0.08441574
      6.85000000	      0.06509432	      0.03890786	      0.08596331
      6.86666670	      0.06616139	      0.03922546	      0.08834783
      6.88333330	      0.06681429	      0.03941853	      0.09014569
      6.90000000	      0.06771196	      0.03968245	      0.09298231
      6.91666670	      0.06829009	      0.03985149	      0.09451172
      6.93333330	      0.06851767	      0.03991784	      0.09638470
      6.95000000	      0.06876873	      0.03999091	      0.09743232
      6.96666670	      0.06796767	      0.03975731	      0.09870703
      6.98333330	      0.06676183	      0.03940305	      0.09905550
      7.00000000	      0.06534102	      0.03898152	      0.09941310
      7.01666670	      0.06339511	      0.03839668	      0.09907100
      7.03333330	      0.06086646	      0.03762312	      0.09791783
      7.05000000	      0.05798124	      0.03672058	      0.09637075
      7.06666670	      0.05469300	      0.03566413	      0.09396214
      7.08333330	      0.05095190	      0.03442278	      0.09076371
      7.10000000	      0.04723407	      0.03314312	      0.08736357
      7.11666670	      0.04454359	      0.03218536	      0.08413692
      7.13333330	      0.04114973	      0.03093494	      0.08039705
      7.15000000	      0.03889749	      0.03007645	      0.07760367
      7.16666670	      0.03616324	      0.02900010	      0.07400050
      7.18333330	      0.03425816	      0.02822590	      0.07088040
      7.20000000	      0.03254454	      0.02751090	      0.06839674
      7.21666670	      0.03139364	      0.02702008	      0.06664959
      7.23333330	      0.03042120	      0.02659831	      0.06493375
      7.25000000	      0.02960869	      0.02624070	      0.06402552
      7.26666670	      0.02909152	      0.02601052	      0.06386922
      7.28333330	      0.02837442	      0.02568794	      0.06304698
      7.30000000	      0.02801936	      0.02552671	      0.06290930
      7.31666670	      0.02795383	      0.02549684	      0.06313625
      7.33333330	      0.02823344	      0.02562404	      0.06350654
      7.35000000	      0.02873533	      0.02585079	      0.06421809
      7.36666670	      0.02971993	      0.02628994	      0.06535828
      7.38333330	      0.03081904	      0.02677166	      0.06630108
      7.40000000	      0.03224325	      0.02738326	      0.06721472
      7.41666670	      0.03356219	      0.02793772	      0.06780538
      7.43333330	      0.03494877	      0.02850898	      0.06809283
      7.45000000	      0.03633016	      0.02906695	      0.06839899
      7.46666670	      0.03784722	      0.02966763	      0.06872983
      7.48333330	      0.03938790	      0.03026546	      0.06941943
      7.50000000	      0.04075948	      0.03078790	      0.07026583
      7.51666670	      0.04226667	      0.03135197	      0.07124958
      7.53333330	      0.04313023	      0.03167063	      0.07195690
      7.55000000	      0.04297755	      0.03161452	      0.07172785
      7.56666670	      0.04269906	      0.03151192	      0.07130499
      7.58333330	      0.04279722	      0.03154812	      0.07074443
      7.60000000	      0.04363309	      0.03185472	      0.07039020
      7.61666670	      0.04489801	      0.03231315	      0.07002320
      7.63333330	      0.04703022	      0.03307153	      0.07035528
      7.65000000	      0.04983370	      0.03404296	      0.07104216
      7.66666670	      0.05345375	      0.03525777	      0.07215904
      7.68333330	      0.05648110	      0.03624243	      0.07296329
      7.70000000	      0.05882692	      0.03698740	      0.07350541
      7.71666670	      0.06110735	      0.03769749	      0.07370434
      7.73333330	      0.06245989	      0.03811241	      0.07422737
      7.75000000	      0.06341334	      0.03840220	      0.07460128
      7.76666670	      0.06417758	      0.03863291	      0.07529652
      7.78333330	      0.06484956	      0.03883464	      0.07579621
      7.80000000	      0.06509297	      0.03890746	      0.07586540
      7.81666670	      0.06555141	      0.03904423	      0.07537250
      7.83333330	      0.06619281	      0.03923478	      0.07472524
      7.85000000	      0.06737852	      0.03958462	      0.07430944
      7.86666670	      0.06883909	      0.04001136	      0.07434270
      7.88333330	      0.06990355	      0.04031952	      0.07396326
      7.90000000	      0.06995947	      0.04033565	      0.07337402
      7.91666670	      0.07031885	      0.04043912	      0.07388292
      7.93333330	      0.07024215	      0.04041705	      0.07353794
      7.95000000	      0.06901761	      0.04006321	      0.07272196
      7.96666670	      0.06845349	      0.03989914	      0.07347407
      7.98333330	      0.06902391	      0.04006504	      0.07514913
      8.00000000	      0.06911446	      0.04009131	      0.07668397
      8.01666670	      0.06848245	      0.03990758	      0.07801268
      8.03333330	      0.06793307	      0.03974719	      0.07919099
      8.05000000	      0.06788073	      0.03973187	      0.08146128
      8.06666670	      0.06812263	      0.03980260	      0.08348227
      8.08333330	      0.06917921	      0.04011008	      0.08553239
      8.10000000	      0.06946836	      0.04019382	      0.08760290
      8.11666670	      0.06909296	      0.04008507	      0.08961130
      8.13333330	      0.06916580	      0.04010620	      0.09214608
      8.15000000	      0.06929004	      0.04014220	      0.09442009
      8.16666670	      0.06920705	      0.04011815	      0.09585339
      8.18333330	      0.06933539	      0.04015534	      0.09762649
      8.20000000	      0.06924066	      0.04012790	      0.09937598
      8.21666670	      0.06812769	      0.03980408	      0.09932060
      8.23333330	      0.06699099	      0.03947062	      0.09979710
      8.25000000	      0.06438754	      0.03869605	      0.09912007
      8.26666670	      0.06206492	      0.03799171	      0.09817998
      8.28333330	      0.05990859	      0.03732590	      0.09707204
      8.30000000	      0.05711542	      0.03644538	      0.09536168
      8.31666670	      0.05408191	      0.03546433	      0.09301663
      8.33333330	      0.05019461	      0.03416601	      0.08976312
      8.35000000	      0.04637121	      0.03283901	      0.08628603
      8.36666670	      0.04277522	      0.03154002	      0.08276565
      8.38333330	      0.03957129	      0.03033583	      0.07906792
      8.40000000	      0.03671591	      0.02922085	      0.07538839
      8.41666670	      0.03446497	      0.02831097	      0.07241647
      8.43333330	      0.03210853	      0.02732600	      0.06863953
      8.45000000	      0.03019602	      0.02649968	      0.06551593
      8.46666670	      0.02880488	      0.02588206	      0.06271595
      8.48333330	      0.02779519	      0.02542439	      0.06074467
      8.50000000	      0.02719426	      0.02514806	      0.05979999
      8.51666670	      0.02678534	      0.02495826	      0.05946771
      8.53333330	      0.02662797	      0.02488484	      0.05983902
      8.55000000	      0.02615158	      0.02466123	      0.05958815
      8.56666670	      0.02621400	      0.02469064	      0.06004851
      8.58333330	      0.02614431	      0.02465780	      0.06035582
      8.60000000	      0.02659576	      0.02486978	      0.06110118
      8.61666670	      0.02722943	      0.02516431	      0.06193734
      8.63333330	      0.02821130	      0.02561400	      0.06306672
      8.65000000	      0.02971868	      0.02628939	      0.06433011
      8.66666670	      0.03099918	      0.02684979	      0.06518611
      8.68333330	      0.03210066	      0.02732265	      0.06576442
      8.70000000	      0.03327874	      0.02781949	      0.06634931
      8.71666670	      0.03433602	      0.02825796	      0.06686254
      8.73333330	      0.03538415	      0.02868601	      0.06733207
      8.75000000	      0.03699412	      0.02933136	      0.06798121
      8.76666670	      0.03832113	      0.02985279	      0.06865087
      8.78333330	      0.03980769	      0.03042631	      0.06957893
      8.80000000	      0.04156238	      0.03108966	      0.07085771
      8.81666670	      0.04264139	      0.03149064	      0.07176388
      8.83333330	      0.04280998	      0.03155283	      0.07169259
      8.85000000	      0.04296419	      0.03160961	      0.07152685
      8.86666670	      0.04339733	      0.03176854	      0.07111284
      8.88333330	      0.04498315	      0.03234378	      0.07158986
      8.90000000	      0.04652176	      0.03289227	      0.07128264
      8.91666670	      0.04839864	      0.03354921	      0.07131413
      8.93333330	      0.05139212	      0.03457117	      0.07216805
      8.95000000	      0.05469009	      0.03566318	      0.07260143
      8.96666670	      0.05831968	      0.03682759	      0.07347522
      8.98333330	      0.06087884	      0.03762695	      0.07393137
      9.00000000	      0.06257074	      0.03814621	      0.07375802
      9.01666670	      0.06345284	      0.03841416	      0.07498674
      9.03333330	      0.06367472	      0.03848126	      0.07467830
      9.05000000	      0.06418057	      0.03863381	      0.07411959
      9.06666670	      0.06419678	      0.03863869	      0.07375320
      9.08333330	      0.06485636	      0.03883668	      0.07295529
      9.10000000	      0.06516825	      0.03892995	      0.07221199
      9.11666670	      0.06591048	      0.03915101	      0.07169113
      9.13333330	      0.06706977	      0.03949382	      0.07194397
      9.15000000	      0.06802659	      0.03977454	      0.07117891
      9.16666670	      0.06874245	      0.03998327	      0.07151097
      9.18333330	      0.06951435	      0.04020712	      0.07140839
      9.20000000	      0.06896497	      0.04004793	      0.07104505
      9.21666670	      0.06873055	      0.03997981	      0.07203607
      9.23333330	      0.06774430	      0.03969192	      0.07266499
      9.25000000	      0.06711264	      0.03950644	      0.07373827
      9.26666670	      0.06623566	      0.03924747	      0.07472634
      9.28333330	      0.06585963	      0.03913591	      0.07595722
      9.30000000	      0.06611876	      0.03921282	      0.07747542
      9.31666670	      0.06580566	      0.03911987	      0.07882999
      9.33333330	      0.06558810	      0.03905515	      0.08051773
      9.35000000	      0.06541961	      0.03900495	      0.08194129
      9.36666670	      0.06566035	      0.03907665	      0.08423206
      9.38333330	      0.06601489	      0.03918201	      0.08615667
      9.40000000	      0.06646922	      0.03931661	      0.08844742
      9.41666670	      0.06713847	      0.03951405	      0.09027575
      9.43333330	      0.06813497	      0.03980621	      0.09321518
      9.45000000	      0.06929967	      0.04014499	      0.09510304
      9.46666670	      0.06996797	      0.04033810	      0.09775940
      9.48333330	      0.07047083	      0.04048279	      0.09954995
      9.50000000	      0.06976439	      0.04027937	      0.09999063
      9.51666670	      0.06831067	      0.03985750	      0.10043744
      9.53333330	      0.06578735	      0.03911443	      0.09978741
      9.55000000	      0.06308687	      0.03830322	      0.09893387
      9.56666670	      0.05957673	      0.03722238	      0.09709207
      9.58333330	      0.05544973	      0.03591001	      0.09411955
      9.60000000	      0.05141571	      0.03457910	      0.09077175
      9.61666670	      0.04765159	      0.03328929	      0.08725690
      9.63333330	      0.04453702	      0.03218299	      0.08384457
      9.65000000	      0.04129227	      0.03098847	      0.08027819
      9.66666670	      0.03868361	      0.02999365	      0.07730921
      9.68333330	      0.03596071	      0.02891878	      0.07385839
      9.70000000	      0.03321931	      0.02779464	      0.06966343
      9.71666670	      0.03110188	      0.02689423	      0.06657408
      9.73333330	      0.02977364	      0.02631369	      0.06396670
      9.75000000	      0.02863548	      0.02580584	      0.06224477
      9.76666670	      0.02802158	      0.02552772	      0.06066398
      9.78333330	      0.02736256	      0.02522576	      0.06011799
      9.80000000	      0.02694366	      0.02503191	      0.06052166
      9.81666670	      0.02641326	      0.02478431	      0.05993117
      9.83333330	      0.02620741	      0.02468754	      0.06026227
      9.85000000	      0.02579426	      0.02449217	      0.06008216
      9.86666670	      0.02557094	      0.02438592	      0.05969288
      9.88333330	      0.02523731	      0.02422631	      0.05911825
      9.90000000	      0.02487323	      0.02405093	      0.05849255
      9.91666670	      0.02446460	      0.02385255	      0.05792715
      9.93333330	      0.02418110	      0.02371394	      0.05744250
      9.95000000	      0.02373299	      0.02349319	      0.05711047
      9.96666670	      0.02342898	      0.02334224	      0.05681299
      9.98333330	      0.02308219	      0.02316884	      0.05629548
     10.00000000	      0.02290140	      0.02307793	      0.05592487
     10.01666670	      0.02271873	      0.02298570	      0.05539077
     10.03333330	      0.02269303	      0.02297270	      0.05589275
     10.05000000	      0.02261395	      0.02293264	      0.05580135
     10.06666670	      0.02238588	      0.02281670	      0.05530251
     10.08333330	      0.02223579	      0.02274008	      0.05548553
     10.10000000	      0.02197985	      0.02260883	      0.05530318
     10.11666670	      0.02171759	      0.02247354	      0.05536151
     10.13333330	      0.02154426	      0.02238368	      0.05523354
     10.15000000	      0.02147424	      0.02234728	      0.05530475
     10.16666670	      0.02139063	      0.02230373	      0.05522361
     10.18333330	      0.02123512	      0.02222251	      0.05488876
     10.20000000	      0.02110651	      0.02215511	      0.05486018
     10.21666670	      0.02109315	      0.02214810	      0.05463608
     10.23333330	      0.02092660	      0.02206049	      0.05440463
     10.25000000	      0.02081235	      0.02200019	      0.05389313
     10.26666670	      0.02087286	      0.02203214	      0.05402594
     10.28333330	      0.02063693	      0.02190727	      0.05389468
     10.30000000	      0.02069406	      0.02193757	      0.05422654
     10.31666670	      0.02078032	      0.02198325	      0.05415083
     10.33333330	      0.02079443	      0.02199071	      0.05420195
     10.35000000	      0.02064588	      0.02191202	      0.05441637
     10.36666670	      0.02059259	      0.02188373	      0.05447674
     10.38333330	      0.02052339	      0.02184692	      0.05444950
     10.40000000	      0.02048392	      0.02182591	      0.05461036
     10.41666670	      0.02043357	      0.02179907	      0.05462033
     10.43333330	      0.02043648	      0.02180062	      0.05488768
     10.45000000	      0.02045300	      0.02180943	      0.05456981
     10.46666670	      0.02045664	      0.02181137	      0.05453191
     10.48333330	      0.02037008	      0.02176517	      0.05446678
     10.50000000	      0.02032415	      0.02174062	      0.05431375
     10.51666670	      0.02033461	      0.02174622	      0.05444156
     10.53333330	      0.02026171	      0.02170720	      0.05411922
     10.55000000	      0.02022088	      0.02168532	      0.05399026
     10.56666670	      0.02028750	      0.02172101	      0.05399146
     10.58333330	      0.02033341	      0.02174557	      0.05406456
     10.60000000	      0.02037801	      0.02176941	      0.05420110
     10.61666670	      0.02034923	      0.02175403	      0.05393872
     10.63333330	      0.02040406	      0.02178332	      0.05428452
     10.65000000	      0.02046232	      0.02181440	      0.05433548
     10.66666670	      0.02056113	      0.02186700	      0.05411139
     10.68333330	      0.02058790	      0.02188123	      0.05403905
     10.70000000	      0.02057569	      0.02187474	      0.05404306
     10.71666670	      0.02067133	      0.02192552	      0.05433675
     10.73333330	      0.02071777	      0.02195014	      0.05416462
     10.75000000	      0.02076408	      0.02197466	      0.05435721
     10.76666670	      0.02077263	      0.02197918	      0.05408162
     10.78333330	      0.02084144	      0.02201556	      0.05427017
     10.80000000	      0.02080378	      0.02199566	      0.05414671
     10.81666670	      0.02081606	      0.02200215	      0.05397263
     10.83333330	      0.02078626	      0.02198639	      0.05381355
